{"type":"FeatureCollection","features":[{"type":"Feature","geometry":{"type":"Point","coordinates":[133.1822,34.2996]},"properties":{"name":"\u56e0\u5cf6\u5909\u96fb\u6240","vm_pu":1.0,"va_deg":0.0,"vn_kv":110.0}},{"type":"Feature","geometry":{"type":"Point","coordinates":[134.1145,34.9541]},"properties":{"name":"\u8c37\u53e3\u5909\u96fb\u6240","vm_pu":1.0,"va_deg":5.68,"vn_kv":110.0}},{"type":"Feature","geometry":{"type":"Point","coordinates":[133.895,34.6365]},"properties":{"name":"\u4e0b\u4e2d\u91ce\u5909\u96fb\u6240","vm_pu":1.0,"va_deg":4.5,"vn_kv":110.0}},{"type":"Feature","geometry":{"type":"Point","coordinates":[133.2391,34.5557]},"properties":{"name":"\u7528\u571f\u753a\u5909\u96fb\u6240","vm_pu":1.0,"va_deg":5.7,"vn_kv":220.0}},{"type":"Feature","geometry":{"type":"Point","coordinates":[134.0508,34.3241]},"properties":{"name":"\u6817\u6797\u5909\u96fb\u6240","vm_pu":1.0,"va_deg":3.98,"vn_kv":66.0}},{"type":"Feature","geometry":{"type":"Point","coordinates":[134.0028,34.2258]},"properties":{"name":"\u9999\u5ddd\u5909\u96fb\u6240","vm_pu":1.0,"va_deg":3.93,"vn_kv":187.0}},{"type":"Feature","geometry":{"type":"Point","coordinates":[133.9866,34.29]},"properties":{"name":"\u9ad8\u677e\u5909\u96fb\u6240","vm_pu":1.0,"va_deg":5.58,"vn_kv":187.0}},{"type":"Feature","geometry":{"type":"Point","coordinates":[133.9535,34.165]},"properties":{"name":"\u8b83\u5c90\u5909\u96fb\u6240","vm_pu":1.0,"va_deg":5.96,"vn_kv":500.0}},{"type":"Feature","geometry":{"type":"Point","coordinates":[133.9431,34.2462]},"properties":{"name":"\u7dbe\u5357\u5909\u96fb\u6240","vm_pu":1.0,"va_deg":4.01,"vn_kv":66.0}},{"type":"Feature","geometry":{"type":"Point","coordinates":[133.9806,34.3074]},"properties":{"name":"\u7aef\u5ca1\u5909\u96fb\u6240","vm_pu":1.0,"va_deg":4.56,"vn_kv":66.0}},{"type":"Feature","geometry":{"type":"Point","coordinates":[134.0155,34.2403]},"properties":{"name":"\u7531\u4f50\u5909\u96fb\u6240","vm_pu":1.0,"va_deg":3.34,"vn_kv":66.0}},{"type":"Feature","geometry":{"type":"Point","coordinates":[133.8612,34.3236]},"properties":{"name":"\u662d\u548c\u753a\u4e8c\u4e01\u76ee\u5909\u96fb\u6240","vm_pu":1.0,"va_deg":6.93,"vn_kv":110.0}},{"type":"Feature","geometry":{"type":"Point","coordinates":[133.8014,34.2996]},"properties":{"name":"\u5bcc\u58eb\u898b\u5909\u96fb\u6240","vm_pu":1.0,"va_deg":4.11,"vn_kv":66.0}},{"type":"Feature","geometry":{"type":"Point","coordinates":[133.821,34.3072]},"properties":{"name":"\u5b87\u591a\u6d25\u5909\u96fb\u6240","vm_pu":1.0,"va_deg":4.29,"vn_kv":66.0}},{"type":"Feature","geometry":{"type":"Point","coordinates":[133.8632,34.2836]},"properties":{"name":"\u5742\u51fa\u5909\u96fb\u6240","vm_pu":1.0,"va_deg":4.45,"vn_kv":66.0}},{"type":"Feature","geometry":{"type":"Point","coordinates":[133.881,34.3332]},"properties":{"name":"\u6797\u7530\u753a\u5909\u96fb\u6240","vm_pu":1.0,"va_deg":6.91,"vn_kv":110.0}},{"type":"Feature","geometry":{"type":"Point","coordinates":[133.8588,34.3129]},"properties":{"name":"\u7b20\u5c71\u5909\u96fb\u6240","vm_pu":1.0,"va_deg":4.21,"vn_kv":66.0}},{"type":"Feature","geometry":{"type":"Point","coordinates":[133.8623,34.3021]},"properties":{"name":"\u798f\u6c5f\u753a\u4e09\u4e01\u76ee\u5909\u96fb\u6240","vm_pu":1.0,"va_deg":6.11,"vn_kv":500.0}},{"type":"Feature","geometry":{"type":"Point","coordinates":[132.4081,34.3813]},"properties":{"name":"\u897f\u5e83\u5cf6\u5909\u96fb\u6240","vm_pu":1.0,"va_deg":5.29,"vn_kv":110.0}},{"type":"Feature","geometry":{"type":"Point","coordinates":[132.3182,34.3249]},"properties":{"name":"\u5bae\u5cf6\u5909\u96fb\u6240","vm_pu":1.0,"va_deg":5.65,"vn_kv":110.0}},{"type":"Feature","geometry":{"type":"Point","coordinates":[132.2736,34.2863]},"properties":{"name":"\u5927\u91ce\u5909\u96fb\u6240","vm_pu":1.0,"va_deg":6.77,"vn_kv":66.0}},{"type":"Feature","geometry":{"type":"Point","coordinates":[132.3007,34.3558]},"properties":{"name":"\u5eff\u65e5\u5e02\u5909\u96fb\u6240","vm_pu":1.0,"va_deg":5.7,"vn_kv":110.0}},{"type":"Feature","geometry":{"type":"Point","coordinates":[132.2324,34.3596]},"properties":{"name":"\u53cb\u548c\u5909\u96fb\u6240","vm_pu":1.0,"va_deg":5.13,"vn_kv":22.0}},{"type":"Feature","geometry":{"type":"Point","coordinates":[134.0386,34.3108]},"properties":{"name":"\u56db\u56fd\u96fb\u529b\u4e0a\u5929\u795e\u5909\u96fb\u6240","vm_pu":1.0,"va_deg":4.19,"vn_kv":66.0}},{"type":"Feature","geometry":{"type":"Point","coordinates":[133.7616,34.1853]},"properties":{"name":"\u56db\u56fd\u96fb\u529b\u9ebb\u5909\u96fb\u6240","vm_pu":1.0,"va_deg":5.83,"vn_kv":187.0}},{"type":"Feature","geometry":{"type":"Point","coordinates":[132.7095,34.4892]},"properties":{"name":"\u65b0\u5e83\u5cf6\u5909\u96fb\u6240","vm_pu":1.0,"va_deg":6.0,"vn_kv":500.0}},{"type":"Feature","geometry":{"type":"Point","coordinates":[132.5382,34.4401]},"properties":{"name":"\u5e83\u5cf6\u5909\u96fb\u6240","vm_pu":1.0,"va_deg":5.61,"vn_kv":220.0}},{"type":"Feature","geometry":{"type":"Point","coordinates":[132.442,34.4263]},"properties":{"name":"\u5317\u5e83\u5cf6\u5909\u96fb\u6240 (Kita-Hiroshima Hendensho)","vm_pu":1.0,"va_deg":5.37,"vn_kv":110.0}},{"type":"Feature","geometry":{"type":"Point","coordinates":[132.8291,35.369]},"properties":{"name":"\u6590\u5ddd\u753a\u795e\u6c37\u5909\u96fb\u6240","vm_pu":1.0,"va_deg":3.84,"vn_kv":110.0}},{"type":"Feature","geometry":{"type":"Point","coordinates":[132.7768,33.8212]},"properties":{"name":"\u56db\u56fd\u96fb\u529b \u5929\u5c71\u5909\u96fb\u6240","vm_pu":1.0,"va_deg":5.5,"vn_kv":66.0}},{"type":"Feature","geometry":{"type":"Point","coordinates":[132.8043,33.8346]},"properties":{"name":"\u677e\u5c71\u5909\u96fb\u6240","vm_pu":1.0,"va_deg":5.63,"vn_kv":187.0}},{"type":"Feature","geometry":{"type":"Point","coordinates":[132.8796,33.8061]},"properties":{"name":"\u5fd7\u6d25\u5ddd\u5357\u4e09\u4e01\u76ee\u5909\u96fb\u6240","vm_pu":1.0,"va_deg":5.65,"vn_kv":500.0}},{"type":"Feature","geometry":{"type":"Point","coordinates":[133.3948,33.944]},"properties":{"name":"\u6771\u4e88\u5909\u96fb\u6240","vm_pu":1.0,"va_deg":5.71,"vn_kv":500.0}},{"type":"Feature","geometry":{"type":"Point","coordinates":[132.9288,33.7922]},"properties":{"name":"\u5ddd\u5185\u767a\u96fb\u6240","vm_pu":1.0,"va_deg":5.64,"vn_kv":500.0}},{"type":"Feature","geometry":{"type":"Point","coordinates":[133.2234,33.9129]},"properties":{"name":"\u897f\u6761\u5909\u96fb\u6240","vm_pu":1.0,"va_deg":5.36,"vn_kv":187.0}},{"type":"Feature","geometry":{"type":"Point","coordinates":[133.2849,33.9754]},"properties":{"name":"\u65b0\u9808\u8cc0\u5909\u96fb\u6240","vm_pu":1.0,"va_deg":4.95,"vn_kv":187.0}},{"type":"Feature","geometry":{"type":"Point","coordinates":[133.2782,33.9794]},"properties":{"name":"\u83ca\u672c\u753a\u4e00\u4e01\u76ee\u5909\u96fb\u6240","vm_pu":1.0,"va_deg":4.62,"vn_kv":110.0}},{"type":"Feature","geometry":{"type":"Point","coordinates":[132.578,34.4039]},"properties":{"name":"\u4e2d\u91ce\u4e94\u4e01\u76ee\u5909\u96fb\u6240","vm_pu":1.0,"va_deg":5.81,"vn_kv":110.0}},{"type":"Feature","geometry":{"type":"Point","coordinates":[132.5047,34.4027]},"properties":{"name":"\u6771\u5e83\u5cf6\u5909\u96fb\u6240","vm_pu":1.0,"va_deg":5.55,"vn_kv":110.0}},{"type":"Feature","geometry":{"type":"Point","coordinates":[132.6895,34.3799]},"properties":{"name":"\u5357\u897f\u6761\u5909\u96fb\u6240","vm_pu":1.0,"va_deg":6.92,"vn_kv":110.0}},{"type":"Feature","geometry":{"type":"Point","coordinates":[132.4869,34.4752]},"properties":{"name":"\u7dd1\u4e95\u516d\u4e01\u76ee\u5909\u96fb\u6240","vm_pu":1.0,"va_deg":5.45,"vn_kv":110.0}},{"type":"Feature","geometry":{"type":"Point","coordinates":[130.8044,33.8098]},"properties":{"name":"\u5317\u4e5d\u5dde\u5909\u96fb\u6240","vm_pu":1.0,"va_deg":5.96,"vn_kv":500.0}},{"type":"Feature","geometry":{"type":"Point","coordinates":[134.1247,34.3426]},"properties":{"name":"\u725f\u793c\u753a\u725f\u793c\u5909\u96fb\u6240","vm_pu":1.0,"va_deg":2.09,"vn_kv":66.0}},{"type":"Feature","geometry":{"type":"Point","coordinates":[130.971,33.8958]},"properties":{"name":"\u4e5d\u5dde\u96fb\u529b \u9580\u53f8\u5909\u96fb\u6240","vm_pu":1.0,"va_deg":5.64,"vn_kv":220.0}},{"type":"Feature","geometry":{"type":"Point","coordinates":[130.9136,33.8421]},"properties":{"name":"\u4e0a\u845b\u539f\u4e00\u4e01\u76ee\u5909\u96fb\u6240","vm_pu":1.0,"va_deg":5.77,"vn_kv":220.0}},{"type":"Feature","geometry":{"type":"Point","coordinates":[134.2486,34.2908]},"properties":{"name":"\u6d25\u7530\u5909\u96fb\u6240","vm_pu":1.0,"va_deg":-6.55,"vn_kv":66.0}},{"type":"Feature","geometry":{"type":"Point","coordinates":[132.2576,34.4126]},"properties":{"name":"\u65b0\u897f\u5e83\u5cf6\u5909\u96fb\u6240","vm_pu":1.0,"va_deg":6.36,"vn_kv":500.0}},{"type":"Feature","geometry":{"type":"Point","coordinates":[132.4763,34.3632]},"properties":{"name":"\u4e39\u90a3\u753a\u5909\u96fb\u6240","vm_pu":1.0,"va_deg":5.29,"vn_kv":110.0}},{"type":"Feature","geometry":{"type":"Point","coordinates":[132.4387,34.4032]},"properties":{"name":"\u5c0f\u6cb3\u5185\u753a\u4e8c\u4e01\u76ee\u5909\u96fb\u6240","vm_pu":1.0,"va_deg":5.25,"vn_kv":110.0}},{"type":"Feature","geometry":{"type":"Point","coordinates":[131.093,34.1631]},"properties":{"name":"\u65b0\u5c71\u53e3\u5909\u96fb\u6240","vm_pu":1.0,"va_deg":6.23,"vn_kv":500.0}},{"type":"Feature","geometry":{"type":"Point","coordinates":[130.9635,33.999]},"properties":{"name":"\u4e0b\u95a2\u5909\u96fb\u6240","vm_pu":1.0,"va_deg":6.01,"vn_kv":110.0}},{"type":"Feature","geometry":{"type":"Point","coordinates":[132.3643,34.3891]},"properties":{"name":"\u516b\u5e61\u5909\u96fb\u6240","vm_pu":1.0,"va_deg":5.3,"vn_kv":110.0}},{"type":"Feature","geometry":{"type":"Point","coordinates":[134.0004,34.2132]},"properties":{"name":"\u7dbe\u5ddd\u753a\u5909\u96fb\u6240","vm_pu":1.0,"va_deg":3.91,"vn_kv":187.0}},{"type":"Feature","geometry":{"type":"Point","coordinates":[130.868,33.8667]},"properties":{"name":"\u4e5d\u5dde\u96fb\u529b \u5c0f\u5009\u5909\u96fb\u6240","vm_pu":1.0,"va_deg":5.33,"vn_kv":66.0}},{"type":"Feature","geometry":{"type":"Point","coordinates":[130.8501,33.8277]},"properties":{"name":"\u897f\u8c37\u5909\u96fb\u6240","vm_pu":1.0,"va_deg":5.82,"vn_kv":220.0}},{"type":"Feature","geometry":{"type":"Point","coordinates":[130.9773,33.7749]},"properties":{"name":"\u5bcc\u4e45\u753a\u4e00\u4e01\u76ee\u5909\u96fb\u6240","vm_pu":1.0,"va_deg":5.77,"vn_kv":66.0}},{"type":"Feature","geometry":{"type":"Point","coordinates":[130.9783,33.7772]},"properties":{"name":"\u4eac\u753a\u4e8c\u4e01\u76ee\u5909\u96fb\u6240","vm_pu":1.0,"va_deg":6.24,"vn_kv":220.0}},{"type":"Feature","geometry":{"type":"Point","coordinates":[134.0244,34.8877]},"properties":{"name":"\u6771\u5ca1\u5c71\u5909\u96fb\u6240","vm_pu":1.0,"va_deg":6.19,"vn_kv":500.0}},{"type":"Feature","geometry":{"type":"Point","coordinates":[134.4256,34.8616]},"properties":{"name":"\u897f\u64ad\u5909\u96fb\u6240","vm_pu":1.0,"va_deg":6.93,"vn_kv":500.0}},{"type":"Feature","geometry":{"type":"Point","coordinates":[133.3884,34.8039]},"properties":{"name":"\u65b0\u5ca1\u5c71\u5909\u96fb\u6240","vm_pu":1.0,"va_deg":6.06,"vn_kv":500.0}},{"type":"Feature","geometry":{"type":"Point","coordinates":[133.8938,34.5016]},"properties":{"name":"\u8feb\u9593\u5909\u96fb\u6240","vm_pu":1.0,"va_deg":4.53,"vn_kv":110.0}},{"type":"Feature","geometry":{"type":"Point","coordinates":[133.4058,35.2962]},"properties":{"name":"\u65e5\u91ce\u5909\u96fb\u6240","vm_pu":1.0,"va_deg":6.09,"vn_kv":500.0}},{"type":"Feature","geometry":{"type":"Point","coordinates":[133.7833,34.4581]},"properties":{"name":"\u83f0\u6c60\u4e8c\u4e01\u76ee\u5909\u96fb\u6240","vm_pu":1.0,"va_deg":6.18,"vn_kv":500.0}},{"type":"Feature","geometry":{"type":"Point","coordinates":[134.0238,34.6599]},"properties":{"name":"\u897f\u5927\u5bfa\u5909\u96fb\u6240 (Saidaiji Hendensho)","vm_pu":1.0,"va_deg":5.17,"vn_kv":110.0}},{"type":"Feature","geometry":{"type":"Point","coordinates":[133.8637,34.7487]},"properties":{"name":"\u5ca1\u5c71\u5909\u96fb\u6240","vm_pu":1.0,"va_deg":5.57,"vn_kv":220.0}},{"type":"Feature","geometry":{"type":"Point","coordinates":[134.0305,34.7113]},"properties":{"name":"\u65b0\u4e0a\u9053\u5909\u96fb\u6240","vm_pu":1.0,"va_deg":5.38,"vn_kv":220.0}},{"type":"Feature","geometry":{"type":"Point","coordinates":[133.4835,34.661]},"properties":{"name":"\u4e95\u539f\u958b\u9589\u6240","vm_pu":1.0,"va_deg":5.96,"vn_kv":220.0}},{"type":"Feature","geometry":{"type":"Point","coordinates":[131.8263,34.2]},"properties":{"name":"\u6771\u5c71\u53e3\u5909\u96fb\u6240 (Higashi Yamaguchi Hendensho)","vm_pu":1.0,"va_deg":6.72,"vn_kv":500.0}},{"type":"Feature","geometry":{"type":"Point","coordinates":[134.1879,35.2084]},"properties":{"name":"\u958b\u9589\u6240","vm_pu":1.0,"va_deg":5.99,"vn_kv":220.0}},{"type":"Feature","geometry":{"type":"Point","coordinates":[133.7424,34.5649]},"properties":{"name":"\u5009\u6577\u5909\u96fb\u6240","vm_pu":1.0,"va_deg":6.83,"vn_kv":110.0}},{"type":"Feature","geometry":{"type":"Point","coordinates":[133.7377,34.6848]},"properties":{"name":"\u7dcf\u793e\u5909\u96fb\u6240","vm_pu":1.0,"va_deg":5.19,"vn_kv":110.0}},{"type":"Feature","geometry":{"type":"Point","coordinates":[133.6927,34.6049]},"properties":{"name":"\u5009\u6577\u5e02\u5909\u96fb\u6240","vm_pu":1.0,"va_deg":5.97,"vn_kv":220.0}},{"type":"Feature","geometry":{"type":"Point","coordinates":[131.8494,34.1228]},"properties":{"name":"\u65b0\u5fb3\u5c71\u5909\u96fb\u6240","vm_pu":1.0,"va_deg":7.18,"vn_kv":220.0}},{"type":"Feature","geometry":{"type":"Point","coordinates":[130.8685,33.8905]},"properties":{"name":"\u5c0f\u5009\u5317\u533a\u5909\u96fb\u6240","vm_pu":1.0,"va_deg":3.91,"vn_kv":20.0}},{"type":"Feature","geometry":{"type":"Point","coordinates":[130.8651,33.7515]},"properties":{"name":"\u5c0f\u5009\u5357\u533a\u5909\u96fb\u6240","vm_pu":1.0,"va_deg":5.68,"vn_kv":110.0}},{"type":"Feature","geometry":{"type":"Point","coordinates":[130.8614,33.7862]},"properties":{"name":"\u5c0f\u5009\u5357\u533a\u5909\u96fb\u6240_2","vm_pu":1.0,"va_deg":5.87,"vn_kv":220.0}},{"type":"Feature","geometry":{"type":"Point","coordinates":[130.8049,33.8602]},"properties":{"name":"\u6625\u306e\u753a\u4e8c\u4e01\u76ee\u5909\u96fb\u6240","vm_pu":1.0,"va_deg":5.64,"vn_kv":66.0}},{"type":"Feature","geometry":{"type":"Point","coordinates":[130.9163,33.8451]},"properties":{"name":"\u845b\u539f\u56db\u4e01\u76ee\u5909\u96fb\u6240","vm_pu":1.0,"va_deg":5.77,"vn_kv":220.0}},{"type":"Feature","geometry":{"type":"Point","coordinates":[130.9691,33.9107]},"properties":{"name":"JR\u897f\u65e5\u672c \u65b0\u9580\u53f8\u5909\u96fb\u6240","vm_pu":1.0,"va_deg":5.64,"vn_kv":220.0}},{"type":"Feature","geometry":{"type":"Point","coordinates":[130.971,33.859]},"properties":{"name":"\u4e5d\u5dde\u96fb\u529b \u677e\u30f6\u6c5f\u5909\u96fb\u6240","vm_pu":1.0,"va_deg":5.55,"vn_kv":66.0}},{"type":"Feature","geometry":{"type":"Point","coordinates":[130.9848,33.8859]},"properties":{"name":"\u4e5d\u5dde\u96fb\u529b \u4eca\u6d25\u5909\u96fb\u6240","vm_pu":1.0,"va_deg":5.22,"vn_kv":66.0}},{"type":"Feature","geometry":{"type":"Point","coordinates":[130.8473,33.8613]},"properties":{"name":"\u69fb\u7530\u7cfb\u7d71\u958b\u9589\u6240","vm_pu":1.0,"va_deg":5.7,"vn_kv":220.0}},{"type":"Feature","geometry":{"type":"Point","coordinates":[130.8698,33.8275]},"properties":{"name":"\u4e5d\u5dde\u96fb\u529b \u5fb3\u529b\u5909\u96fb\u6240","vm_pu":1.0,"va_deg":5.45,"vn_kv":66.0}},{"type":"Feature","geometry":{"type":"Point","coordinates":[130.9598,33.8028]},"properties":{"name":"\u673d\u7db2\u6771\u4e94\u4e01\u76ee\u5909\u96fb\u6240","vm_pu":1.0,"va_deg":5.83,"vn_kv":66.0}},{"type":"Feature","geometry":{"type":"Point","coordinates":[130.8101,33.8611]},"properties":{"name":"\u516b\u5e61\u5909\u96fb\u6240","vm_pu":1.0,"va_deg":5.64,"vn_kv":66.0}},{"type":"Feature","geometry":{"type":"Point","coordinates":[130.8474,33.87]},"properties":{"name":"\u4e5d\u5dde\u96fb\u529b \u5230\u6d25\u5909\u96fb\u6240","vm_pu":1.0,"va_deg":5.65,"vn_kv":220.0}},{"type":"Feature","geometry":{"type":"Point","coordinates":[130.8471,33.8703]},"properties":{"name":"\u5230\u6d25\u5909\u96fb\u6240","vm_pu":1.0,"va_deg":5.64,"vn_kv":220.0}},{"type":"Feature","geometry":{"type":"Point","coordinates":[130.8436,33.8858]},"properties":{"name":"\u4e95\u5800\u4e09\u4e01\u76ee\u5909\u96fb\u6240","vm_pu":1.0,"va_deg":5.4,"vn_kv":66.0}},{"type":"Feature","geometry":{"type":"Point","coordinates":[130.8599,33.8865]},"properties":{"name":"\u65e5\u660e\u7cfb\u7d71\u958b\u9589\u6240","vm_pu":1.0,"va_deg":5.61,"vn_kv":220.0}},{"type":"Feature","geometry":{"type":"Point","coordinates":[130.9275,33.8406]},"properties":{"name":"\u4e5d\u5dde\u96fb\u529b \u66fd\u6839\u5909\u96fb\u6240","vm_pu":1.0,"va_deg":5.6,"vn_kv":66.0}},{"type":"Feature","geometry":{"type":"Point","coordinates":[130.9798,33.9571]},"properties":{"name":"\u5927\u4e45\u4fdd\u4e8c\u4e01\u76ee\u5909\u96fb\u6240","vm_pu":1.0,"va_deg":5.61,"vn_kv":110.0}},{"type":"Feature","geometry":{"type":"Point","coordinates":[133.3458,34.4878]},"properties":{"name":"\u4e2d\u56fd\u96fb\u529b\uff08\u682a\uff09\u672c\u5e84\u5909\u96fb\u6240","vm_pu":1.0,"va_deg":5.36,"vn_kv":66.0}},{"type":"Feature","geometry":{"type":"Point","coordinates":[133.9997,34.2067]},"properties":{"name":"\u7dbe\u5ddd\u753a\u5909\u96fb\u6240_2","vm_pu":1.0,"va_deg":3.91,"vn_kv":187.0}},{"type":"Feature","geometry":{"type":"Point","coordinates":[134.1697,34.7371]},"properties":{"name":"\u6d66\u4f0a\u90e8\u5909\u96fb\u6240","vm_pu":1.0,"va_deg":4.33,"vn_kv":66.0}},{"type":"Feature","geometry":{"type":"Point","coordinates":[133.6545,34.1229]},"properties":{"name":"\u89b3\u97f3\u5bfa\u5909\u96fb\u6240","vm_pu":1.0,"va_deg":5.75,"vn_kv":187.0}},{"type":"Feature","geometry":{"type":"Point","coordinates":[134.4083,34.0008]},"properties":{"name":"\u963f\u6ce2\u5909\u96fb\u6240","vm_pu":1.0,"va_deg":5.93,"vn_kv":500.0}},{"type":"Feature","geometry":{"type":"Point","coordinates":[134.3423,34.2472]},"properties":{"name":"\u5927\u5185\u5909\u96fb\u6240","vm_pu":1.0,"va_deg":-3.51,"vn_kv":66.0}},{"type":"Feature","geometry":{"type":"Point","coordinates":[134.4689,34.0627]},"properties":{"name":"\u56fd\u5e9c\u5909\u96fb\u6240","vm_pu":1.0,"va_deg":5.88,"vn_kv":187.0}},{"type":"Feature","geometry":{"type":"Point","coordinates":[133.9029,34.8416]},"properties":{"name":"\u5efa\u90e8\u5909\u96fb\u6240","vm_pu":1.0,"va_deg":4.66,"vn_kv":110.0}},{"type":"Feature","geometry":{"type":"Point","coordinates":[133.8586,34.9141]},"properties":{"name":"\u5317\u533a\u5909\u96fb\u6240","vm_pu":1.0,"va_deg":4.35,"vn_kv":110.0}},{"type":"Feature","geometry":{"type":"Point","coordinates":[132.8744,34.257]},"properties":{"name":"\u5927\u5d0e\u4e0a\u5cf6\u753a\u5909\u96fb\u6240","vm_pu":1.0,"va_deg":7.9,"vn_kv":220.0}},{"type":"Feature","geometry":{"type":"Point","coordinates":[132.5825,34.2559]},"properties":{"name":"\u4e0a\u5e73\u539f\u5909\u96fb\u6240","vm_pu":1.0,"va_deg":3.87,"vn_kv":110.0}},{"type":"Feature","geometry":{"type":"Point","coordinates":[131.9794,34.6976]},"properties":{"name":"\u897f\u5cf6\u6839\u5909\u96fb\u6240","vm_pu":1.0,"va_deg":6.32,"vn_kv":500.0}},{"type":"Feature","geometry":{"type":"Point","coordinates":[132.6175,34.2443]},"properties":{"name":"\u5449\u5909\u96fb\u6240","vm_pu":1.0,"va_deg":4.92,"vn_kv":110.0}},{"type":"Feature","geometry":{"type":"Point","coordinates":[132.627,34.3198]},"properties":{"name":"\u9ed2\u702c\u5909\u96fb\u6240","vm_pu":1.0,"va_deg":6.09,"vn_kv":110.0}},{"type":"Feature","geometry":{"type":"Point","coordinates":[132.9045,34.3516]},"properties":{"name":"\u672c\u753a\u56db\u4e01\u76ee\u5909\u96fb\u6240","vm_pu":1.0,"va_deg":5.91,"vn_kv":220.0}},{"type":"Feature","geometry":{"type":"Point","coordinates":[132.7195,35.3282]},"properties":{"name":"\u897f\u65b0\u753a\u4e09\u4e01\u76ee\u5909\u96fb\u6240","vm_pu":1.0,"va_deg":4.44,"vn_kv":110.0}},{"type":"Feature","geometry":{"type":"Point","coordinates":[133.0816,35.4623]},"properties":{"name":"\u897f\u6d25\u7530\u4e8c\u4e01\u76ee\u5909\u96fb\u6240","vm_pu":1.0,"va_deg":5.5,"vn_kv":110.0}},{"type":"Feature","geometry":{"type":"Point","coordinates":[133.1154,35.4703]},"properties":{"name":"\u5317\u677e\u6c5f\u5909\u96fb\u6240","vm_pu":1.0,"va_deg":6.26,"vn_kv":500.0}},{"type":"Feature","geometry":{"type":"Point","coordinates":[132.8958,35.2881]},"properties":{"name":"\u6728\u6b21\u753a\u65b0\u5e02\u5909\u96fb\u6240","vm_pu":1.0,"va_deg":4.01,"vn_kv":66.0}},{"type":"Feature","geometry":{"type":"Point","coordinates":[133.0426,35.4323]},"properties":{"name":"\u7389\u9020\u5909\u96fb\u6240 (Tamatsukuri Hendensho)","vm_pu":1.0,"va_deg":4.53,"vn_kv":110.0}},{"type":"Feature","geometry":{"type":"Point","coordinates":[133.3404,35.3893]},"properties":{"name":"\u5409\u8c37\u5909\u96fb\u6240","vm_pu":1.0,"va_deg":5.5,"vn_kv":110.0}},{"type":"Feature","geometry":{"type":"Point","coordinates":[133.3372,35.4179]},"properties":{"name":"\u7c73\u5b50\u5909\u96fb\u6240","vm_pu":1.0,"va_deg":5.18,"vn_kv":110.0}},{"type":"Feature","geometry":{"type":"Point","coordinates":[133.9333,34.6381]},"properties":{"name":"\u5fa1\u821f\u5165\u753a\u5909\u96fb\u6240","vm_pu":1.0,"va_deg":4.79,"vn_kv":110.0}},{"type":"Feature","geometry":{"type":"Point","coordinates":[133.8294,34.6716]},"properties":{"name":"\u5409\u5099\u5909\u96fb\u6240","vm_pu":1.0,"va_deg":4.65,"vn_kv":110.0}},{"type":"Feature","geometry":{"type":"Point","coordinates":[133.6872,34.5176]},"properties":{"name":"\u5009\u6577\u5e02\u5909\u96fb\u6240_2","vm_pu":1.0,"va_deg":8.58,"vn_kv":110.0}},{"type":"Feature","geometry":{"type":"Point","coordinates":[133.7259,34.5278]},"properties":{"name":"\u6c34\u5cf6\u5909\u96fb\u6240","vm_pu":1.0,"va_deg":7.91,"vn_kv":110.0}},{"type":"Feature","geometry":{"type":"Point","coordinates":[133.2127,34.4235]},"properties":{"name":"\u65b0\u9ad8\u5c71\u4e09\u4e01\u76ee\u5909\u96fb\u6240","vm_pu":1.0,"va_deg":5.12,"vn_kv":110.0}},{"type":"Feature","geometry":{"type":"Point","coordinates":[133.4101,34.4403]},"properties":{"name":"\u7b95\u5cf6\u753a\u5909\u96fb\u6240","vm_pu":1.0,"va_deg":7.35,"vn_kv":110.0}},{"type":"Feature","geometry":{"type":"Point","coordinates":[133.1867,34.4072]},"properties":{"name":"\u6817\u539f\u897f\u4e00\u4e01\u76ee\u5909\u96fb\u6240","vm_pu":1.0,"va_deg":5.19,"vn_kv":110.0}},{"type":"Feature","geometry":{"type":"Point","coordinates":[133.3258,34.3993]},"properties":{"name":"\u6cbc\u9688\u753a\u5927\u5b57\u8349\u6df1\u5909\u96fb\u6240","vm_pu":1.0,"va_deg":7.15,"vn_kv":110.0}},{"type":"Feature","geometry":{"type":"Point","coordinates":[133.1822,34.2996]},"properties":{"name":"\u56e0\u5cf6\u4e09\u5e84\u753a\u5909\u96fb\u6240","vm_pu":1.0,"va_deg":0.53,"vn_kv":110.0}},{"type":"Feature","geometry":{"type":"Point","coordinates":[133.1831,34.501]},"properties":{"name":"\u5317\u5c3e\u9053\u5909\u96fb\u6240","vm_pu":1.0,"va_deg":5.66,"vn_kv":110.0}},{"type":"Feature","geometry":{"type":"Point","coordinates":[133.1783,34.4221]},"properties":{"name":"\u5c3e\u9053\u5909\u96fb\u6240","vm_pu":1.0,"va_deg":5.11,"vn_kv":110.0}},{"type":"Feature","geometry":{"type":"Point","coordinates":[133.249,34.4618]},"properties":{"name":"\u677e\u6c38\u5909\u96fb\u6240","vm_pu":1.0,"va_deg":5.19,"vn_kv":110.0}},{"type":"Feature","geometry":{"type":"Point","coordinates":[133.8818,34.669]},"properties":{"name":"\u5317\u533a\u5909\u96fb\u6240_2","vm_pu":1.0,"va_deg":4.86,"vn_kv":110.0}},{"type":"Feature","geometry":{"type":"Point","coordinates":[134.034,34.6615]},"properties":{"name":"\u91d1\u5c71\u5909\u96fb\u6240","vm_pu":1.0,"va_deg":5.18,"vn_kv":110.0}},{"type":"Feature","geometry":{"type":"Point","coordinates":[133.5095,34.5145]},"properties":{"name":"\u7530\u982d\u5909\u96fb\u6240","vm_pu":1.0,"va_deg":6.42,"vn_kv":110.0}},{"type":"Feature","geometry":{"type":"Point","coordinates":[133.3705,34.5]},"properties":{"name":"\u5317\u5409\u6d25\u753a\u4e94\u4e01\u76ee\u5909\u96fb\u6240","vm_pu":1.0,"va_deg":5.89,"vn_kv":110.0}},{"type":"Feature","geometry":{"type":"Point","coordinates":[133.5177,34.5323]},"properties":{"name":"\u7b20\u5ca1\u5909\u96fb\u6240","vm_pu":1.0,"va_deg":6.47,"vn_kv":110.0}},{"type":"Feature","geometry":{"type":"Point","coordinates":[133.7268,35.083]},"properties":{"name":"\u539f\u65b9\u5909\u96fb\u6240","vm_pu":1.0,"va_deg":3.48,"vn_kv":110.0}},{"type":"Feature","geometry":{"type":"Point","coordinates":[133.8369,35.4275]},"properties":{"name":"\u6253\u5439\u767a\u96fb\u6240","vm_pu":1.0,"va_deg":4.79,"vn_kv":110.0}},{"type":"Feature","geometry":{"type":"Point","coordinates":[133.4712,34.9804]},"properties":{"name":"\u65b0\u898b\u5909\u96fb\u6240","vm_pu":1.0,"va_deg":-0.05,"vn_kv":110.0}},{"type":"Feature","geometry":{"type":"Point","coordinates":[133.6939,35.2816]},"properties":{"name":"\u849c\u5c71\u5909\u96fb\u6240 (Hiruzen Hendensho)","vm_pu":1.0,"va_deg":3.76,"vn_kv":110.0}},{"type":"Feature","geometry":{"type":"Point","coordinates":[134.0312,34.7621]},"properties":{"name":"\u5c71\u967d\u5909\u96fb\u6240","vm_pu":1.0,"va_deg":5.68,"vn_kv":110.0}},{"type":"Feature","geometry":{"type":"Point","coordinates":[134.1677,34.7586]},"properties":{"name":"\u5099\u524d\u5909\u96fb\u6240","vm_pu":1.0,"va_deg":4.85,"vn_kv":110.0}},{"type":"Feature","geometry":{"type":"Point","coordinates":[133.7478,34.5094]},"properties":{"name":"\u798f\u7530\u753a\u5357\u755d\u5909\u96fb\u6240","vm_pu":1.0,"va_deg":6.13,"vn_kv":66.0}},{"type":"Feature","geometry":{"type":"Point","coordinates":[134.1801,34.4843]},"properties":{"name":"\u571f\u5e84\u5909\u96fb\u6240","vm_pu":1.0,"va_deg":2.59,"vn_kv":66.0}},{"type":"Feature","geometry":{"type":"Point","coordinates":[133.906,34.5295]},"properties":{"name":"\u69cc\u30b1\u539f\u5909\u96fb\u6240","vm_pu":1.0,"va_deg":4.25,"vn_kv":66.0}},{"type":"Feature","geometry":{"type":"Point","coordinates":[134.0015,34.5476]},"properties":{"name":"\u80f8\u4e0a\u5909\u96fb\u6240","vm_pu":1.0,"va_deg":3.59,"vn_kv":66.0}},{"type":"Feature","geometry":{"type":"Point","coordinates":[134.0558,35.039]},"properties":{"name":"\u5357\u6d25\u5c71\u5909\u96fb\u6240","vm_pu":1.0,"va_deg":5.49,"vn_kv":110.0}},{"type":"Feature","geometry":{"type":"Point","coordinates":[134.0371,34.7279]},"properties":{"name":"\u6771\u533a\u5909\u96fb\u6240","vm_pu":1.0,"va_deg":5.58,"vn_kv":110.0}},{"type":"Feature","geometry":{"type":"Point","coordinates":[134.2806,34.7345]},"properties":{"name":"\u798f\u6cb3\u5909\u96fb\u6240","vm_pu":1.0,"va_deg":0.34,"vn_kv":66.0}},{"type":"Feature","geometry":{"type":"Point","coordinates":[134.0963,34.6247]},"properties":{"name":"\u4e0b\u963f\u77e5\u5909\u96fb\u6240","vm_pu":1.0,"va_deg":6.53,"vn_kv":66.0}},{"type":"Feature","geometry":{"type":"Point","coordinates":[133.8846,34.6273]},"properties":{"name":"\u4e2d\u56fd\u96fb\u529b","vm_pu":1.0,"va_deg":4.53,"vn_kv":110.0}},{"type":"Feature","geometry":{"type":"Point","coordinates":[133.9733,34.7001]},"properties":{"name":"\u4e2d\u533a\u5909\u96fb\u6240","vm_pu":1.0,"va_deg":5.05,"vn_kv":110.0}},{"type":"Feature","geometry":{"type":"Point","coordinates":[134.2208,34.7547]},"properties":{"name":"\u4f0a\u91cc\u5909\u96fb\u6240","vm_pu":1.0,"va_deg":3.8,"vn_kv":66.0}},{"type":"Feature","geometry":{"type":"Point","coordinates":[134.2588,34.8029]},"properties":{"name":"\u4e09\u77f3\u5909\u96fb\u6240","vm_pu":1.0,"va_deg":-0.49,"vn_kv":66.0}},{"type":"Feature","geometry":{"type":"Point","coordinates":[133.9378,34.6134]},"properties":{"name":"\u5357\u5ca1\u5c71\u5909\u96fb\u6240","vm_pu":1.0,"va_deg":4.54,"vn_kv":110.0}},{"type":"Feature","geometry":{"type":"Point","coordinates":[133.9743,34.6935]},"properties":{"name":"\u56fd\u5e9c\u5e02\u5834\u5909\u96fb\u6240","vm_pu":1.0,"va_deg":5.05,"vn_kv":110.0}},{"type":"Feature","geometry":{"type":"Point","coordinates":[134.3066,34.4806]},"properties":{"name":"\u8349\u58c1\u5909\u96fb\u6240","vm_pu":1.0,"va_deg":1.57,"vn_kv":66.0}},{"type":"Feature","geometry":{"type":"Point","coordinates":[133.9091,34.6712]},"properties":{"name":"\u6d25\u5009\u753a\u4e8c\u4e01\u76ee\u5909\u96fb\u6240","vm_pu":1.0,"va_deg":4.81,"vn_kv":110.0}},{"type":"Feature","geometry":{"type":"Point","coordinates":[133.1061,35.4096]},"properties":{"name":"\u516b\u96f2\u753a\u5909\u96fb\u6240","vm_pu":1.0,"va_deg":5.01,"vn_kv":500.0}},{"type":"Feature","geometry":{"type":"Point","coordinates":[133.2637,35.4272]},"properties":{"name":"\u5b89\u6765\u5909\u96fb\u6240","vm_pu":1.0,"va_deg":4.6,"vn_kv":110.0}},{"type":"Feature","geometry":{"type":"Point","coordinates":[132.5166,34.5608]},"properties":{"name":"\u5b89\u4f50\u5317\u533a\u5909\u96fb\u6240","vm_pu":1.0,"va_deg":5.59,"vn_kv":220.0}},{"type":"Feature","geometry":{"type":"Point","coordinates":[132.7358,34.8196]},"properties":{"name":"\u4f5c\u6728\u5909\u96fb\u6240","vm_pu":1.0,"va_deg":5.1,"vn_kv":220.0}},{"type":"Feature","geometry":{"type":"Point","coordinates":[132.5098,35.1908]},"properties":{"name":"\u5927\u7530\u5e02\u5909\u96fb\u6240","vm_pu":1.0,"va_deg":4.33,"vn_kv":110.0}},{"type":"Feature","geometry":{"type":"Point","coordinates":[132.8366,34.7963]},"properties":{"name":"\u4e09\u6b21\u5909\u96fb\u6240 (Miyoshi Hendensho)","vm_pu":1.0,"va_deg":5.34,"vn_kv":110.0}},{"type":"Feature","geometry":{"type":"Point","coordinates":[132.5517,34.2221]},"properties":{"name":"\u5bae\u539f\u5909\u96fb\u6240","vm_pu":1.0,"va_deg":3.93,"vn_kv":110.0}},{"type":"Feature","geometry":{"type":"Point","coordinates":[132.5163,34.1526]},"properties":{"name":"\u5009\u6a4b\u5909\u96fb\u6240","vm_pu":1.0,"va_deg":0.64,"vn_kv":66.0}},{"type":"Feature","geometry":{"type":"Point","coordinates":[132.5214,34.5332]},"properties":{"name":"\u4e09\u5165\u5357\u4e00\u4e01\u76ee\u5909\u96fb\u6240","vm_pu":1.0,"va_deg":5.33,"vn_kv":110.0}},{"type":"Feature","geometry":{"type":"Point","coordinates":[132.4805,34.1681]},"properties":{"name":"\u5927\u67ff\u753a\u5927\u541b\u5909\u96fb\u6240","vm_pu":1.0,"va_deg":-1.2,"vn_kv":66.0}},{"type":"Feature","geometry":{"type":"Point","coordinates":[131.2705,34.0602]},"properties":{"name":"\u5c71\u53e3\u5909\u96fb\u6240","vm_pu":1.0,"va_deg":6.09,"vn_kv":220.0}},{"type":"Feature","geometry":{"type":"Point","coordinates":[131.387,34.093]},"properties":{"name":"\u5c0f\u90e1\u5909\u96fb\u6240","vm_pu":1.0,"va_deg":5.27,"vn_kv":110.0}},{"type":"Feature","geometry":{"type":"Point","coordinates":[131.1858,34.3693]},"properties":{"name":"\u6771\u6df1\u5ddd\u5909\u96fb\u6240","vm_pu":1.0,"va_deg":5.66,"vn_kv":110.0}},{"type":"Feature","geometry":{"type":"Point","coordinates":[131.2369,33.9719]},"properties":{"name":"\u85e4\u5c71\u5909\u96fb\u6240","vm_pu":1.0,"va_deg":4.9,"vn_kv":66.0}},{"type":"Feature","geometry":{"type":"Point","coordinates":[131.1728,33.9669]},"properties":{"name":"\u5c0f\u91ce\u7530\u5909\u96fb\u6240","vm_pu":1.0,"va_deg":6.07,"vn_kv":220.0}},{"type":"Feature","geometry":{"type":"Point","coordinates":[131.2656,33.9414]},"properties":{"name":"\u6069\u7530\u753a\u4e94\u4e01\u76ee\u5909\u96fb\u6240","vm_pu":1.0,"va_deg":5.07,"vn_kv":66.0}},{"type":"Feature","geometry":{"type":"Point","coordinates":[131.2101,33.9552]},"properties":{"name":"\u5927\u5b57\u897f\u6c96\u306e\u5c71\u5909\u96fb\u6240","vm_pu":1.0,"va_deg":5.87,"vn_kv":110.0}},{"type":"Feature","geometry":{"type":"Point","coordinates":[131.2044,34.3719]},"properties":{"name":"\u4ed9\u5d0e\u5909\u96fb\u6240","vm_pu":1.0,"va_deg":5.64,"vn_kv":110.0}},{"type":"Feature","geometry":{"type":"Point","coordinates":[131.2501,33.9738]},"properties":{"name":"\u5b87\u90e8\u5909\u96fb\u6240","vm_pu":1.0,"va_deg":5.54,"vn_kv":110.0}},{"type":"Feature","geometry":{"type":"Point","coordinates":[131.788,34.0701]},"properties":{"name":"\u5ddd\u5d0e\u5909\u96fb\u6240","vm_pu":1.0,"va_deg":8.37,"vn_kv":110.0}},{"type":"Feature","geometry":{"type":"Point","coordinates":[131.8246,34.059]},"properties":{"name":"\u5fb3\u5c71\u5909\u96fb\u6240","vm_pu":1.0,"va_deg":7.63,"vn_kv":110.0}},{"type":"Feature","geometry":{"type":"Point","coordinates":[132.197,34.1689]},"properties":{"name":"\u9326\u898b\u4e09\u4e01\u76ee\u5909\u96fb\u6240","vm_pu":1.0,"va_deg":7.29,"vn_kv":110.0}},{"type":"Feature","geometry":{"type":"Point","coordinates":[133.2596,35.426]},"properties":{"name":"\u4e2d\u5e02\u5834\u5909\u96fb\u6240","vm_pu":1.0,"va_deg":4.59,"vn_kv":110.0}},{"type":"Feature","geometry":{"type":"Point","coordinates":[133.1679,35.3389]},"properties":{"name":"\u5b89\u6765\u5e02\u5909\u96fb\u6240","vm_pu":1.0,"va_deg":4.55,"vn_kv":110.0}},{"type":"Feature","geometry":{"type":"Point","coordinates":[131.4852,34.0548]},"properties":{"name":"\u5927\u5b57\u53f0\u9053\u5909\u96fb\u6240","vm_pu":1.0,"va_deg":3.67,"vn_kv":66.0}},{"type":"Feature","geometry":{"type":"Point","coordinates":[131.4371,34.0708]},"properties":{"name":"\u5c71\u53e3\u5e02\u5909\u96fb\u6240","vm_pu":1.0,"va_deg":4.14,"vn_kv":66.0}},{"type":"Feature","geometry":{"type":"Point","coordinates":[131.4957,34.1084]},"properties":{"name":"\u5c71\u53e3\u5e02\u5909\u96fb\u6240_2","vm_pu":1.0,"va_deg":6.53,"vn_kv":220.0}},{"type":"Feature","geometry":{"type":"Point","coordinates":[131.501,34.0461]},"properties":{"name":"\u4f50\u91ce\u5909\u96fb\u6240","vm_pu":1.0,"va_deg":7.21,"vn_kv":110.0}},{"type":"Feature","geometry":{"type":"Point","coordinates":[131.8479,34.0307]},"properties":{"name":"\u4e45\u7c73\u4e2d\u592e\u4e09\u4e01\u76ee\u5909\u96fb\u6240","vm_pu":1.0,"va_deg":7.61,"vn_kv":110.0}},{"type":"Feature","geometry":{"type":"Point","coordinates":[131.5214,34.1426]},"properties":{"name":"\u4e0b\u5c0f\u9bd6\u5909\u96fb\u6240","vm_pu":1.0,"va_deg":5.95,"vn_kv":110.0}},{"type":"Feature","geometry":{"type":"Point","coordinates":[132.0619,34.2099]},"properties":{"name":"\u7f8e\u548c\u753a\u897f\u7551\u5909\u96fb\u6240","vm_pu":1.0,"va_deg":7.47,"vn_kv":66.0}},{"type":"Feature","geometry":{"type":"Point","coordinates":[131.5412,34.0092]},"properties":{"name":"\u9632\u5e9c\u5e02\u5909\u96fb\u6240","vm_pu":1.0,"va_deg":7.54,"vn_kv":110.0}},{"type":"Feature","geometry":{"type":"Point","coordinates":[131.9724,34.018]},"properties":{"name":"\u4e09\u4e95\u4e8c\u4e01\u76ee\u5909\u96fb\u6240","vm_pu":1.0,"va_deg":8.45,"vn_kv":110.0}},{"type":"Feature","geometry":{"type":"Point","coordinates":[131.8511,34.0131]},"properties":{"name":"\u4e0b\u677e\u767a\u96fb\u6240","vm_pu":1.0,"va_deg":7.55,"vn_kv":220.0}},{"type":"Feature","geometry":{"type":"Point","coordinates":[131.9584,33.9551]},"properties":{"name":"\u5149\u5909\u96fb\u6240","vm_pu":1.0,"va_deg":7.97,"vn_kv":110.0}},{"type":"Feature","geometry":{"type":"Point","coordinates":[131.5097,34.1807]},"properties":{"name":"\u5bae\u91ce\u5909\u96fb\u6240","vm_pu":1.0,"va_deg":5.54,"vn_kv":66.0}},{"type":"Feature","geometry":{"type":"Point","coordinates":[132.1493,34.8614]},"properties":{"name":"\u91d1\u57ce\u5909\u96fb\u6240","vm_pu":1.0,"va_deg":5.87,"vn_kv":110.0}},{"type":"Feature","geometry":{"type":"Point","coordinates":[131.8845,34.6866]},"properties":{"name":"\u6771\u76ca\u7530\u5909\u96fb\u6240","vm_pu":1.0,"va_deg":5.69,"vn_kv":110.0}},{"type":"Feature","geometry":{"type":"Point","coordinates":[131.9221,34.7761]},"properties":{"name":"\u4e09\u9685\u753a\u5ca1\u898b\u5909\u96fb\u6240","vm_pu":1.0,"va_deg":8.43,"vn_kv":275.0}},{"type":"Feature","geometry":{"type":"Point","coordinates":[132.1813,34.9784]},"properties":{"name":"\u4e8c\u5bae\u753a\u795e\u4e3b\u5909\u96fb\u6240","vm_pu":1.0,"va_deg":5.56,"vn_kv":66.0}},{"type":"Feature","geometry":{"type":"Point","coordinates":[132.1197,34.9248]},"properties":{"name":"\u6e05\u6c34\u5909\u96fb\u6240","vm_pu":1.0,"va_deg":5.24,"vn_kv":66.0}},{"type":"Feature","geometry":{"type":"Point","coordinates":[131.9564,34.7753]},"properties":{"name":"\u4e09\u9685\u5909\u96fb\u6240 (Misumi Hendensho)","vm_pu":1.0,"va_deg":5.93,"vn_kv":66.0}},{"type":"Feature","geometry":{"type":"Point","coordinates":[131.9558,34.358]},"properties":{"name":"\u516d\u65e5\u5e02\u5909\u96fb\u6240","vm_pu":1.0,"va_deg":5.02,"vn_kv":110.0}},{"type":"Feature","geometry":{"type":"Point","coordinates":[132.1313,34.4808]},"properties":{"name":"\u5409\u548c\u5909\u96fb\u6240","vm_pu":1.0,"va_deg":5.18,"vn_kv":110.0}},{"type":"Feature","geometry":{"type":"Point","coordinates":[131.7552,34.078]},"properties":{"name":"\u5357\u967d\u5909\u96fb\u6240","vm_pu":1.0,"va_deg":9.21,"vn_kv":110.0}},{"type":"Feature","geometry":{"type":"Point","coordinates":[130.9157,33.9366]},"properties":{"name":"JR\u4e5d\u5dde\u4e0b\u95a2\u5909\u96fb\u6240","vm_pu":1.0,"va_deg":4.8,"vn_kv":66.0}},{"type":"Feature","geometry":{"type":"Point","coordinates":[130.9102,33.9362]},"properties":{"name":"\u4e2d\u56fd\u96fb\u529b\u5f66\u5cf6\u5909\u96fb\u6240","vm_pu":1.0,"va_deg":5.45,"vn_kv":110.0}},{"type":"Feature","geometry":{"type":"Point","coordinates":[130.9188,33.939]},"properties":{"name":"\u5927\u548c\u753a\u4e8c\u4e01\u76ee\u5909\u96fb\u6240","vm_pu":1.0,"va_deg":5.52,"vn_kv":110.0}},{"type":"Feature","geometry":{"type":"Point","coordinates":[130.9056,33.9403]},"properties":{"name":"\u4e2d\u56fd\u96fb\u529b \u897f\u4e0b\u95a2\u958b\u9589\u6240","vm_pu":1.0,"va_deg":5.46,"vn_kv":110.0}},{"type":"Feature","geometry":{"type":"Point","coordinates":[131.2481,33.9599]},"properties":{"name":"\u5c71\u53e3\u5927\u5b66\u533b\u5b66\u90e8 \u30a8\u30cd\u30eb\u30ae\u30fc\u30bb\u30f3\u30bf\u30fc","vm_pu":1.0,"va_deg":5.79,"vn_kv":110.0}},{"type":"Feature","geometry":{"type":"Point","coordinates":[133.3296,34.5748]},"properties":{"name":"\u52a0\u8302\u753a\u5927\u5b57\u4e0b\u52a0\u8302\u5909\u96fb\u6240","vm_pu":1.0,"va_deg":5.4,"vn_kv":110.0}},{"type":"Feature","geometry":{"type":"Point","coordinates":[134.2919,35.3794]},"properties":{"name":"\u7af9\u5e02\u767a\u96fb\u6240","vm_pu":1.0,"va_deg":4.97,"vn_kv":66.0}},{"type":"Feature","geometry":{"type":"Point","coordinates":[130.9757,33.7093]},"properties":{"name":"\u6cc9\u4e2d\u592e\u56db\u4e01\u76ee\u5909\u96fb\u6240","vm_pu":1.0,"va_deg":5.76,"vn_kv":66.0}},{"type":"Feature","geometry":{"type":"Point","coordinates":[130.9643,33.7302]},"properties":{"name":"\u5927\u5b57\u4e0b\u6d25\u718a\u5909\u96fb\u6240","vm_pu":1.0,"va_deg":5.57,"vn_kv":66.0}},{"type":"Feature","geometry":{"type":"Point","coordinates":[130.9708,33.7926]},"properties":{"name":"\u5927\u5b57\u96e8\u7aaa\u5909\u96fb\u6240","vm_pu":1.0,"va_deg":6.1,"vn_kv":66.0}},{"type":"Feature","geometry":{"type":"Point","coordinates":[133.3113,33.902]},"properties":{"name":"\u4f4f\u53cb\u5171\u540c\u96fb\u529b\u7aef\u51fa\u5834\u5909\u96fb\u6240","vm_pu":1.0,"va_deg":5.09,"vn_kv":110.0}},{"type":"Feature","geometry":{"type":"Point","coordinates":[132.7704,35.363]},"properties":{"name":"\u5909\u96fb\u6240","vm_pu":1.0,"va_deg":4.06,"vn_kv":110.0}},{"type":"Feature","geometry":{"type":"Point","coordinates":[132.7705,35.3833]},"properties":{"name":"\u837b\u677c\u753a\u5909\u96fb\u6240","vm_pu":1.0,"va_deg":3.41,"vn_kv":66.0}},{"type":"Feature","geometry":{"type":"Point","coordinates":[132.5198,34.6802]},"properties":{"name":"\u5317\u5e83\u5cf6\u753a\u5909\u96fb\u6240","vm_pu":1.0,"va_deg":5.71,"vn_kv":110.0}},{"type":"Feature","geometry":{"type":"Point","coordinates":[134.2168,35.5125]},"properties":{"name":"\u677e\u4e26\u753a\u4e00\u4e01\u76ee\u5909\u96fb\u6240","vm_pu":1.0,"va_deg":5.08,"vn_kv":110.0}},{"type":"Feature","geometry":{"type":"Point","coordinates":[134.1888,35.4982]},"properties":{"name":"\u4e2d\u56fd\u96fb\u529b \u9ce5\u53d6\u96fb\u529b\u30bb\u30f3\u30bf\u30fc","vm_pu":1.0,"va_deg":5.11,"vn_kv":110.0}},{"type":"Feature","geometry":{"type":"Point","coordinates":[134.2412,35.4879]},"properties":{"name":"\u7acb\u5ddd\u5909\u96fb\u6240","vm_pu":1.0,"va_deg":4.56,"vn_kv":66.0}},{"type":"Feature","geometry":{"type":"Point","coordinates":[134.3547,35.3537]},"properties":{"name":"\u516b\u6771\u767a\u96fb\u6240","vm_pu":1.0,"va_deg":5.67,"vn_kv":66.0}},{"type":"Feature","geometry":{"type":"Point","coordinates":[134.1991,35.4073]},"properties":{"name":"\u6cb3\u539f\u5909\u96fb\u6240","vm_pu":1.0,"va_deg":5.55,"vn_kv":66.0}},{"type":"Feature","geometry":{"type":"Point","coordinates":[131.8771,33.9999]},"properties":{"name":"\u4e0b\u677e\u5909\u96fb\u6240","vm_pu":1.0,"va_deg":8.44,"vn_kv":110.0}},{"type":"Feature","geometry":{"type":"Point","coordinates":[133.5258,34.4952]},"properties":{"name":"\u5bcc\u5ca1\u5909\u96fb\u6240","vm_pu":1.0,"va_deg":6.47,"vn_kv":110.0}},{"type":"Feature","geometry":{"type":"Point","coordinates":[133.4987,34.4522]},"properties":{"name":"\u795e\u5cf6\u5909\u96fb\u6240","vm_pu":1.0,"va_deg":6.33,"vn_kv":110.0}},{"type":"Feature","geometry":{"type":"Point","coordinates":[133.8282,34.3335]},"properties":{"name":"\u53d7\u96fb\u6240","vm_pu":1.0,"va_deg":8.84,"vn_kv":187.0}},{"type":"Feature","geometry":{"type":"Point","coordinates":[133.0164,35.1872]},"properties":{"name":"\u4e09\u6210\u5909\u96fb\u6240","vm_pu":1.0,"va_deg":4.79,"vn_kv":110.0}},{"type":"Feature","geometry":{"type":"Point","coordinates":[133.891,34.0327]},"properties":{"name":"\u4e95\u5ddd\u5909\u96fb\u6240","vm_pu":1.0,"va_deg":5.78,"vn_kv":187.0}},{"type":"Feature","geometry":{"type":"Point","coordinates":[132.4679,34.4497]},"properties":{"name":"\u53e4\u5e02\u56db\u4e01\u76ee\u5909\u96fb\u6240","vm_pu":1.0,"va_deg":5.58,"vn_kv":220.0}},{"type":"Feature","geometry":{"type":"Point","coordinates":[132.2643,34.2824]},"properties":{"name":"\u6c96\u5869\u5c4b\u4e00\u4e01\u76ee\u5909\u96fb\u6240","vm_pu":1.0,"va_deg":7.27,"vn_kv":220.0}},{"type":"Feature","geometry":{"type":"Point","coordinates":[134.0552,34.6068]},"properties":{"name":"\u67ff\u539f\u5909\u96fb\u6240_2","vm_pu":1.0,"va_deg":6.16,"vn_kv":66.0}},{"type":"Feature","geometry":{"type":"Point","coordinates":[132.7162,35.3314]},"properties":{"name":"\u897f\u65b0\u753a\u4e09\u4e01\u76ee\u5909\u96fb\u6240_2","vm_pu":1.0,"va_deg":4.07,"vn_kv":66.0}},{"type":"Feature","geometry":{"type":"Point","coordinates":[133.1465,34.5697]},"properties":{"name":"\u5c3e\u9053\u5e02\u5909\u96fb\u6240","vm_pu":1.0,"va_deg":5.82,"vn_kv":110.0}},{"type":"Feature","geometry":{"type":"Point","coordinates":[133.0638,35.4837]},"properties":{"name":"\u83c5\u7530\u5909\u96fb\u6240","vm_pu":1.0,"va_deg":6.06,"vn_kv":110.0}},{"type":"Feature","geometry":{"type":"Point","coordinates":[134.0781,35.1076]},"properties":{"name":"\u7dbe\u90e8\u5909\u96fb\u6240","vm_pu":1.0,"va_deg":5.58,"vn_kv":110.0}},{"type":"Feature","geometry":{"type":"Point","coordinates":[131.6102,34.134]},"properties":{"name":"\u5927\u5b57\u4e2d\u5c71\u5909\u96fb\u6240","vm_pu":1.0,"va_deg":5.78,"vn_kv":110.0}},{"type":"Feature","geometry":{"type":"Point","coordinates":[134.3269,35.5594]},"properties":{"name":"\u6d66\u5bcc\u5909\u96fb\u6240","vm_pu":1.0,"va_deg":3.96,"vn_kv":66.0}},{"type":"Feature","geometry":{"type":"Point","coordinates":[133.2401,35.5143]},"properties":{"name":"\u4f59\u5b50\u5909\u96fb\u6240","vm_pu":1.0,"va_deg":6.31,"vn_kv":110.0}},{"type":"Feature","geometry":{"type":"Point","coordinates":[133.507,35.5124]},"properties":{"name":"\u5fa1\u6765\u5c4b\u5909\u96fb\u6240","vm_pu":1.0,"va_deg":4.41,"vn_kv":66.0}},{"type":"Feature","geometry":{"type":"Point","coordinates":[133.8193,34.6012]},"properties":{"name":"\u4e2d\u56fd\u96fb\u529b","vm_pu":1.0,"va_deg":4.59,"vn_kv":110.0}},{"type":"Feature","geometry":{"type":"Point","coordinates":[133.8321,34.6016]},"properties":{"name":"JR\u897f\u65e5\u672c\u65e9\u5cf6\u5909\u96fb\u6240","vm_pu":1.0,"va_deg":4.56,"vn_kv":110.0}},{"type":"Feature","geometry":{"type":"Point","coordinates":[133.7418,34.6035]},"properties":{"name":"\u6c34\u6c5f\u5909\u96fb\u6240","vm_pu":1.0,"va_deg":6.61,"vn_kv":110.0}},{"type":"Feature","geometry":{"type":"Point","coordinates":[132.7012,33.793]},"properties":{"name":"\u5927\u5b57\u6d5c\u5909\u96fb\u6240","vm_pu":1.0,"va_deg":5.65,"vn_kv":187.0}},{"type":"Feature","geometry":{"type":"Point","coordinates":[133.6849,34.5178]},"properties":{"name":"\u5009\u6577\u5e02\u5909\u96fb\u6240_3","vm_pu":1.0,"va_deg":8.56,"vn_kv":110.0}},{"type":"Feature","geometry":{"type":"Point","coordinates":[131.7211,34.0856]},"properties":{"name":"\u82e5\u5c71\u4e8c\u4e01\u76ee\u5909\u96fb\u6240","vm_pu":1.0,"va_deg":7.16,"vn_kv":220.0}},{"type":"Feature","geometry":{"type":"Point","coordinates":[131.8113,34.0139]},"properties":{"name":"\u5927\u5b57\u6817\u5c4b\u5909\u96fb\u6240","vm_pu":1.0,"va_deg":7.3,"vn_kv":66.0}},{"type":"Feature","geometry":{"type":"Point","coordinates":[131.2043,34.0124]},"properties":{"name":"\u9ad8\u5343\u5e06\u5909\u96fb\u6240","vm_pu":1.0,"va_deg":4.94,"vn_kv":66.0}},{"type":"Feature","geometry":{"type":"Point","coordinates":[131.1963,34.0037]},"properties":{"name":"\u5171\u548c\u53f0\u5909\u96fb\u6240","vm_pu":1.0,"va_deg":4.92,"vn_kv":66.0}},{"type":"Feature","geometry":{"type":"Point","coordinates":[131.1881,34.0082]},"properties":{"name":"\u304f\u3057\u5c71\u4e8c\u4e01\u76ee\u5909\u96fb\u6240","vm_pu":1.0,"va_deg":4.76,"vn_kv":66.0}},{"type":"Feature","geometry":{"type":"Point","coordinates":[131.1623,34.0455]},"properties":{"name":"\u539a\u72ed\u5909\u96fb\u6240","vm_pu":1.0,"va_deg":5.37,"vn_kv":110.0}},{"type":"Feature","geometry":{"type":"Point","coordinates":[131.0357,34.0762]},"properties":{"name":"\u5c0f\u6708\u5909\u96fb\u6240","vm_pu":1.0,"va_deg":5.66,"vn_kv":110.0}},{"type":"Feature","geometry":{"type":"Point","coordinates":[133.2553,33.9671]},"properties":{"name":"\u65b0\u5c45\u6d5c\u5e02\u5909\u96fb\u6240","vm_pu":1.0,"va_deg":4.84,"vn_kv":110.0}},{"type":"Feature","geometry":{"type":"Point","coordinates":[133.2475,33.9512]},"properties":{"name":"\u5225\u5b50\u914d\u96fb\u30bb\u30f3\u30bf\u30fc","vm_pu":1.0,"va_deg":5.13,"vn_kv":187.0}},{"type":"Feature","geometry":{"type":"Point","coordinates":[133.2486,33.9537]},"properties":{"name":"\u78ef\u6d66\u753a\u5909\u96fb\u6240","vm_pu":1.0,"va_deg":4.96,"vn_kv":110.0}},{"type":"Feature","geometry":{"type":"Point","coordinates":[133.2486,33.9527]},"properties":{"name":"\u78ef\u6d66\u753a\u5909\u96fb\u6240_2","vm_pu":1.0,"va_deg":5.12,"vn_kv":187.0}},{"type":"Feature","geometry":{"type":"Point","coordinates":[133.3043,33.9514]},"properties":{"name":"\u65b0\u5c45\u6d5c\u5909\u96fb\u6240","vm_pu":1.0,"va_deg":2.97,"vn_kv":66.0}},{"type":"Feature","geometry":{"type":"Point","coordinates":[133.5579,33.977]},"properties":{"name":"\u4e09\u5cf6\u5909\u96fb\u6240","vm_pu":1.0,"va_deg":5.17,"vn_kv":187.0}},{"type":"Feature","geometry":{"type":"Point","coordinates":[133.1684,33.9264]},"properties":{"name":"\u559c\u591a\u5ddd\u5909\u96fb\u6240","vm_pu":1.0,"va_deg":7.3,"vn_kv":66.0}},{"type":"Feature","geometry":{"type":"Point","coordinates":[133.1669,33.932]},"properties":{"name":"\u559c\u591a\u5ddd\u5909\u96fb\u6240_2","vm_pu":1.0,"va_deg":9.91,"vn_kv":187.0}},{"type":"Feature","geometry":{"type":"Point","coordinates":[132.7673,33.8942]},"properties":{"name":"\u5317\u677e\u5c71\u5909\u96fb\u6240","vm_pu":1.0,"va_deg":5.63,"vn_kv":187.0}},{"type":"Feature","geometry":{"type":"Point","coordinates":[134.3793,34.7438]},"properties":{"name":"\u8d64\u7a42\u5e02\u5909\u96fb\u6240","vm_pu":1.0,"va_deg":9.41,"vn_kv":275.0}},{"type":"Feature","geometry":{"type":"Point","coordinates":[133.7474,34.5079]},"properties":{"name":"\u6f6e\u901a\u4e00\u4e01\u76ee\u5909\u96fb\u6240","vm_pu":1.0,"va_deg":6.58,"vn_kv":110.0}},{"type":"Feature","geometry":{"type":"Point","coordinates":[133.7682,34.5124]},"properties":{"name":"\u677e\u6c5f\u56db\u4e01\u76ee\u5909\u96fb\u6240","vm_pu":1.0,"va_deg":6.33,"vn_kv":110.0}},{"type":"Feature","geometry":{"type":"Point","coordinates":[134.1044,35.0494]},"properties":{"name":"\u592a\u5e73\u53f0\u5909\u96fb\u6240","vm_pu":1.0,"va_deg":5.79,"vn_kv":66.0}},{"type":"Feature","geometry":{"type":"Point","coordinates":[132.5072,34.4985]},"properties":{"name":"\u516b\u6728\u516b\u4e01\u76ee\u5909\u96fb\u6240","vm_pu":1.0,"va_deg":5.46,"vn_kv":110.0}},{"type":"Feature","geometry":{"type":"Point","coordinates":[134.1374,35.4521]},"properties":{"name":"\u65b0\u9ce5\u53d6\u5909\u96fb\u6240","vm_pu":1.0,"va_deg":5.71,"vn_kv":220.0}},{"type":"Feature","geometry":{"type":"Point","coordinates":[134.3925,35.358]},"properties":{"name":"\u8d64\u677e\u5909\u96fb\u6240","vm_pu":1.0,"va_deg":5.35,"vn_kv":66.0}},{"type":"Feature","geometry":{"type":"Point","coordinates":[134.2214,35.4815]},"properties":{"name":"\u5409\u6210\u4e09\u4e01\u76ee\u5909\u96fb\u6240","vm_pu":1.0,"va_deg":5.03,"vn_kv":110.0}},{"type":"Feature","geometry":{"type":"Point","coordinates":[132.0519,34.0965]},"properties":{"name":"\u9ad8\u68ee","vm_pu":1.0,"va_deg":7.68,"vn_kv":66.0}},{"type":"Feature","geometry":{"type":"Point","coordinates":[132.2138,34.1668]},"properties":{"name":"\u5c71\u624b\u753a\u4e8c\u4e01\u76ee\u5909\u96fb\u6240","vm_pu":1.0,"va_deg":7.25,"vn_kv":110.0}},{"type":"Feature","geometry":{"type":"Point","coordinates":[132.1907,34.1211]},"properties":{"name":"\u85e4\u751f\u753a\u4e09\u4e01\u76ee\u5909\u96fb\u6240","vm_pu":1.0,"va_deg":8.17,"vn_kv":220.0}},{"type":"Feature","geometry":{"type":"Point","coordinates":[132.1999,34.1184]},"properties":{"name":"\u85e4\u751f\u753a\u4e00\u4e01\u76ee\u5909\u96fb\u6240","vm_pu":1.0,"va_deg":8.26,"vn_kv":220.0}},{"type":"Feature","geometry":{"type":"Point","coordinates":[133.2467,35.5447]},"properties":{"name":"\u662d\u548c\u753a\u5909\u96fb\u6240","vm_pu":1.0,"va_deg":6.27,"vn_kv":110.0}},{"type":"Feature","geometry":{"type":"Point","coordinates":[133.0427,35.4908]},"properties":{"name":"\u6bd4\u6d25\u304c\u4e18\u4e94\u4e01\u76ee\u5909\u96fb\u6240","vm_pu":1.0,"va_deg":6.94,"vn_kv":110.0}},{"type":"Feature","geometry":{"type":"Point","coordinates":[133.6895,35.4928]},"properties":{"name":"\u6d66\u5b89\u5909\u96fb\u6240","vm_pu":1.0,"va_deg":4.34,"vn_kv":66.0}},{"type":"Feature","geometry":{"type":"Point","coordinates":[132.8959,35.2558]},"properties":{"name":"\u4e09\u5200\u5c4b\u753a\u4e0a\u718a\u8c37\u5909\u96fb\u6240","vm_pu":1.0,"va_deg":4.15,"vn_kv":66.0}},{"type":"Feature","geometry":{"type":"Point","coordinates":[132.7255,35.3523]},"properties":{"name":"\u9ad8\u677e\u753a\u5909\u96fb\u6240","vm_pu":1.0,"va_deg":3.48,"vn_kv":110.0}},{"type":"Feature","geometry":{"type":"Point","coordinates":[132.8543,35.4503]},"properties":{"name":"\u65ed\u304c\u4e18\u5909\u96fb\u6240","vm_pu":1.0,"va_deg":1.33,"vn_kv":66.0}},{"type":"Feature","geometry":{"type":"Point","coordinates":[132.6772,35.3381]},"properties":{"name":"\u6e56\u9675\u753a\u5dee\u6d77\u5909\u96fb\u6240","vm_pu":1.0,"va_deg":4.17,"vn_kv":66.0}},{"type":"Feature","geometry":{"type":"Point","coordinates":[131.8319,34.6806]},"properties":{"name":"\u6804\u753a\u5909\u96fb\u6240","vm_pu":1.0,"va_deg":5.16,"vn_kv":66.0}},{"type":"Feature","geometry":{"type":"Point","coordinates":[131.8492,34.6719]},"properties":{"name":"\u6c34\u5206\u753a\u5909\u96fb\u6240","vm_pu":1.0,"va_deg":5.17,"vn_kv":66.0}},{"type":"Feature","geometry":{"type":"Point","coordinates":[133.991,35.064]},"properties":{"name":"\u8305\u753a\u5909\u96fb\u6240","vm_pu":1.0,"va_deg":5.46,"vn_kv":110.0}},{"type":"Feature","geometry":{"type":"Point","coordinates":[133.9314,34.4765]},"properties":{"name":"\u7389\u56db\u4e01\u76ee\u5909\u96fb\u6240","vm_pu":1.0,"va_deg":4.41,"vn_kv":110.0}},{"type":"Feature","geometry":{"type":"Point","coordinates":[133.9265,34.4855]},"properties":{"name":"\u5965\u7389\u4e00\u4e01\u76ee\u5909\u96fb\u6240","vm_pu":1.0,"va_deg":4.44,"vn_kv":110.0}},{"type":"Feature","geometry":{"type":"Point","coordinates":[132.0823,34.8947]},"properties":{"name":"\u6749\u6238\u753a\u5909\u96fb\u6240","vm_pu":1.0,"va_deg":5.72,"vn_kv":66.0}},{"type":"Feature","geometry":{"type":"Point","coordinates":[133.9192,35.2258]},"properties":{"name":"\u6c34\u539f\u5909\u96fb\u6240","vm_pu":1.0,"va_deg":5.65,"vn_kv":220.0}},{"type":"Feature","geometry":{"type":"Point","coordinates":[133.9345,35.0541]},"properties":{"name":"\u4e2d\u9808\u8cc0\u5909\u96fb\u6240","vm_pu":1.0,"va_deg":5.49,"vn_kv":110.0}},{"type":"Feature","geometry":{"type":"Point","coordinates":[134.3608,35.0091]},"properties":{"name":"\u9577\u5c3e\u5909\u96fb\u6240_2","vm_pu":1.0,"va_deg":6.91,"vn_kv":110.0}},{"type":"Feature","geometry":{"type":"Point","coordinates":[133.1196,35.4681]},"properties":{"name":"\u5927\u4e95\u753a\u5909\u96fb\u6240","vm_pu":1.0,"va_deg":5.99,"vn_kv":110.0}},{"type":"Feature","geometry":{"type":"Point","coordinates":[133.669,34.2196]},"properties":{"name":"\u8a6b\u9593\u753a\u8a6b\u9593\u5909\u96fb\u6240","vm_pu":1.0,"va_deg":5.98,"vn_kv":110.0}},{"type":"Feature","geometry":{"type":"Point","coordinates":[133.6449,34.2066]},"properties":{"name":"\u4ec1\u5c3e\u753a\u4ec1\u5c3e\u5909\u96fb\u6240","vm_pu":1.0,"va_deg":5.79,"vn_kv":110.0}},{"type":"Feature","geometry":{"type":"Point","coordinates":[133.6915,34.2077]},"properties":{"name":"\u4e09\u91ce\u753a\u5409\u6d25\u5909\u96fb\u6240","vm_pu":1.0,"va_deg":5.87,"vn_kv":110.0}},{"type":"Feature","geometry":{"type":"Point","coordinates":[133.9131,34.4555]},"properties":{"name":"\u65e5\u6bd4\u516d\u4e01\u76ee\u5909\u96fb\u6240","vm_pu":1.0,"va_deg":4.2,"vn_kv":66.0}},{"type":"Feature","geometry":{"type":"Point","coordinates":[131.4478,34.1491]},"properties":{"name":"\u77e2\u539f\u5909\u96fb\u6240","vm_pu":1.0,"va_deg":5.11,"vn_kv":110.0}},{"type":"Feature","geometry":{"type":"Point","coordinates":[133.6063,34.7587]},"properties":{"name":"\u7389\u5ddd\u753a\u7389\u5909\u96fb\u6240","vm_pu":1.0,"va_deg":5.59,"vn_kv":110.0}},{"type":"Feature","geometry":{"type":"Point","coordinates":[133.047,34.2557]},"properties":{"name":"\u4eca\u6cbb\u5e02\u5909\u96fb\u6240","vm_pu":1.0,"va_deg":4.62,"vn_kv":110.0}},{"type":"Feature","geometry":{"type":"Point","coordinates":[134.3701,34.7581]},"properties":{"name":"\u7247\u6d5c\u753a\u5909\u96fb\u6240","vm_pu":1.0,"va_deg":9.19,"vn_kv":110.0}},{"type":"Feature","geometry":{"type":"Point","coordinates":[133.1127,33.9314]},"properties":{"name":"\u5e83\u6c5f\u5909\u96fb\u6240","vm_pu":1.0,"va_deg":10.38,"vn_kv":187.0}},{"type":"Feature","geometry":{"type":"Point","coordinates":[133.1133,33.9356]},"properties":{"name":"\u5317\u6761\u5909\u96fb\u6240_2","vm_pu":1.0,"va_deg":10.47,"vn_kv":187.0}},{"type":"Feature","geometry":{"type":"Point","coordinates":[132.9868,34.0494]},"properties":{"name":"\u7247\u5c71\u56db\u4e01\u76ee\u5909\u96fb\u6240","vm_pu":1.0,"va_deg":5.32,"vn_kv":66.0}},{"type":"Feature","geometry":{"type":"Point","coordinates":[133.6784,34.4986]},"properties":{"name":"\u5009\u6577\u5e02\u5909\u96fb\u6240_4","vm_pu":1.0,"va_deg":7.72,"vn_kv":110.0}},{"type":"Feature","geometry":{"type":"Point","coordinates":[133.2478,35.435]},"properties":{"name":"\u516b\u5e61\u5909\u96fb\u6240_3","vm_pu":1.0,"va_deg":4.61,"vn_kv":110.0}},{"type":"Feature","geometry":{"type":"Point","coordinates":[132.2282,34.203]},"properties":{"name":"\u88c5\u675f\u753a\u56db\u4e01\u76ee\u5909\u96fb\u6240","vm_pu":1.0,"va_deg":7.34,"vn_kv":110.0}},{"type":"Feature","geometry":{"type":"Point","coordinates":[132.2147,34.2147]},"properties":{"name":"\u767d\u77f3\u4e00\u4e01\u76ee\u5909\u96fb\u6240","vm_pu":1.0,"va_deg":7.0,"vn_kv":66.0}},{"type":"Feature","geometry":{"type":"Point","coordinates":[132.2349,34.2209]},"properties":{"name":"\u897f\u6804\u4e09\u4e01\u76ee\u5909\u96fb\u6240","vm_pu":1.0,"va_deg":7.35,"vn_kv":110.0}},{"type":"Feature","geometry":{"type":"Point","coordinates":[133.0936,34.2116]},"properties":{"name":"\u4f2f\u65b9\u5909\u96fb\u6240","vm_pu":1.0,"va_deg":3.61,"vn_kv":110.0}},{"type":"Feature","geometry":{"type":"Point","coordinates":[134.3487,34.0628]},"properties":{"name":"\u9d28\u5cf6\u753a\u98ef\u5c3e\u5909\u96fb\u6240","vm_pu":1.0,"va_deg":7.05,"vn_kv":66.0}},{"type":"Feature","geometry":{"type":"Point","coordinates":[134.3514,33.9682]},"properties":{"name":"\u795e\u9818\u5909\u96fb\u6240","vm_pu":1.0,"va_deg":6.02,"vn_kv":66.0}},{"type":"Feature","geometry":{"type":"Point","coordinates":[133.8909,34.6568]},"properties":{"name":"\u5317\u9577\u702c\u672c\u753a\u5909\u96fb\u6240_2","vm_pu":1.0,"va_deg":4.79,"vn_kv":110.0}},{"type":"Feature","geometry":{"type":"Point","coordinates":[133.1774,34.2727]},"properties":{"name":"\u751f\u540d\u5909\u96fb\u6240","vm_pu":1.0,"va_deg":0.31,"vn_kv":110.0}},{"type":"Feature","geometry":{"type":"Point","coordinates":[133.7557,34.2677]},"properties":{"name":"\u591a\u5ea6\u6d25\u5909\u96fb\u6240","vm_pu":1.0,"va_deg":5.81,"vn_kv":110.0}},{"type":"Feature","geometry":{"type":"Point","coordinates":[133.6371,33.9506]},"properties":{"name":"\u56db\u56fd\u96fb\u529b\u3000\u65b0\u5bae\u5909\u96fb\u6240","vm_pu":1.0,"va_deg":2.7,"vn_kv":66.0}},{"type":"Feature","geometry":{"type":"Point","coordinates":[133.5757,34.0025]},"properties":{"name":"\u56db\u56fd\u96fb\u529b\u3000\u5ddd\u4e4b\u6c5f\u5909\u96fb\u6240","vm_pu":1.0,"va_deg":3.13,"vn_kv":66.0}},{"type":"Feature","geometry":{"type":"Point","coordinates":[132.905,35.4011]},"properties":{"name":"\u5b8d\u9053\u753a\u5909\u96fb\u6240","vm_pu":1.0,"va_deg":4.02,"vn_kv":110.0}},{"type":"Feature","geometry":{"type":"Point","coordinates":[133.588,34.8502]},"properties":{"name":"\u5ddd\u9762\u753a\u5909\u96fb\u6240","vm_pu":1.0,"va_deg":5.39,"vn_kv":110.0}},{"type":"Feature","geometry":{"type":"Point","coordinates":[133.2551,33.9519]},"properties":{"name":"\u78ef\u6d66\u5909\u96fb\u6240","vm_pu":1.0,"va_deg":5.13,"vn_kv":110.0}},{"type":"Feature","geometry":{"type":"Point","coordinates":[133.2965,33.9687]},"properties":{"name":"\u90f7\u4e94\u4e01\u76ee\u5909\u96fb\u6240","vm_pu":1.0,"va_deg":2.71,"vn_kv":66.0}},{"type":"Feature","geometry":{"type":"Point","coordinates":[133.3351,33.9765]},"properties":{"name":"\u591a\u559c\u6d5c\u4e00\u4e01\u76ee\u5909\u96fb\u6240","vm_pu":1.0,"va_deg":2.73,"vn_kv":66.0}},{"type":"Feature","geometry":{"type":"Point","coordinates":[133.0406,34.3985]},"properties":{"name":"\u6cbc\u7530\u4e00\u4e01\u76ee\u5909\u96fb\u6240","vm_pu":1.0,"va_deg":5.77,"vn_kv":220.0}},{"type":"Feature","geometry":{"type":"Point","coordinates":[133.0546,34.3914]},"properties":{"name":"\u65b0\u5009\u4e00\u4e01\u76ee\u5909\u96fb\u6240","vm_pu":1.0,"va_deg":5.34,"vn_kv":110.0}},{"type":"Feature","geometry":{"type":"Point","coordinates":[133.7265,34.5114]},"properties":{"name":"\u6c34\u5cf6\u4e2d\u901a\u4e09\u4e01\u76ee\u5909\u96fb\u6240","vm_pu":1.0,"va_deg":8.12,"vn_kv":110.0}},{"type":"Feature","geometry":{"type":"Point","coordinates":[133.7107,34.5089]},"properties":{"name":"\u6c34\u5cf6\u5ddd\u5d0e\u901a\u4e00\u4e01\u76ee\u5909\u96fb\u6240","vm_pu":1.0,"va_deg":8.11,"vn_kv":110.0}},{"type":"Feature","geometry":{"type":"Point","coordinates":[133.757,34.5052]},"properties":{"name":"\u6f6e\u901a\u4e09\u4e01\u76ee\u5909\u96fb\u6240","vm_pu":1.0,"va_deg":6.14,"vn_kv":110.0}},{"type":"Feature","geometry":{"type":"Point","coordinates":[133.7299,34.5226]},"properties":{"name":"\u6c34\u5cf6\u897f\u901a\u4e8c\u4e01\u76ee\u5909\u96fb\u6240","vm_pu":1.0,"va_deg":8.08,"vn_kv":110.0}},{"type":"Feature","geometry":{"type":"Point","coordinates":[133.0922,34.3099]},"properties":{"name":"\u702c\u6238\u7530\u753a\u6ca2\u5909\u96fb\u6240","vm_pu":1.0,"va_deg":2.82,"vn_kv":110.0}},{"type":"Feature","geometry":{"type":"Point","coordinates":[133.011,34.0393]},"properties":{"name":"\u8fbb\u5802\u4e00\u4e01\u76ee\u5909\u96fb\u6240","vm_pu":1.0,"va_deg":6.31,"vn_kv":66.0}},{"type":"Feature","geometry":{"type":"Point","coordinates":[134.2287,34.0491]},"properties":{"name":"\u5c71\u5ddd\u753a\u5efa\u77f3\u5909\u96fb\u6240","vm_pu":1.0,"va_deg":3.83,"vn_kv":66.0}},{"type":"Feature","geometry":{"type":"Point","coordinates":[134.485,34.8081]},"properties":{"name":"\u53e4\u6c60\u672c\u753a\u5909\u96fb\u6240","vm_pu":1.0,"va_deg":7.3,"vn_kv":275.0}},{"type":"Feature","geometry":{"type":"Point","coordinates":[134.3491,34.9617]},"properties":{"name":"\u4e45\u5d0e\u5909\u96fb\u6240","vm_pu":1.0,"va_deg":6.93,"vn_kv":500.0}},{"type":"Feature","geometry":{"type":"Point","coordinates":[134.3654,34.8783]},"properties":{"name":"\u4e0a\u90e1\u5909\u96fb\u6240","vm_pu":1.0,"va_deg":7.03,"vn_kv":77.0}},{"type":"Feature","geometry":{"type":"Point","coordinates":[134.4273,34.9513]},"properties":{"name":"\u5149\u90fd\u4e00\u4e01\u76ee\u5909\u96fb\u6240","vm_pu":1.0,"va_deg":6.92,"vn_kv":500.0}},{"type":"Feature","geometry":{"type":"Point","coordinates":[133.7934,34.2745]},"properties":{"name":"\u56db\u56fd\u96fb\u529b\u9001\u914d\u96fb \u4e38\u4e80\u5909\u96fb\u6240","vm_pu":1.0,"va_deg":5.72,"vn_kv":110.0}},{"type":"Feature","geometry":{"type":"Point","coordinates":[134.4645,34.0764]},"properties":{"name":"\u5fb3\u5cf6\u5e02\u5909\u96fb\u6240","vm_pu":1.0,"va_deg":5.62,"vn_kv":66.0}},{"type":"Feature","geometry":{"type":"Point","coordinates":[133.8014,33.9581]},"properties":{"name":"\u4e09\u597d\u5e02\u5909\u96fb\u6240","vm_pu":1.0,"va_deg":4.49,"vn_kv":66.0}},{"type":"Feature","geometry":{"type":"Point","coordinates":[133.8882,34.0323]},"properties":{"name":"\u663c\u9593\u5909\u96fb\u6240","vm_pu":1.0,"va_deg":2.72,"vn_kv":66.0}},{"type":"Feature","geometry":{"type":"Point","coordinates":[133.9916,34.0457]},"properties":{"name":"\u4e09\u91ce\u753a\u6e05\u6c34\u5909\u96fb\u6240","vm_pu":1.0,"va_deg":2.35,"vn_kv":66.0}},{"type":"Feature","geometry":{"type":"Point","coordinates":[134.0632,33.9497]},"properties":{"name":"\u5207\u8d8a\u5909\u96fb\u6240","vm_pu":1.0,"va_deg":3.21,"vn_kv":66.0}},{"type":"Feature","geometry":{"type":"Point","coordinates":[134.0678,34.0397]},"properties":{"name":"\u8c9e\u5149\u6c5f\u30ce\u8107\u5909\u96fb\u6240","vm_pu":1.0,"va_deg":2.64,"vn_kv":66.0}},{"type":"Feature","geometry":{"type":"Point","coordinates":[134.2288,34.0494]},"properties":{"name":"\u5c71\u5ddd\u753a\u4f4f\u5409\u5909\u96fb\u6240","vm_pu":1.0,"va_deg":3.83,"vn_kv":66.0}},{"type":"Feature","geometry":{"type":"Point","coordinates":[134.2076,34.0769]},"properties":{"name":"\u963f\u6ce2\u753a\u5584\u5730\u5909\u96fb\u6240","vm_pu":1.0,"va_deg":14.18,"vn_kv":66.0}},{"type":"Feature","geometry":{"type":"Point","coordinates":[134.309,34.0937]},"properties":{"name":"\u5e02\u5834\u753a\u516b\u5e61\u5909\u96fb\u6240","vm_pu":1.0,"va_deg":10.59,"vn_kv":66.0}},{"type":"Feature","geometry":{"type":"Point","coordinates":[133.5628,34.008]},"properties":{"name":"\u5ddd\u4e4b\u6c5f\u753a\u5909\u96fb\u6240","vm_pu":1.0,"va_deg":2.99,"vn_kv":66.0}},{"type":"Feature","geometry":{"type":"Point","coordinates":[133.574,34.0029]},"properties":{"name":"\u59bb\u9ce5\u753a\u5909\u96fb\u6240","vm_pu":1.0,"va_deg":3.12,"vn_kv":66.0}},{"type":"Feature","geometry":{"type":"Point","coordinates":[133.5548,33.9841]},"properties":{"name":"\u4e09\u5cf6\u671d\u65e5\u4e00\u4e01\u76ee\u5909\u96fb\u6240","vm_pu":1.0,"va_deg":3.57,"vn_kv":66.0}},{"type":"Feature","geometry":{"type":"Point","coordinates":[133.5956,33.9802]},"properties":{"name":"\u91d1\u7530\u753a\u91d1\u5ddd\u5909\u96fb\u6240","vm_pu":1.0,"va_deg":3.33,"vn_kv":66.0}},{"type":"Feature","geometry":{"type":"Point","coordinates":[133.5185,33.9651]},"properties":{"name":"\u5bd2\u5ddd\u753a\u5909\u96fb\u6240","vm_pu":1.0,"va_deg":4.55,"vn_kv":66.0}},{"type":"Feature","geometry":{"type":"Point","coordinates":[133.1715,33.873]},"properties":{"name":"\u514e\u4e4b\u5c71\u7532\u5909\u96fb\u6240","vm_pu":1.0,"va_deg":5.17,"vn_kv":110.0}},{"type":"Feature","geometry":{"type":"Point","coordinates":[133.282,33.9754]},"properties":{"name":"\u83ca\u672c\u753a\u4e00\u4e01\u76ee\u5909\u96fb\u6240_2","vm_pu":1.0,"va_deg":4.74,"vn_kv":110.0}},{"type":"Feature","geometry":{"type":"Point","coordinates":[133.274,33.9706]},"properties":{"name":"\u4e2d\u9808\u8cc0\u753a\u4e8c\u4e01\u76ee\u5909\u96fb\u6240","vm_pu":1.0,"va_deg":4.75,"vn_kv":110.0}},{"type":"Feature","geometry":{"type":"Point","coordinates":[133.4296,33.956]},"properties":{"name":"\u571f\u5c45\u753a\u4e2d\u6751\u5909\u96fb\u6240","vm_pu":1.0,"va_deg":1.76,"vn_kv":66.0}},{"type":"Feature","geometry":{"type":"Point","coordinates":[133.0734,33.9354]},"properties":{"name":"\u559c\u591a\u53f0\u5909\u96fb\u6240","vm_pu":1.0,"va_deg":7.77,"vn_kv":66.0}},{"type":"Feature","geometry":{"type":"Point","coordinates":[133.1911,33.939]},"properties":{"name":"\u3072\u3046\u3061\u5909\u96fb\u6240","vm_pu":1.0,"va_deg":8.15,"vn_kv":66.0}},{"type":"Feature","geometry":{"type":"Point","coordinates":[133.1934,33.9391]},"properties":{"name":"\u3072\u3046\u3061\u5909\u96fb\u6240_2","vm_pu":1.0,"va_deg":8.13,"vn_kv":66.0}},{"type":"Feature","geometry":{"type":"Point","coordinates":[133.1918,33.9389]},"properties":{"name":"\u3072\u3046\u3061\u5909\u96fb\u6240_3","vm_pu":1.0,"va_deg":8.15,"vn_kv":66.0}},{"type":"Feature","geometry":{"type":"Point","coordinates":[133.1764,33.9345]},"properties":{"name":"\u3072\u3046\u3061\u5909\u96fb\u6240_4","vm_pu":1.0,"va_deg":9.29,"vn_kv":66.0}},{"type":"Feature","geometry":{"type":"Point","coordinates":[133.1692,33.908]},"properties":{"name":"\u4e2d\u897f\u65b0\u958b\u5909\u96fb\u6240","vm_pu":1.0,"va_deg":7.08,"vn_kv":66.0}},{"type":"Feature","geometry":{"type":"Point","coordinates":[134.3055,33.8135]},"properties":{"name":"\u6728\u982d\u5909\u96fb\u6240","vm_pu":1.0,"va_deg":5.82,"vn_kv":66.0}},{"type":"Feature","geometry":{"type":"Point","coordinates":[134.2961,33.8036]},"properties":{"name":"\u5927\u6bbf\u5909\u96fb\u6240","vm_pu":1.0,"va_deg":5.86,"vn_kv":187.0}},{"type":"Feature","geometry":{"type":"Point","coordinates":[133.5514,33.7569]},"properties":{"name":"\u672c\u5c71\u753a\u5909\u96fb\u6240","vm_pu":1.0,"va_deg":5.28,"vn_kv":187.0}},{"type":"Feature","geometry":{"type":"Point","coordinates":[133.3419,33.7656]},"properties":{"name":"\u672c\u5ddd\u5909\u96fb\u6240","vm_pu":1.0,"va_deg":5.53,"vn_kv":187.0}},{"type":"Feature","geometry":{"type":"Point","coordinates":[132.8272,35.4335]},"properties":{"name":"\u5e73\u7530\u5909\u96fb\u6240","vm_pu":1.0,"va_deg":3.01,"vn_kv":33.0}},{"type":"Feature","geometry":{"type":"Point","coordinates":[133.3933,35.4289]},"properties":{"name":"\u4f2f\u8006\u5927\u5c71\u5909\u96fb\u6240","vm_pu":1.0,"va_deg":4.55,"vn_kv":66.0}},{"type":"Feature","geometry":{"type":"Point","coordinates":[133.7868,34.2894]},"properties":{"name":"\u5869\u5c4b\u5909\u96fb\u6240","vm_pu":1.0,"va_deg":5.7,"vn_kv":110.0}},{"type":"Feature","geometry":{"type":"Point","coordinates":[132.7539,34.2857]},"properties":{"name":"1\u4e01\u76ee\u5909\u96fb\u6240","vm_pu":1.0,"va_deg":6.64,"vn_kv":110.0}},{"type":"Feature","geometry":{"type":"Point","coordinates":[132.7033,34.2398]},"properties":{"name":"4\u4e01\u76ee\u5909\u96fb\u6240_2","vm_pu":1.0,"va_deg":4.7,"vn_kv":110.0}},{"type":"Feature","geometry":{"type":"Point","coordinates":[132.8187,34.3274]},"properties":{"name":"\u6771\u5e83\u5cf6\u5e02\u5909\u96fb\u6240","vm_pu":1.0,"va_deg":6.78,"vn_kv":110.0}},{"type":"Feature","geometry":{"type":"Point","coordinates":[133.3505,35.1929]},"properties":{"name":"\u53e4\u5ddd\u5909\u96fb\u6240","vm_pu":1.0,"va_deg":1.92,"vn_kv":66.0}},{"type":"Feature","geometry":{"type":"Point","coordinates":[133.3514,35.4388]},"properties":{"name":"\u4e0a\u798f\u539f\u4e09\u4e01\u76ee\u5909\u96fb\u6240","vm_pu":1.0,"va_deg":5.29,"vn_kv":110.0}},{"type":"Feature","geometry":{"type":"Point","coordinates":[130.8684,33.8874]},"properties":{"name":"\u5927\u9580\u5909\u96fb\u6240","vm_pu":1.0,"va_deg":4.62,"vn_kv":66.0}},{"type":"Feature","geometry":{"type":"Point","coordinates":[133.7548,34.2682]},"properties":{"name":"\u56db\u56fd\u65c5\u5ba2\u9244\u9053 \u591a\u5ea6\u6d25\u5909\u96fb\u6240","vm_pu":1.0,"va_deg":5.8,"vn_kv":110.0}},{"type":"Feature","geometry":{"type":"Point","coordinates":[133.3431,35.1156]},"properties":{"name":"\u8c37\u5ddd\u5909\u96fb\u6240","vm_pu":1.0,"va_deg":3.94,"vn_kv":66.0}},{"type":"Feature","geometry":{"type":"Point","coordinates":[133.3426,35.1156]},"properties":{"name":"\u8c37\u5ddd\u5909\u96fb\u6240_2","vm_pu":1.0,"va_deg":3.96,"vn_kv":66.0}},{"type":"Feature","geometry":{"type":"Point","coordinates":[134.1134,34.2851]},"properties":{"name":"\u4e80\u7530\u5909\u96fb\u6240","vm_pu":1.0,"va_deg":-8.76,"vn_kv":66.0}},{"type":"Feature","geometry":{"type":"Point","coordinates":[133.7691,34.2909]},"properties":{"name":"\u662d\u548c\u5909\u96fb\u6240","vm_pu":1.0,"va_deg":5.7,"vn_kv":110.0}},{"type":"Feature","geometry":{"type":"Point","coordinates":[133.7534,34.5752]},"properties":{"name":"\u6771\u5bcc\u4e95\u5909\u96fb\u6240","vm_pu":1.0,"va_deg":6.74,"vn_kv":110.0}},{"type":"Feature","geometry":{"type":"Point","coordinates":[134.193,34.3247]},"properties":{"name":"\u5fd7\u5ea6\u5909\u96fb\u6240","vm_pu":1.0,"va_deg":-8.58,"vn_kv":66.0}},{"type":"Feature","geometry":{"type":"Point","coordinates":[134.3229,35.0991]},"properties":{"name":"\u4e0b\u753a\u5909\u96fb\u6240","vm_pu":1.0,"va_deg":6.06,"vn_kv":110.0}},{"type":"Feature","geometry":{"type":"Point","coordinates":[130.9856,34.0039]},"properties":{"name":"\u9577\u5e9c\u5909\u96fb\u6240","vm_pu":1.0,"va_deg":6.17,"vn_kv":110.0}},{"type":"Feature","geometry":{"type":"Point","coordinates":[132.4365,34.9015]},"properties":{"name":"\u9091\u5357\u753a\u5909\u96fb\u6240","vm_pu":1.0,"va_deg":3.91,"vn_kv":110.0}},{"type":"Feature","geometry":{"type":"Point","coordinates":[133.2627,35.4295]},"properties":{"name":"\u5357\u5341\u795e\u753a\u5909\u96fb\u6240","vm_pu":1.0,"va_deg":4.6,"vn_kv":110.0}},{"type":"Feature","geometry":{"type":"Point","coordinates":[133.8439,34.6317]},"properties":{"name":"\u5317\u533a\u5909\u96fb\u6240_3","vm_pu":1.0,"va_deg":4.61,"vn_kv":110.0}},{"type":"Feature","geometry":{"type":"Point","coordinates":[133.7573,34.5956]},"properties":{"name":"\u8001\u677e\u753a\u4e8c\u4e01\u76ee\u5909\u96fb\u6240","vm_pu":1.0,"va_deg":6.66,"vn_kv":110.0}},{"type":"Feature","geometry":{"type":"Point","coordinates":[133.5707,34.5187]},"properties":{"name":"\u9d28\u65b9\u5909\u96fb\u6240","vm_pu":1.0,"va_deg":6.2,"vn_kv":66.0}},{"type":"Feature","geometry":{"type":"Point","coordinates":[133.667,34.5481]},"properties":{"name":"\u7389\u5cf6\u5909\u96fb\u6240","vm_pu":1.0,"va_deg":6.86,"vn_kv":66.0}},{"type":"Feature","geometry":{"type":"Point","coordinates":[133.4625,34.508]},"properties":{"name":"\u7b20\u5ca1\u5909\u96fb\u6240","vm_pu":1.0,"va_deg":5.83,"vn_kv":66.0}},{"type":"Feature","geometry":{"type":"Point","coordinates":[131.0002,34.0028]},"properties":{"name":"\u9577\u5e9c\u6e2f\u753a\u5909\u96fb\u6240","vm_pu":1.0,"va_deg":6.43,"vn_kv":110.0}},{"type":"Feature","geometry":{"type":"Point","coordinates":[131.0423,34.0687]},"properties":{"name":"\u5c0f\u6708\u5909\u96fb\u6240","vm_pu":1.0,"va_deg":5.63,"vn_kv":110.0}},{"type":"Feature","geometry":{"type":"Point","coordinates":[131.2508,33.9734]},"properties":{"name":"\u6843\u5c71\u958b\u9589\u6240","vm_pu":1.0,"va_deg":5.54,"vn_kv":110.0}},{"type":"Feature","geometry":{"type":"Point","coordinates":[132.4063,34.3836]},"properties":{"name":"\u897f\u5e83\u5cf6\u5909\u96fb\u6240","vm_pu":1.0,"va_deg":5.34,"vn_kv":110.0}},{"type":"Feature","geometry":{"type":"Point","coordinates":[134.1763,34.2678]},"properties":{"name":"\u9577\u5c3e\u5909\u96fb\u6240","vm_pu":1.0,"va_deg":-7.96,"vn_kv":66.0}},{"type":"Feature","geometry":{"type":"Point","coordinates":[134.2288,34.2515]},"properties":{"name":"\u5927\u5ddd\u5909\u96fb\u6240","vm_pu":1.0,"va_deg":-6.11,"vn_kv":187.0}},{"type":"Feature","geometry":{"type":"Point","coordinates":[134.1417,34.2802]},"properties":{"name":"\u4e09\u6728\u5909\u96fb\u6240","vm_pu":1.0,"va_deg":-8.46,"vn_kv":66.0}},{"type":"Feature","geometry":{"type":"Point","coordinates":[133.1407,35.4257]},"properties":{"name":"\u6771\u51fa\u96f2\u753a\u9326\u65b0\u753a\u516d\u4e01\u76ee\u5909\u96fb\u6240","vm_pu":1.0,"va_deg":4.78,"vn_kv":110.0}},{"type":"Feature","geometry":{"type":"Point","coordinates":[132.5641,34.3239]},"properties":{"name":"\u62bc\u8fbc\u753a\u5909\u96fb\u6240","vm_pu":1.0,"va_deg":5.09,"vn_kv":110.0}},{"type":"Feature","geometry":{"type":"Point","coordinates":[132.5005,34.9785]},"properties":{"name":"\u5ddd\u672c\u5909\u96fb\u6240","vm_pu":1.0,"va_deg":4.19,"vn_kv":110.0}},{"type":"Feature","geometry":{"type":"Point","coordinates":[133.9685,34.6109]},"properties":{"name":"\u4e09\u87e0\u5909\u96fb\u6240","vm_pu":1.0,"va_deg":4.58,"vn_kv":110.0}},{"type":"Feature","geometry":{"type":"Point","coordinates":[133.9506,34.6431]},"properties":{"name":"\u5e73\u4e95\u4e8c\u4e01\u76ee\u5909\u96fb\u6240","vm_pu":1.0,"va_deg":4.83,"vn_kv":110.0}},{"type":"Feature","geometry":{"type":"Point","coordinates":[134.0275,34.6289]},"properties":{"name":"\u91d1\u5ca1\u6771\u753a\u4e09\u4e01\u76ee\u5909\u96fb\u6240","vm_pu":1.0,"va_deg":4.6,"vn_kv":66.0}},{"type":"Feature","geometry":{"type":"Point","coordinates":[133.8233,34.4792]},"properties":{"name":"\u7434\u6d66\u5909\u96fb\u6240","vm_pu":1.0,"va_deg":4.47,"vn_kv":110.0}},{"type":"Feature","geometry":{"type":"Point","coordinates":[132.5566,34.2464]},"properties":{"name":"\u516c\u5712\u901a\u5909\u96fb\u6240","vm_pu":1.0,"va_deg":3.89,"vn_kv":110.0}},{"type":"Feature","geometry":{"type":"Point","coordinates":[132.5724,34.2813]},"properties":{"name":"1\u4e01\u76ee\u5909\u96fb\u6240_2","vm_pu":1.0,"va_deg":3.97,"vn_kv":110.0}},{"type":"Feature","geometry":{"type":"Point","coordinates":[132.5121,34.3403]},"properties":{"name":"\u5742\u5909\u96fb\u6240","vm_pu":1.0,"va_deg":5.25,"vn_kv":110.0}},{"type":"Feature","geometry":{"type":"Point","coordinates":[132.4411,34.2078]},"properties":{"name":"\u80fd\u7f8e\u5909\u96fb\u6240","vm_pu":1.0,"va_deg":-2.71,"vn_kv":66.0}},{"type":"Feature","geometry":{"type":"Point","coordinates":[132.4852,34.2497]},"properties":{"name":"\u6c5f\u7530\u5cf6\u5909\u96fb\u6240","vm_pu":1.0,"va_deg":-3.2,"vn_kv":66.0}},{"type":"Feature","geometry":{"type":"Point","coordinates":[132.4723,34.1857]},"properties":{"name":"\u5927\u67ff\u5909\u96fb\u6240","vm_pu":1.0,"va_deg":-2.33,"vn_kv":66.0}},{"type":"Feature","geometry":{"type":"Point","coordinates":[132.5336,34.2645]},"properties":{"name":"\u5409\u6d66\u5909\u96fb\u6240","vm_pu":1.0,"va_deg":3.31,"vn_kv":22.0}},{"type":"Feature","geometry":{"type":"Point","coordinates":[132.9593,34.3379]},"properties":{"name":"\u5fe0\u6d77\u9577\u6d5c\u4e00\u4e01\u76ee\u5909\u96fb\u6240","vm_pu":1.0,"va_deg":5.96,"vn_kv":220.0}},{"type":"Feature","geometry":{"type":"Point","coordinates":[133.2096,34.3948]},"properties":{"name":"\u5411\u5cf6\u5909\u96fb\u6240","vm_pu":1.0,"va_deg":5.03,"vn_kv":110.0}},{"type":"Feature","geometry":{"type":"Point","coordinates":[133.5537,34.5359]},"properties":{"name":"\u65b0\u9d28\u65b9\u5909\u96fb\u6240","vm_pu":1.0,"va_deg":6.4,"vn_kv":110.0}},{"type":"Feature","geometry":{"type":"Point","coordinates":[134.1158,34.7281]},"properties":{"name":"\u65b0\u9999\u767b\u88dc\u52a9\u304d\u96fb\u533a\u5206\u6240","vm_pu":1.0,"va_deg":5.56,"vn_kv":25.0}},{"type":"Feature","geometry":{"type":"Point","coordinates":[134.3845,34.8373]},"properties":{"name":"\u91dc\u5cf6\u5909\u96fb\u6240","vm_pu":1.0,"va_deg":6.58,"vn_kv":110.0}},{"type":"Feature","geometry":{"type":"Point","coordinates":[132.7064,33.8428]},"properties":{"name":"\u5409\u7530\u6d5c\u5909\u96fb\u6240","vm_pu":1.0,"va_deg":5.19,"vn_kv":66.0}},{"type":"Feature","geometry":{"type":"Point","coordinates":[132.7797,33.9773]},"properties":{"name":"\u5317\u6761\u5909\u96fb\u6240","vm_pu":1.0,"va_deg":5.93,"vn_kv":66.0}},{"type":"Feature","geometry":{"type":"Point","coordinates":[132.3363,34.3569]},"properties":{"name":"\u99c5\u524d\u5909\u96fb\u6240","vm_pu":1.0,"va_deg":5.65,"vn_kv":110.0}},{"type":"Feature","geometry":{"type":"Point","coordinates":[133.8605,34.3275]},"properties":{"name":"\u662d\u548c\u753a\u4e8c\u4e01\u76ee\u5909\u96fb\u6240_2","vm_pu":1.0,"va_deg":8.77,"vn_kv":187.0}},{"type":"Feature","geometry":{"type":"Point","coordinates":[132.2181,34.1506]},"properties":{"name":"\u4e2d\u6d25\u753a\u4e09\u4e01\u76ee\u5909\u96fb\u6240","vm_pu":1.0,"va_deg":7.58,"vn_kv":110.0}},{"type":"Feature","geometry":{"type":"Point","coordinates":[132.2148,34.0392]},"properties":{"name":"\u7531\u5b87\u753a\u5357\u6c96\u4e09\u4e01\u76ee\u5909\u96fb\u6240","vm_pu":1.0,"va_deg":7.76,"vn_kv":110.0}},{"type":"Feature","geometry":{"type":"Point","coordinates":[132.209,34.0551]},"properties":{"name":"\u7531\u5b87\u753a\u5317\u4e00\u4e01\u76ee\u5909\u96fb\u6240","vm_pu":1.0,"va_deg":7.84,"vn_kv":110.0}},{"type":"Feature","geometry":{"type":"Point","coordinates":[132.0552,33.962]},"properties":{"name":"\u7530\u5e03\u65bd\u753a\u5909\u96fb\u6240","vm_pu":1.0,"va_deg":7.58,"vn_kv":110.0}},{"type":"Feature","geometry":{"type":"Point","coordinates":[131.7934,34.0643]},"properties":{"name":"\u897f\u677e\u539f\u56db\u4e01\u76ee\u5909\u96fb\u6240","vm_pu":1.0,"va_deg":8.55,"vn_kv":110.0}},{"type":"Feature","geometry":{"type":"Point","coordinates":[131.3157,34.0429]},"properties":{"name":"\u5c71\u53e3\u5e02\u5909\u96fb\u6240_3","vm_pu":1.0,"va_deg":5.45,"vn_kv":110.0}},{"type":"Feature","geometry":{"type":"Point","coordinates":[131.3422,34.0251]},"properties":{"name":"\u5c71\u53e3\u5e02\u5909\u96fb\u6240_4","vm_pu":1.0,"va_deg":5.37,"vn_kv":110.0}},{"type":"Feature","geometry":{"type":"Point","coordinates":[131.343,34.0299]},"properties":{"name":"\u5c71\u53e3\u5e02\u5909\u96fb\u6240_5","vm_pu":1.0,"va_deg":5.38,"vn_kv":110.0}},{"type":"Feature","geometry":{"type":"Point","coordinates":[131.7019,34.0693]},"properties":{"name":"\u5468\u5357\u5e02\u5909\u96fb\u6240","vm_pu":1.0,"va_deg":9.07,"vn_kv":110.0}},{"type":"Feature","geometry":{"type":"Point","coordinates":[132.0914,33.9651]},"properties":{"name":"\u53e4\u958b\u4f5c\u5909\u96fb\u6240","vm_pu":1.0,"va_deg":7.54,"vn_kv":220.0}},{"type":"Feature","geometry":{"type":"Point","coordinates":[132.1606,33.9579]},"properties":{"name":"\u67f3\u4e95\u5e02\u5909\u96fb\u6240","vm_pu":1.0,"va_deg":10.57,"vn_kv":110.0}},{"type":"Feature","geometry":{"type":"Point","coordinates":[132.1264,33.8888]},"properties":{"name":"\u963f\u6708\u5909\u96fb\u6240","vm_pu":1.0,"va_deg":7.21,"vn_kv":110.0}},{"type":"Feature","geometry":{"type":"Point","coordinates":[132.049,33.9479]},"properties":{"name":"\u4e2d\u592e\u5357\u5909\u96fb\u6240","vm_pu":1.0,"va_deg":7.21,"vn_kv":110.0}},{"type":"Feature","geometry":{"type":"Point","coordinates":[133.693,34.5763]},"properties":{"name":"\u8239\u7a42\u753a\u8239\u7a42\u5909\u96fb\u6240","vm_pu":1.0,"va_deg":5.94,"vn_kv":110.0}},{"type":"Feature","geometry":{"type":"Point","coordinates":[133.6614,34.5543]},"properties":{"name":"\u65b0\u5009\u6577\u88dc\u52a9\u304d\u96fb\u533a\u5206\u6240","vm_pu":1.0,"va_deg":7.16,"vn_kv":25.0}},{"type":"Feature","geometry":{"type":"Point","coordinates":[133.6634,34.5549]},"properties":{"name":"\u7389\u5cf6\u9053\u8d8a\u5909\u96fb\u6240","vm_pu":1.0,"va_deg":6.76,"vn_kv":1.5}},{"type":"Feature","geometry":{"type":"Point","coordinates":[133.8349,34.223]},"properties":{"name":"\u5782\u6c34\u753a\u5909\u96fb\u6240","vm_pu":1.0,"va_deg":7.5,"vn_kv":110.0}},{"type":"Feature","geometry":{"type":"Point","coordinates":[133.8407,34.1952]},"properties":{"name":"\u5409\u91ce\u4e0b\u5909\u96fb\u6240","vm_pu":1.0,"va_deg":6.34,"vn_kv":66.0}},{"type":"Feature","geometry":{"type":"Point","coordinates":[133.8252,34.3226]},"properties":{"name":"\u5b87\u591a\u6d25\u753a\u5909\u96fb\u6240","vm_pu":1.0,"va_deg":8.57,"vn_kv":110.0}},{"type":"Feature","geometry":{"type":"Point","coordinates":[133.4468,35.3228]},"properties":{"name":"\u8358\u5909\u96fb\u6240","vm_pu":1.0,"va_deg":3.73,"vn_kv":66.0}},{"type":"Feature","geometry":{"type":"Point","coordinates":[133.509,35.2657]},"properties":{"name":"\u6c5f\u5e9c\u753a\u5909\u96fb\u6240","vm_pu":1.0,"va_deg":5.94,"vn_kv":220.0}},{"type":"Feature","geometry":{"type":"Point","coordinates":[132.8442,34.9078]},"properties":{"name":"\u541b\u7530\u753a\u6ac3\u7530\u5909\u96fb\u6240","vm_pu":1.0,"va_deg":5.53,"vn_kv":110.0}},{"type":"Feature","geometry":{"type":"Point","coordinates":[132.3142,34.9371]},"properties":{"name":"\u685c\u6c5f\u753a\u5e02\u5c71\u5909\u96fb\u6240","vm_pu":1.0,"va_deg":4.08,"vn_kv":110.0}},{"type":"Feature","geometry":{"type":"Point","coordinates":[132.2263,35.0056]},"properties":{"name":"\u672c\u753a\u5909\u96fb\u6240","vm_pu":1.0,"va_deg":4.6,"vn_kv":110.0}},{"type":"Feature","geometry":{"type":"Point","coordinates":[132.7239,34.8374]},"properties":{"name":"\u4e09\u6b21\u5e02\u5909\u96fb\u6240","vm_pu":1.0,"va_deg":4.52,"vn_kv":110.0}},{"type":"Feature","geometry":{"type":"Point","coordinates":[133.402,34.8213]},"properties":{"name":"\u9ad8\u6881\u5e02\u5909\u96fb\u6240","vm_pu":1.0,"va_deg":5.93,"vn_kv":110.0}},{"type":"Feature","geometry":{"type":"Point","coordinates":[133.4306,34.4775]},"properties":{"name":"\u5927\u9580\u753a\u56db\u4e01\u76ee\u5909\u96fb\u6240","vm_pu":1.0,"va_deg":7.99,"vn_kv":110.0}},{"type":"Feature","geometry":{"type":"Point","coordinates":[133.3849,35.0432]},"properties":{"name":"\u65b0\u898b\u5e02\u5909\u96fb\u6240","vm_pu":1.0,"va_deg":-0.21,"vn_kv":110.0}},{"type":"Feature","geometry":{"type":"Point","coordinates":[133.4647,34.9638]},"properties":{"name":"Okayamaken Kigyokyokuniimi Power Station","vm_pu":1.0,"va_deg":-0.09,"vn_kv":110.0}},{"type":"Feature","geometry":{"type":"Point","coordinates":[133.5087,34.9309]},"properties":{"name":"\u4e95\u5009\u5909\u96fb\u6240","vm_pu":1.0,"va_deg":-0.3,"vn_kv":110.0}},{"type":"Feature","geometry":{"type":"Point","coordinates":[133.2299,34.5807]},"properties":{"name":"\u5e9c\u4e2d\u753a\u5909\u96fb\u6240","vm_pu":1.0,"va_deg":5.75,"vn_kv":220.0}},{"type":"Feature","geometry":{"type":"Point","coordinates":[134.4564,34.8187]},"properties":{"name":"\u7dd1\u30b1\u4e18\u56db\u4e01\u76ee\u5909\u96fb\u6240","vm_pu":1.0,"va_deg":7.91,"vn_kv":25.0}},{"type":"Feature","geometry":{"type":"Point","coordinates":[134.2231,34.7537]},"properties":{"name":"\u65b0\u4f0a\u91cc\u88dc\u52a9\u304d\u96fb\u533a\u5206\u6240","vm_pu":1.0,"va_deg":3.4,"vn_kv":25.0}},{"type":"Feature","geometry":{"type":"Point","coordinates":[132.6416,34.8179]},"properties":{"name":"\u5b89\u82b8\u9ad8\u7530\u5e02\u5909\u96fb\u6240","vm_pu":1.0,"va_deg":5.09,"vn_kv":220.0}},{"type":"Feature","geometry":{"type":"Point","coordinates":[133.34,35.1948]},"properties":{"name":"\u6a3d\u539f\u5909\u96fb\u6240","vm_pu":1.0,"va_deg":1.87,"vn_kv":66.0}},{"type":"Feature","geometry":{"type":"Point","coordinates":[133.4018,35.2233]},"properties":{"name":"\u6839\u59bb\u5909\u96fb\u6240","vm_pu":1.0,"va_deg":2.99,"vn_kv":66.0}},{"type":"Feature","geometry":{"type":"Point","coordinates":[133.4845,35.2631]},"properties":{"name":"\u6b66\u5eab\u5909\u96fb\u6240","vm_pu":1.0,"va_deg":3.74,"vn_kv":220.0}},{"type":"Feature","geometry":{"type":"Point","coordinates":[132.948,34.7643]},"properties":{"name":"\u4e09\u6b21\u5e02\u5909\u96fb\u6240_2","vm_pu":1.0,"va_deg":5.64,"vn_kv":110.0}},{"type":"Feature","geometry":{"type":"Point","coordinates":[132.4958,34.3605]},"properties":{"name":"\u4ec1\u4fdd\u56db\u4e01\u76ee\u5909\u96fb\u6240","vm_pu":1.0,"va_deg":5.3,"vn_kv":110.0}},{"type":"Feature","geometry":{"type":"Point","coordinates":[133.7164,34.4918]},"properties":{"name":"\u6c34\u5cf6\u5ddd\u5d0e\u901a\u4e00\u4e01\u76ee\u5909\u96fb\u6240_2","vm_pu":1.0,"va_deg":8.02,"vn_kv":110.0}},{"type":"Feature","geometry":{"type":"Point","coordinates":[133.0885,34.6103]},"properties":{"name":"\u6771\u4e0a\u539f\u5909\u96fb\u6240","vm_pu":1.0,"va_deg":5.64,"vn_kv":110.0}},{"type":"Feature","geometry":{"type":"Point","coordinates":[132.6363,34.2785]},"properties":{"name":"\u5e83\u753a\u5909\u96fb\u6240","vm_pu":1.0,"va_deg":4.94,"vn_kv":110.0}},{"type":"Feature","geometry":{"type":"Point","coordinates":[132.6012,34.2352]},"properties":{"name":"7\u4e01\u76ee\u5909\u96fb\u6240","vm_pu":1.0,"va_deg":4.89,"vn_kv":110.0}},{"type":"Feature","geometry":{"type":"Point","coordinates":[132.3593,34.3707]},"properties":{"name":"\u4e94\u65e5\u5e02\u516d\u4e01\u76ee\u5909\u96fb\u6240","vm_pu":1.0,"va_deg":5.29,"vn_kv":110.0}},{"type":"Feature","geometry":{"type":"Point","coordinates":[134.4675,33.8008]},"properties":{"name":"\u9262\u5909\u96fb\u6240","vm_pu":1.0,"va_deg":5.87,"vn_kv":500.0}}]}