{"type":"FeatureCollection","features":[{"type":"Feature","geometry":{"type":"Point","coordinates":[140.1118,41.4335]},"properties":{"name":"\u798f\u5c71\u5909\u96fb\u6240","vm_pu":1.0004,"va_deg":3.85,"vn_kv":66.0}},{"type":"Feature","geometry":{"type":"Point","coordinates":[140.8303,42.4837]},"properties":{"name":"\u4f0a\u9054\u5e02\u5909\u96fb\u6240","vm_pu":1.0,"va_deg":9.27,"vn_kv":187.0}},{"type":"Feature","geometry":{"type":"Point","coordinates":[140.2732,42.2602]},"properties":{"name":"\u516b\u96f2\u5909\u96fb\u6240","vm_pu":1.0,"va_deg":1.62,"vn_kv":66.0}},{"type":"Feature","geometry":{"type":"Point","coordinates":[140.7984,41.7938]},"properties":{"name":"\u6e6f\u5ddd\u5909\u96fb\u6240","vm_pu":1.0,"va_deg":2.98,"vn_kv":66.0}},{"type":"Feature","geometry":{"type":"Point","coordinates":[140.9947,42.4016]},"properties":{"name":"\u897f\u5ba4\u862d\u958b\u9589\u6240","vm_pu":0.9994,"va_deg":7.08,"vn_kv":187.0}},{"type":"Feature","geometry":{"type":"Point","coordinates":[141.033,42.3724]},"properties":{"name":"\u5ba4\u862d\u5909\u96fb\u6240","vm_pu":0.9994,"va_deg":7.02,"vn_kv":187.0}},{"type":"Feature","geometry":{"type":"Point","coordinates":[141.001,42.3273]},"properties":{"name":"\u5fa1\u5d0e\u5909\u96fb\u6240","vm_pu":1.0,"va_deg":6.73,"vn_kv":66.0}},{"type":"Feature","geometry":{"type":"Point","coordinates":[140.6545,41.9321]},"properties":{"name":"\u4e03\u98ef\u767a\u96fb\u6240","vm_pu":1.0,"va_deg":3.65,"vn_kv":187.0}},{"type":"Feature","geometry":{"type":"Point","coordinates":[141.0537,42.3659]},"properties":{"name":"\u82e5\u8349\u753a\u4e00\u4e01\u76ee\u5909\u96fb\u6240","vm_pu":0.9861,"va_deg":4.74,"vn_kv":66.0}},{"type":"Feature","geometry":{"type":"Point","coordinates":[140.8594,41.765]},"properties":{"name":"\u53e4\u5ddd\u30b1\u30fc\u30d6\u30eb\u30d8\u30c3\u30c9","vm_pu":1.0008,"va_deg":3.36,"vn_kv":250.0}},{"type":"Feature","geometry":{"type":"Point","coordinates":[140.8611,41.7734]},"properties":{"name":"\u92ad\u4e80\u6ca2\u5909\u96fb\u6240","vm_pu":0.9897,"va_deg":2.14,"vn_kv":66.0}},{"type":"Feature","geometry":{"type":"Point","coordinates":[140.3226,41.9386]},"properties":{"name":"\u539a\u6ca2\u90e8\u5909\u96fb\u6240","vm_pu":0.996,"va_deg":3.42,"vn_kv":66.0}},{"type":"Feature","geometry":{"type":"Point","coordinates":[140.6073,41.888]},"properties":{"name":"\u014cno Substation","vm_pu":1.0,"va_deg":4.31,"vn_kv":275.0}},{"type":"Feature","geometry":{"type":"Point","coordinates":[140.6139,41.8186]},"properties":{"name":"\u4e0a\u78ef\u5909\u96fb\u6240","vm_pu":1.0,"va_deg":3.95,"vn_kv":66.0}},{"type":"Feature","geometry":{"type":"Point","coordinates":[141.1132,42.4212]},"properties":{"name":"\u5e4c\u5225\u5909\u96fb\u6240 (Horobetsu Hendensho)","vm_pu":0.9973,"va_deg":5.67,"vn_kv":66.0}},{"type":"Feature","geometry":{"type":"Point","coordinates":[140.8761,42.485]},"properties":{"name":"\u4f0a\u9054\u5909\u96fb\u6240","vm_pu":0.9986,"va_deg":7.3,"vn_kv":66.0}},{"type":"Feature","geometry":{"type":"Point","coordinates":[141.1026,41.8014]},"properties":{"name":"\u6075\u5c71\u5909\u96fb\u6240","vm_pu":0.9531,"va_deg":-0.99,"vn_kv":33.0}},{"type":"Feature","geometry":{"type":"Point","coordinates":[140.6571,41.9323]},"properties":{"name":"\u5317\u4e03\u98ef\u5909\u96fb\u6240","vm_pu":0.9982,"va_deg":3.44,"vn_kv":66.0}},{"type":"Feature","geometry":{"type":"Point","coordinates":[140.6642,41.932]},"properties":{"name":"\u96fb\u6e90\u958b\u767a\u682a\u5f0f\u4f1a\u793e\u5317\u5730\u57df\u5236\u5fa1\u6240","vm_pu":1.0,"va_deg":3.64,"vn_kv":187.0}},{"type":"Feature","geometry":{"type":"Point","coordinates":[140.89,41.4652]},"properties":{"name":"\u5927\u9593\u753a\u5909\u96fb\u6240","vm_pu":1.0013,"va_deg":3.34,"vn_kv":250.0}},{"type":"Feature","geometry":{"type":"Point","coordinates":[140.7324,42.5827]},"properties":{"name":"\u6771\u96f2\u753a\u5909\u96fb\u6240","vm_pu":0.9964,"va_deg":4.64,"vn_kv":66.0}},{"type":"Feature","geometry":{"type":"Point","coordinates":[140.6306,42.6063]},"properties":{"name":"\u5927\u5cb8\u5909\u96fb\u6240 (\u014ckishi Hendensho)","vm_pu":0.9928,"va_deg":3.88,"vn_kv":66.0}},{"type":"Feature","geometry":{"type":"Point","coordinates":[140.995,42.3203]},"properties":{"name":"Chatsu Substation","vm_pu":1.0,"va_deg":6.7,"vn_kv":66.0}},{"type":"Feature","geometry":{"type":"Point","coordinates":[140.2513,41.4986]},"properties":{"name":"\u798f\u5cf6\u5909\u96fb\u6240","vm_pu":0.9898,"va_deg":4.31,"vn_kv":66.0}},{"type":"Feature","geometry":{"type":"Point","coordinates":[140.2349,41.4429]},"properties":{"name":"JR\u5317\u6d77\u9053\u5409\u5ca1\u5909\u96fb\u6240","vm_pu":0.9913,"va_deg":4.64,"vn_kv":66.0}},{"type":"Feature","geometry":{"type":"Point","coordinates":[140.1263,41.8144]},"properties":{"name":"\u5185\u90f7\u5909\u96fb\u6240","vm_pu":0.9628,"va_deg":-0.62,"vn_kv":66.0}},{"type":"Feature","geometry":{"type":"Point","coordinates":[140.1511,41.9338]},"properties":{"name":"\u9c14\u5ddd\u5909\u96fb\u6240","vm_pu":0.9628,"va_deg":-1.12,"vn_kv":66.0}},{"type":"Feature","geometry":{"type":"Point","coordinates":[140.1433,41.8697]},"properties":{"name":"\u6c5f\u5dee\u5909\u96fb\u6240","vm_pu":0.965,"va_deg":-0.42,"vn_kv":66.0}},{"type":"Feature","geometry":{"type":"Point","coordinates":[140.0716,42.0696]},"properties":{"name":"\u76f8\u6cbc\u5185\u5909\u96fb\u6240","vm_pu":0.9735,"va_deg":-5.99,"vn_kv":33.0}},{"type":"Feature","geometry":{"type":"Point","coordinates":[139.933,42.1366]},"properties":{"name":"\u718a\u77f3\u5909\u96fb\u6240","vm_pu":0.9338,"va_deg":-8.54,"vn_kv":33.0}},{"type":"Feature","geometry":{"type":"Point","coordinates":[140.7297,41.8226]},"properties":{"name":"\u4e94\u7a1c\u90ed\u958b\u9589\u6240","vm_pu":0.9982,"va_deg":3.36,"vn_kv":66.0}},{"type":"Feature","geometry":{"type":"Point","coordinates":[141.0083,42.3497]},"properties":{"name":"\u5ba4\u862d\u5e02\u5909\u96fb\u6240","vm_pu":1.0,"va_deg":7.07,"vn_kv":187.0}},{"type":"Feature","geometry":{"type":"Point","coordinates":[141.0086,41.7255]},"properties":{"name":"\u6238\u4e95\u5909\u96fb\u6240","vm_pu":0.9776,"va_deg":1.13,"vn_kv":33.0}},{"type":"Feature","geometry":{"type":"Point","coordinates":[140.6981,41.8995]},"properties":{"name":"\u672c\u753a\u516b\u4e01\u76ee\u5909\u96fb\u6240","vm_pu":0.9764,"va_deg":1.61,"vn_kv":33.0}},{"type":"Feature","geometry":{"type":"Point","coordinates":[140.6443,41.8416]},"properties":{"name":"JR\u5317\u6d77\u9053 \u65b0\u51fd\u9928\u5909\u96fb\u6240","vm_pu":1.0,"va_deg":4.34,"vn_kv":187.0}},{"type":"Feature","geometry":{"type":"Point","coordinates":[140.5778,41.7394]},"properties":{"name":"\u5f53\u5225\u4e94\u4e01\u76ee\u5909\u96fb\u6240","vm_pu":0.9959,"va_deg":3.6,"vn_kv":33.0}},{"type":"Feature","geometry":{"type":"Point","coordinates":[140.1261,42.0907]},"properties":{"name":"\u718a\u77f3\u6cc9\u5cb1\u753a\u5909\u96fb\u6240","vm_pu":1.0,"va_deg":-5.75,"vn_kv":33.0}},{"type":"Feature","geometry":{"type":"Point","coordinates":[140.01,42.425]},"properties":{"name":"\u4eca\u91d1\u5909\u96fb\u6240","vm_pu":0.9112,"va_deg":-7.48,"vn_kv":33.0}},{"type":"Feature","geometry":{"type":"Point","coordinates":[139.8843,42.4056]},"properties":{"name":"\u5317\u6867\u5c71\u5909\u96fb\u6240","vm_pu":0.9028,"va_deg":-9.11,"vn_kv":33.0}},{"type":"Feature","geometry":{"type":"Point","coordinates":[140.8169,42.0327]},"properties":{"name":"\u9e7f\u90e8\u5909\u96fb\u6240","vm_pu":0.9852,"va_deg":2.34,"vn_kv":22.0}},{"type":"Feature","geometry":{"type":"Point","coordinates":[140.4498,42.6339]},"properties":{"name":"\u4f5c\u958b\u958b\u9589\u5668\u67f1","vm_pu":0.991,"va_deg":2.59,"vn_kv":66.0}},{"type":"Feature","geometry":{"type":"Point","coordinates":[140.3738,42.5243]},"properties":{"name":"\u9577\u4e07\u90e8\u5909\u96fb\u6240","vm_pu":0.9907,"va_deg":1.93,"vn_kv":66.0}},{"type":"Feature","geometry":{"type":"Point","coordinates":[140.1954,42.4707]},"properties":{"name":"\u30d4\u30ea\u30ab\u767a\u96fb\u6240","vm_pu":1.0,"va_deg":1.58,"vn_kv":66.0}},{"type":"Feature","geometry":{"type":"Point","coordinates":[141.039,42.3733]},"properties":{"name":"\u7f8e\u5712\u753a\u516d\u4e01\u76ee\u5909\u96fb\u6240","vm_pu":0.9874,"va_deg":4.84,"vn_kv":66.0}},{"type":"Feature","geometry":{"type":"Point","coordinates":[140.9947,42.3707]},"properties":{"name":"\u6e2f\u5317\u753a\u56db\u4e01\u76ee\u5909\u96fb\u6240","vm_pu":0.9987,"va_deg":6.95,"vn_kv":66.0}},{"type":"Feature","geometry":{"type":"Point","coordinates":[140.8876,42.5603]},"properties":{"name":"\u58ee\u77a5\u5909\u96fb\u6240","vm_pu":0.9845,"va_deg":6.12,"vn_kv":66.0}},{"type":"Feature","geometry":{"type":"Point","coordinates":[140.585,41.9163]},"properties":{"name":"\u5317\u6597\u5909\u63db\u6240","vm_pu":1.0,"va_deg":4.31,"vn_kv":275.0}},{"type":"Feature","geometry":{"type":"Point","coordinates":[140.0748,41.4302]},"properties":{"name":"\u677e\u524d\u5909\u96fb\u6240","vm_pu":1.0004,"va_deg":3.85,"vn_kv":66.0}},{"type":"Feature","geometry":{"type":"Point","coordinates":[140.2347,41.4418]},"properties":{"name":"\u5409\u5ca1\u30b1\u30fc\u30d6\u30eb\u30d8\u30c3\u30c9","vm_pu":1.0013,"va_deg":3.99,"vn_kv":250.0}},{"type":"Feature","geometry":{"type":"Point","coordinates":[141.2761,42.5079]},"properties":{"name":"\u7af9\u6d66\u5909\u96fb\u6240","vm_pu":0.9986,"va_deg":0.81,"vn_kv":66.0}},{"type":"Feature","geometry":{"type":"Point","coordinates":[140.9032,42.4586]},"properties":{"name":"\u8429\u539f\u5909\u96fb\u6240","vm_pu":0.9979,"va_deg":7.12,"vn_kv":66.0}},{"type":"Feature","geometry":{"type":"Point","coordinates":[141.1471,42.4721]},"properties":{"name":"\u767b\u5225\u5909\u96fb\u6240","vm_pu":1.0,"va_deg":5.51,"vn_kv":66.0}},{"type":"Feature","geometry":{"type":"Point","coordinates":[141.0799,42.3942]},"properties":{"name":"\u767b\u5225\u9752\u8449\u5909\u96fb\u6240","vm_pu":0.9905,"va_deg":5.1,"vn_kv":66.0}},{"type":"Feature","geometry":{"type":"Point","coordinates":[140.9149,42.5874]},"properties":{"name":"\u6d1e\u723a\u5909\u96fb\u6240","vm_pu":0.9854,"va_deg":6.2,"vn_kv":66.0}},{"type":"Feature","geometry":{"type":"Point","coordinates":[140.7585,42.5541]},"properties":{"name":"\u867b\u7530\u5909\u96fb\u6240","vm_pu":1.0,"va_deg":5.18,"vn_kv":66.0}},{"type":"Feature","geometry":{"type":"Point","coordinates":[140.4244,41.5829]},"properties":{"name":"\u5143\u753a\u5909\u96fb\u6240","vm_pu":1.0,"va_deg":6.65,"vn_kv":66.0}},{"type":"Feature","geometry":{"type":"Point","coordinates":[140.1265,41.8143]},"properties":{"name":"\u4e0a\u30ce\u56fd\u5909\u96fb\u6240","vm_pu":0.9622,"va_deg":-0.67,"vn_kv":33.0}},{"type":"Feature","geometry":{"type":"Point","coordinates":[140.5834,42.1048]},"properties":{"name":"\u68ee\u5909\u96fb\u6240","vm_pu":1.0,"va_deg":3.01,"vn_kv":66.0}},{"type":"Feature","geometry":{"type":"Point","coordinates":[140.4545,42.1328]},"properties":{"name":"\u6fc1\u5ddd\u5909\u96fb\u6240","vm_pu":0.9985,"va_deg":2.25,"vn_kv":66.0}},{"type":"Feature","geometry":{"type":"Point","coordinates":[140.7069,41.9723]},"properties":{"name":"\u8ecd\u5ddd\u5909\u96fb\u6240","vm_pu":0.9906,"va_deg":2.81,"vn_kv":66.0}},{"type":"Feature","geometry":{"type":"Point","coordinates":[140.9744,42.5793]},"properties":{"name":"\u4e45\u4fdd\u5185\u5909\u96fb\u6240","vm_pu":0.9832,"va_deg":6.01,"vn_kv":66.0}},{"type":"Feature","geometry":{"type":"Point","coordinates":[141.5566,42.6346]},"properties":{"name":"\u82eb\u5c0f\u7267\u5909\u96fb\u6240","vm_pu":1.0,"va_deg":1.02,"vn_kv":187.0}},{"type":"Feature","geometry":{"type":"Point","coordinates":[141.6666,42.6594]},"properties":{"name":"\u52c7\u6255\u5909\u96fb\u6240","vm_pu":1.0,"va_deg":-0.16,"vn_kv":66.0}},{"type":"Feature","geometry":{"type":"Point","coordinates":[143.2726,42.4994]},"properties":{"name":"\u5927\u6a39\u5909\u96fb\u6240 (Taiki Hendensho)","vm_pu":0.9893,"va_deg":-17.08,"vn_kv":66.0}},{"type":"Feature","geometry":{"type":"Point","coordinates":[143.129,42.7009]},"properties":{"name":"\u4e2d\u672d\u5185\u5909\u96fb\u6240 (Nakasatsunai Hendensho)","vm_pu":0.9889,"va_deg":-15.16,"vn_kv":66.0}},{"type":"Feature","geometry":{"type":"Point","coordinates":[141.6646,42.6628]},"properties":{"name":"\u660e\u91ce\u5143\u753a\u4e00\u4e01\u76ee\u5909\u96fb\u6240","vm_pu":0.9998,"va_deg":-0.17,"vn_kv":66.0}},{"type":"Feature","geometry":{"type":"Point","coordinates":[141.6618,42.6389]},"properties":{"name":"\u82eb\u5c0f\u7267\u5e02\u5909\u96fb\u6240","vm_pu":1.0,"va_deg":0.96,"vn_kv":187.0}},{"type":"Feature","geometry":{"type":"Point","coordinates":[141.7811,42.7139]},"properties":{"name":"\u5357\u65e9\u6765\u5909\u96fb\u6240","vm_pu":1.0,"va_deg":0.0,"vn_kv":275.0}},{"type":"Feature","geometry":{"type":"Point","coordinates":[141.758,42.6845]},"properties":{"name":"\u82eb\u5c0f\u7267\u5e02\u5909\u96fb\u6240_2","vm_pu":0.9988,"va_deg":-0.54,"vn_kv":66.0}},{"type":"Feature","geometry":{"type":"Point","coordinates":[142.5478,42.5999]},"properties":{"name":"\u65b0\u51a0\u958b\u9589\u6240","vm_pu":1.0,"va_deg":-5.38,"vn_kv":187.0}},{"type":"Feature","geometry":{"type":"Point","coordinates":[142.592,42.6783]},"properties":{"name":"\u65b0\u51a0\u753a\u5909\u96fb\u6240","vm_pu":1.0,"va_deg":-5.34,"vn_kv":187.0}},{"type":"Feature","geometry":{"type":"Point","coordinates":[142.5175,42.5105]},"properties":{"name":"\u5ca9\u6e05\u6c34\u958b\u9589\u6240","vm_pu":1.0,"va_deg":-4.62,"vn_kv":187.0}},{"type":"Feature","geometry":{"type":"Point","coordinates":[142.5654,42.4111]},"properties":{"name":"\u65b0\u3072\u3060\u304b\u753a\u5909\u96fb\u6240","vm_pu":1.0007,"va_deg":-5.51,"vn_kv":66.0}},{"type":"Feature","geometry":{"type":"Point","coordinates":[142.5652,42.412]},"properties":{"name":"\u65b0\u3072\u3060\u304b\u753a\u5909\u96fb\u6240_2","vm_pu":1.0,"va_deg":-4.82,"vn_kv":187.0}},{"type":"Feature","geometry":{"type":"Point","coordinates":[142.5777,42.4762]},"properties":{"name":"\u65b0\u3072\u3060\u304b\u753a\u5909\u96fb\u6240_3","vm_pu":1.0,"va_deg":-4.62,"vn_kv":187.0}},{"type":"Feature","geometry":{"type":"Point","coordinates":[143.1491,42.0262]},"properties":{"name":"\u3048\u308a\u3082\u5909\u96fb\u6240","vm_pu":0.9953,"va_deg":-13.36,"vn_kv":33.0}},{"type":"Feature","geometry":{"type":"Point","coordinates":[142.9116,42.137]},"properties":{"name":"\u69d8\u4f3c\u5909\u96fb\u6240","vm_pu":0.9945,"va_deg":-11.63,"vn_kv":33.0}},{"type":"Feature","geometry":{"type":"Point","coordinates":[141.5873,42.6356]},"properties":{"name":"\u767d\u91d1\u753a\u4e00\u4e01\u76ee\u5909\u96fb\u6240","vm_pu":1.0,"va_deg":0.99,"vn_kv":66.0}},{"type":"Feature","geometry":{"type":"Point","coordinates":[141.9307,42.5814]},"properties":{"name":"\u9d61\u5ddd\u5909\u96fb\u6240","vm_pu":1.0,"va_deg":-3.51,"vn_kv":66.0}},{"type":"Feature","geometry":{"type":"Point","coordinates":[141.8833,42.7075]},"properties":{"name":"\u539a\u771f\u5909\u96fb\u6240","vm_pu":1.0,"va_deg":-0.72,"vn_kv":66.0}},{"type":"Feature","geometry":{"type":"Point","coordinates":[142.7691,42.1809]},"properties":{"name":"\u6d66\u6cb3\u5909\u96fb\u6240","vm_pu":1.0,"va_deg":-11.17,"vn_kv":66.0}},{"type":"Feature","geometry":{"type":"Point","coordinates":[142.0338,42.5234]},"properties":{"name":"\u5bcc\u5ddd\u5909\u96fb\u6240","vm_pu":0.9922,"va_deg":-5.14,"vn_kv":66.0}},{"type":"Feature","geometry":{"type":"Point","coordinates":[142.4567,42.5022]},"properties":{"name":"\u65b0\u51a0\u753a\u5909\u96fb\u6240_2","vm_pu":0.9993,"va_deg":-5.12,"vn_kv":66.0}},{"type":"Feature","geometry":{"type":"Point","coordinates":[142.3728,42.3476]},"properties":{"name":"\u9759\u5185\u5909\u96fb\u6240","vm_pu":1.0,"va_deg":-7.2,"vn_kv":66.0}},{"type":"Feature","geometry":{"type":"Point","coordinates":[142.4569,42.3012]},"properties":{"name":"\u6771\u9759\u5185\u5909\u96fb\u6240","vm_pu":0.9949,"va_deg":-8.11,"vn_kv":33.0}},{"type":"Feature","geometry":{"type":"Point","coordinates":[142.5521,42.2534]},"properties":{"name":"\u4e09\u77f3\u5909\u96fb\u6240","vm_pu":0.9908,"va_deg":-10.65,"vn_kv":33.0}},{"type":"Feature","geometry":{"type":"Point","coordinates":[142.6303,42.2449]},"properties":{"name":"\u672c\u6850\u5909\u96fb\u6240","vm_pu":1.0,"va_deg":-11.46,"vn_kv":33.0}},{"type":"Feature","geometry":{"type":"Point","coordinates":[141.8035,42.612]},"properties":{"name":"\u82eb\u5c0f\u7267\u5e02\u5909\u96fb\u6240_3","vm_pu":1.0,"va_deg":1.29,"vn_kv":275.0}},{"type":"Feature","geometry":{"type":"Point","coordinates":[142.2376,42.4277]},"properties":{"name":"\u539a\u8cc0\u5909\u96fb\u6240","vm_pu":0.993,"va_deg":-6.6,"vn_kv":33.0}},{"type":"Feature","geometry":{"type":"Point","coordinates":[142.2912,42.7261]},"properties":{"name":"\u5e73\u53d6\u5909\u96fb\u6240","vm_pu":0.9948,"va_deg":-4.02,"vn_kv":66.0}},{"type":"Feature","geometry":{"type":"Point","coordinates":[142.5458,42.4188]},"properties":{"name":"\u65b0\u3072\u3060\u304b\u753a\u5909\u96fb\u6240_4","vm_pu":1.0,"va_deg":-5.9,"vn_kv":66.0}},{"type":"Feature","geometry":{"type":"Point","coordinates":[142.1211,42.5807]},"properties":{"name":"\u5e73\u53d6\u5909\u96fb\u6240","vm_pu":0.9874,"va_deg":-5.47,"vn_kv":33.0}},{"type":"Feature","geometry":{"type":"Point","coordinates":[141.6674,42.6546]},"properties":{"name":"\u660e\u91ce\u5143\u753a\u4e00\u4e01\u76ee\u5909\u96fb\u6240_2","vm_pu":0.9999,"va_deg":-0.19,"vn_kv":66.0}},{"type":"Feature","geometry":{"type":"Point","coordinates":[141.6632,42.6372]},"properties":{"name":"\u771f\u7802\u753a\u5909\u96fb\u6240","vm_pu":0.9993,"va_deg":-0.85,"vn_kv":66.0}},{"type":"Feature","geometry":{"type":"Point","coordinates":[141.6785,42.6371]},"properties":{"name":"\u82eb\u5c0f\u7267\u5e02\u5909\u96fb\u6240_4","vm_pu":1.0,"va_deg":-0.79,"vn_kv":66.0}},{"type":"Feature","geometry":{"type":"Point","coordinates":[142.1991,42.6777]},"properties":{"name":"\u8377\u8ca0\u5909\u96fb\u6240","vm_pu":0.9821,"va_deg":-5.42,"vn_kv":33.0}},{"type":"Feature","geometry":{"type":"Point","coordinates":[143.0355,42.0787]},"properties":{"name":"\u5e4c\u6e80\u5909\u96fb\u6240","vm_pu":1.0,"va_deg":-12.96,"vn_kv":66.0}},{"type":"Feature","geometry":{"type":"Point","coordinates":[141.6914,42.6412]},"properties":{"name":"\u6e2f\u5357\u5909\u96fb\u6240","vm_pu":0.9998,"va_deg":-0.73,"vn_kv":66.0}},{"type":"Feature","geometry":{"type":"Point","coordinates":[141.7402,42.6707]},"properties":{"name":"\u82eb\u5c0f\u7267\u5e02\u5909\u96fb\u6240_5","vm_pu":1.0,"va_deg":-0.49,"vn_kv":66.0}},{"type":"Feature","geometry":{"type":"Point","coordinates":[141.8015,42.6462]},"properties":{"name":"Benten Substation","vm_pu":1.0003,"va_deg":0.59,"vn_kv":66.0}},{"type":"Feature","geometry":{"type":"Point","coordinates":[141.5024,42.6141]},"properties":{"name":"\u3068\u304d\u308f\u753a\u516d\u4e01\u76ee\u5909\u96fb\u6240","vm_pu":1.0,"va_deg":2.36,"vn_kv":66.0}},{"type":"Feature","geometry":{"type":"Point","coordinates":[141.6691,42.6554]},"properties":{"name":"\u660e\u91ce\u5143\u753a\u4e00\u4e01\u76ee\u5909\u96fb\u6240_3","vm_pu":1.0,"va_deg":-0.19,"vn_kv":66.0}},{"type":"Feature","geometry":{"type":"Point","coordinates":[141.6833,42.6629]},"properties":{"name":"\u6771\u958b\u753a\u4e09\u4e01\u76ee\u5909\u96fb\u6240","vm_pu":0.9999,"va_deg":-0.23,"vn_kv":66.0}},{"type":"Feature","geometry":{"type":"Point","coordinates":[141.6896,42.6318]},"properties":{"name":"\u82eb\u5c0f\u7267\u5e02\u5909\u96fb\u6240_9","vm_pu":1.0,"va_deg":-0.76,"vn_kv":66.0}},{"type":"Feature","geometry":{"type":"Point","coordinates":[143.3052,42.2947]},"properties":{"name":"\u5e83\u5c3e\u5909\u96fb\u6240","vm_pu":1.0,"va_deg":-18.01,"vn_kv":66.0}},{"type":"Feature","geometry":{"type":"Point","coordinates":[141.4183,43.0223]},"properties":{"name":"\u5357\u672d\u5e4c\u5909\u96fb\u6240","vm_pu":0.9988,"va_deg":-2.3,"vn_kv":187.0}},{"type":"Feature","geometry":{"type":"Point","coordinates":[141.2225,43.0575]},"properties":{"name":"\u897f\u91ce\u5909\u96fb\u6240","vm_pu":1.0,"va_deg":4.5,"vn_kv":275.0}},{"type":"Feature","geometry":{"type":"Point","coordinates":[141.2044,43.1308]},"properties":{"name":"\u624b\u7a32\u5909\u96fb\u6240","vm_pu":0.9559,"va_deg":0.22,"vn_kv":66.0}},{"type":"Feature","geometry":{"type":"Point","coordinates":[141.3457,43.1563]},"properties":{"name":"\u8328\u6238\u5909\u96fb\u6240","vm_pu":0.9942,"va_deg":-0.46,"vn_kv":66.0}},{"type":"Feature","geometry":{"type":"Point","coordinates":[141.2829,43.1218]},"properties":{"name":"\u897f\u672d\u5e4c\u5909\u96fb\u6240","vm_pu":0.9957,"va_deg":1.98,"vn_kv":187.0}},{"type":"Feature","geometry":{"type":"Point","coordinates":[141.4506,43.2344]},"properties":{"name":"\u897f\u5f53\u5225\u5909\u96fb\u6240","vm_pu":0.9958,"va_deg":-2.78,"vn_kv":275.0}},{"type":"Feature","geometry":{"type":"Point","coordinates":[141.3741,43.1388]},"properties":{"name":"\u7be0\u8def\u5909\u96fb\u6240","vm_pu":0.9949,"va_deg":-1.47,"vn_kv":187.0}},{"type":"Feature","geometry":{"type":"Point","coordinates":[141.3056,43.0366]},"properties":{"name":"\u5186\u5c71\u897f\u753a5\u5909\u96fb\u6240","vm_pu":0.9997,"va_deg":4.46,"vn_kv":187.0}},{"type":"Feature","geometry":{"type":"Point","coordinates":[141.4127,43.0328]},"properties":{"name":"\u6708\u5bd2\u5909\u96fb\u6240","vm_pu":0.9975,"va_deg":-2.5,"vn_kv":66.0}},{"type":"Feature","geometry":{"type":"Point","coordinates":[141.37,43.0193]},"properties":{"name":"\u5e73\u5cb83\u676118\u5909\u96fb\u6240","vm_pu":0.9979,"va_deg":-2.52,"vn_kv":66.0}},{"type":"Feature","geometry":{"type":"Point","coordinates":[141.4029,43.0928]},"properties":{"name":"\u82d7\u7a42\u5909\u96fb\u6240","vm_pu":1.0,"va_deg":-2.37,"vn_kv":187.0}},{"type":"Feature","geometry":{"type":"Point","coordinates":[141.3008,43.0879]},"properties":{"name":"\u7434\u4f3c\u5909\u96fb\u6240","vm_pu":0.9896,"va_deg":1.2,"vn_kv":66.0}},{"type":"Feature","geometry":{"type":"Point","coordinates":[141.4172,43.1354]},"properties":{"name":"\u6771\u533a\u5909\u96fb\u6240","vm_pu":0.9966,"va_deg":-2.36,"vn_kv":66.0}},{"type":"Feature","geometry":{"type":"Point","coordinates":[141.1698,43.1386]},"properties":{"name":"JR\u5317\u6d77\u9053 \u92ad\u51fd\u5909\u96fb\u6240","vm_pu":0.9546,"va_deg":0.11,"vn_kv":66.0}},{"type":"Feature","geometry":{"type":"Point","coordinates":[141.4058,43.0592]},"properties":{"name":"\u767d\u77f3\u5909\u96fb\u6240","vm_pu":0.9982,"va_deg":-2.55,"vn_kv":66.0}},{"type":"Feature","geometry":{"type":"Point","coordinates":[140.9569,43.2047]},"properties":{"name":"\u897f\u5c0f\u6a3d\u5909\u96fb\u6240","vm_pu":1.0,"va_deg":4.5,"vn_kv":187.0}},{"type":"Feature","geometry":{"type":"Point","coordinates":[140.9806,43.2066]},"properties":{"name":"\u9577\u6a4b\u5909\u96fb\u6240","vm_pu":0.9915,"va_deg":3.28,"vn_kv":66.0}},{"type":"Feature","geometry":{"type":"Point","coordinates":[141.281,43.106]},"properties":{"name":"\u767a\u5bd212\u676113\u4e01\u76ee\u5909\u96fb\u6240","vm_pu":0.9917,"va_deg":1.37,"vn_kv":66.0}},{"type":"Feature","geometry":{"type":"Point","coordinates":[141.2779,43.1036]},"properties":{"name":"\u767a\u5bd212\u676113\u4e01\u76ee\u5909\u96fb\u6240_2","vm_pu":0.9914,"va_deg":1.35,"vn_kv":66.0}},{"type":"Feature","geometry":{"type":"Point","coordinates":[141.2749,43.1006]},"properties":{"name":"\u5bae\u306e\u6ca2\u5909\u96fb\u6240","vm_pu":0.9912,"va_deg":1.33,"vn_kv":66.0}},{"type":"Feature","geometry":{"type":"Point","coordinates":[141.3008,43.1812]},"properties":{"name":"\u77f3\u72e9\u5909\u96fb\u6240","vm_pu":0.9926,"va_deg":-0.6,"vn_kv":66.0}},{"type":"Feature","geometry":{"type":"Point","coordinates":[141.0338,42.743]},"properties":{"name":"Futaba Switching Station","vm_pu":1.0001,"va_deg":4.56,"vn_kv":187.0}},{"type":"Feature","geometry":{"type":"Point","coordinates":[140.6822,42.8226]},"properties":{"name":"\u30cb\u30bb\u30b3\u5909\u96fb\u6240","vm_pu":1.0,"va_deg":5.23,"vn_kv":66.0}},{"type":"Feature","geometry":{"type":"Point","coordinates":[140.7213,42.825]},"properties":{"name":"\u7f8a\u8e44\u5909\u96fb\u6240","vm_pu":1.0,"va_deg":5.32,"vn_kv":66.0}},{"type":"Feature","geometry":{"type":"Point","coordinates":[140.8515,42.8789]},"properties":{"name":"\u5bd2\u5225\u5909\u96fb\u6240","vm_pu":1.0,"va_deg":8.33,"vn_kv":66.0}},{"type":"Feature","geometry":{"type":"Point","coordinates":[140.5865,42.8075]},"properties":{"name":"\u6606\u5e03\u5909\u96fb\u6240","vm_pu":1.0,"va_deg":4.66,"vn_kv":66.0}},{"type":"Feature","geometry":{"type":"Point","coordinates":[140.8951,42.8063]},"properties":{"name":"\u7559\u7523\u5909\u96fb\u6240","vm_pu":0.997,"va_deg":7.18,"vn_kv":66.0}},{"type":"Feature","geometry":{"type":"Point","coordinates":[141.3153,43.0774]},"properties":{"name":"\u4e8c\u5341\u56db\u8ed2\u5909\u96fb\u6240","vm_pu":0.989,"va_deg":1.14,"vn_kv":66.0}},{"type":"Feature","geometry":{"type":"Point","coordinates":[141.3676,43.0191]},"properties":{"name":"\u5e73\u5cb83\u676118\u5909\u96fb\u6240_2","vm_pu":1.0,"va_deg":4.57,"vn_kv":66.0}},{"type":"Feature","geometry":{"type":"Point","coordinates":[141.3246,43.1055]},"properties":{"name":"\u65b0\u7434\u4f3c\u5909\u96fb\u6240","vm_pu":0.9909,"va_deg":1.3,"vn_kv":66.0}},{"type":"Feature","geometry":{"type":"Point","coordinates":[141.1697,42.9725]},"properties":{"name":"\u5b9a\u5c71\u6e13\u6e29\u6cc9\u897f1\u5909\u96fb\u6240","vm_pu":1.0,"va_deg":4.59,"vn_kv":275.0}},{"type":"Feature","geometry":{"type":"Point","coordinates":[141.0356,42.7494]},"properties":{"name":"Nishifutaba Switching Station","vm_pu":1.0015,"va_deg":4.85,"vn_kv":275.0}},{"type":"Feature","geometry":{"type":"Point","coordinates":[140.9868,43.1928]},"properties":{"name":"\u5bcc\u5ca1\u5909\u96fb\u6240","vm_pu":0.991,"va_deg":3.24,"vn_kv":66.0}},{"type":"Feature","geometry":{"type":"Point","coordinates":[140.657,42.9851]},"properties":{"name":"\u56fd\u5bcc\u5909\u96fb\u6240","vm_pu":0.9938,"va_deg":5.82,"vn_kv":66.0}},{"type":"Feature","geometry":{"type":"Point","coordinates":[140.5213,43.0589]},"properties":{"name":"\u8305\u6cbc\u5909\u96fb\u6240","vm_pu":1.0009,"va_deg":10.62,"vn_kv":66.0}},{"type":"Feature","geometry":{"type":"Point","coordinates":[140.2963,42.752]},"properties":{"name":"\u4f5c\u958b\u5909\u96fb\u6240","vm_pu":0.9824,"va_deg":1.85,"vn_kv":66.0}},{"type":"Feature","geometry":{"type":"Point","coordinates":[141.0232,43.1781]},"properties":{"name":"\u5c0f\u6a3d\u5909\u96fb\u6240","vm_pu":0.9757,"va_deg":1.96,"vn_kv":66.0}},{"type":"Feature","geometry":{"type":"Point","coordinates":[140.5162,43.0395]},"properties":{"name":"\u6cca\u6751\u5909\u96fb\u6240","vm_pu":1.0,"va_deg":11.66,"vn_kv":275.0}},{"type":"Feature","geometry":{"type":"Point","coordinates":[140.7467,42.8976]},"properties":{"name":"\u5036\u77e5\u5b89\u5909\u96fb\u6240","vm_pu":0.9963,"va_deg":6.27,"vn_kv":66.0}},{"type":"Feature","geometry":{"type":"Point","coordinates":[141.3926,43.4798]},"properties":{"name":"\u6fc3\u663c\u5909\u96fb\u5854","vm_pu":0.1133,"va_deg":-81.92,"vn_kv":22.0}},{"type":"Feature","geometry":{"type":"Point","coordinates":[141.4368,43.3949]},"properties":{"name":"\u539a\u7530\u5909\u96fb\u6240","vm_pu":0.2292,"va_deg":-62.67,"vn_kv":22.0}},{"type":"Feature","geometry":{"type":"Point","coordinates":[141.2726,43.1634]},"properties":{"name":"\u6a3d\u5ddd\u5909\u96fb\u6240","vm_pu":1.0,"va_deg":1.89,"vn_kv":66.0}},{"type":"Feature","geometry":{"type":"Point","coordinates":[141.0523,43.1668]},"properties":{"name":"\u65b0\u5149\u5909\u96fb\u6240","vm_pu":0.9976,"va_deg":8.01,"vn_kv":66.0}},{"type":"Feature","geometry":{"type":"Point","coordinates":[140.5507,42.8186]},"properties":{"name":"\u862d\u8d8a\u5909\u96fb\u6240","vm_pu":0.9984,"va_deg":4.53,"vn_kv":66.0}},{"type":"Feature","geometry":{"type":"Point","coordinates":[140.7246,42.87]},"properties":{"name":"\u5c71\u7530\u5909\u96fb\u6240","vm_pu":0.9965,"va_deg":6.05,"vn_kv":66.0}},{"type":"Feature","geometry":{"type":"Point","coordinates":[141.2422,43.1251]},"properties":{"name":"\u524d\u7530\u5909\u96fb\u6240","vm_pu":0.9545,"va_deg":0.1,"vn_kv":66.0}},{"type":"Feature","geometry":{"type":"Point","coordinates":[141.2765,43.192]},"properties":{"name":"\u77f3\u72e9\u6e7e\u65b0\u6e2f\u767a\u96fb\u6240","vm_pu":1.0,"va_deg":-2.22,"vn_kv":275.0}},{"type":"Feature","geometry":{"type":"Point","coordinates":[141.4173,43.3157]},"properties":{"name":"\u671b\u6765\u5909\u96fb\u6240","vm_pu":0.4154,"va_deg":-40.52,"vn_kv":22.0}},{"type":"Feature","geometry":{"type":"Point","coordinates":[141.3898,43.5794]},"properties":{"name":"\u6d5c\u76ca\u5909\u96fb\u6240","vm_pu":0.061,"va_deg":-93.21,"vn_kv":22.0}},{"type":"Feature","geometry":{"type":"Point","coordinates":[141.4384,42.7894]},"properties":{"name":"\u5343\u6b73\u5e02\u5909\u96fb\u6240","vm_pu":0.9987,"va_deg":0.81,"vn_kv":66.0}},{"type":"Feature","geometry":{"type":"Point","coordinates":[141.6666,44.096]},"properties":{"name":"\u5c0f\u5e73\u753a\u5909\u96fb\u6240","vm_pu":0.9547,"va_deg":-13.07,"vn_kv":66.0}},{"type":"Feature","geometry":{"type":"Point","coordinates":[142.3879,43.7535]},"properties":{"name":"\u65ed\u5ddd\u5909\u96fb\u6240 (Asahikawa Hendensho)","vm_pu":0.9928,"va_deg":-11.05,"vn_kv":110.0}},{"type":"Feature","geometry":{"type":"Point","coordinates":[142.323,43.8062]},"properties":{"name":"\u897f\u65ed\u5ddd\u5909\u96fb\u6240","vm_pu":0.9816,"va_deg":-9.26,"vn_kv":187.0}},{"type":"Feature","geometry":{"type":"Point","coordinates":[141.7992,42.8819]},"properties":{"name":"\u5b89\u5e73\u753a\u5909\u96fb\u6240","vm_pu":1.0002,"va_deg":-1.32,"vn_kv":187.0}},{"type":"Feature","geometry":{"type":"Point","coordinates":[143.457,43.2549]},"properties":{"name":"\u8db3\u5bc4\u753a\u5909\u96fb\u6240","vm_pu":1.0001,"va_deg":-14.14,"vn_kv":187.0}},{"type":"Feature","geometry":{"type":"Point","coordinates":[143.1517,42.9762]},"properties":{"name":"\u897f\u97f3\u66f4\u5909\u96fb\u6240 (Nishi-Otofuke Hendensho)","vm_pu":1.0,"va_deg":-12.18,"vn_kv":187.0}},{"type":"Feature","geometry":{"type":"Point","coordinates":[143.2083,42.9657]},"properties":{"name":"\u6728\u91ce\u5909\u96fb\u6240","vm_pu":1.0,"va_deg":-12.84,"vn_kv":66.0}},{"type":"Feature","geometry":{"type":"Point","coordinates":[143.6002,43.7757]},"properties":{"name":"\u7559\u8fba\u8602\u5909\u96fb\u6240","vm_pu":1.0,"va_deg":-15.49,"vn_kv":187.0}},{"type":"Feature","geometry":{"type":"Point","coordinates":[143.5465,43.2265]},"properties":{"name":"\u8db3\u5bc4\u5909\u96fb\u6240 (Ashoro Hendensho)","vm_pu":1.0002,"va_deg":-14.15,"vn_kv":187.0}},{"type":"Feature","geometry":{"type":"Point","coordinates":[142.3106,43.7905]},"properties":{"name":"\u65ed\u5ca1\u4e00\u4e01\u76ee\u5909\u96fb\u6240","vm_pu":0.9803,"va_deg":-9.47,"vn_kv":66.0}},{"type":"Feature","geometry":{"type":"Point","coordinates":[142.3495,43.7408]},"properties":{"name":"\u795e\u5c45\u4e00\u6761\u4e8c\u5341\u4e00\u4e01\u76ee\u5909\u96fb\u6240","vm_pu":0.9846,"va_deg":-10.08,"vn_kv":66.0}},{"type":"Feature","geometry":{"type":"Point","coordinates":[142.3912,43.774]},"properties":{"name":"\u65b0\u65ed\u5ddd\u5909\u96fb\u6240","vm_pu":0.9695,"va_deg":-10.6,"vn_kv":66.0}},{"type":"Feature","geometry":{"type":"Point","coordinates":[142.4376,43.8014]},"properties":{"name":"\u6c38\u5c71\u5909\u96fb\u6240 (Nagayama Hendensho)","vm_pu":0.9673,"va_deg":-10.79,"vn_kv":66.0}},{"type":"Feature","geometry":{"type":"Point","coordinates":[143.1899,42.8531]},"properties":{"name":"\u5ddd\u897f\u5909\u96fb\u6240","vm_pu":0.9969,"va_deg":-13.14,"vn_kv":66.0}},{"type":"Feature","geometry":{"type":"Point","coordinates":[143.2075,42.8966]},"properties":{"name":"\u5357\u90f7\u5909\u96fb\u6240","vm_pu":0.9972,"va_deg":-13.09,"vn_kv":66.0}},{"type":"Feature","geometry":{"type":"Point","coordinates":[141.6019,42.9316]},"properties":{"name":"\u6075\u5ead\u5909\u96fb\u6240","vm_pu":0.9995,"va_deg":-1.78,"vn_kv":187.0}},{"type":"Feature","geometry":{"type":"Point","coordinates":[141.5819,42.9153]},"properties":{"name":"\u5cf6\u677e\u5909\u96fb\u6240","vm_pu":0.992,"va_deg":-3.06,"vn_kv":66.0}},{"type":"Feature","geometry":{"type":"Point","coordinates":[141.4805,42.9771]},"properties":{"name":"\u5927\u66f2\u7dd1\u30f6\u4e18\u4e00\u4e01\u76ee\u5909\u96fb\u6240","vm_pu":0.9962,"va_deg":-2.71,"vn_kv":66.0}},{"type":"Feature","geometry":{"type":"Point","coordinates":[141.4798,43.0662]},"properties":{"name":"\u5927\u9ebb\u5909\u96fb\u6240","vm_pu":0.9976,"va_deg":-2.44,"vn_kv":66.0}},{"type":"Feature","geometry":{"type":"Point","coordinates":[141.7833,43.2053]},"properties":{"name":"\u4e94\u6761\u6771\u5341\u4e8c\u4e01\u76ee\u5909\u96fb\u6240","vm_pu":0.9963,"va_deg":-8.41,"vn_kv":66.0}},{"type":"Feature","geometry":{"type":"Point","coordinates":[141.8723,43.3275]},"properties":{"name":"\u7f8e\u5504\u5909\u96fb\u6240","vm_pu":0.9968,"va_deg":-8.01,"vn_kv":66.0}},{"type":"Feature","geometry":{"type":"Point","coordinates":[143.6118,43.1161]},"properties":{"name":"\u672c\u5225\u753a (Honbetsu)","vm_pu":0.9997,"va_deg":-13.81,"vn_kv":33.0}},{"type":"Feature","geometry":{"type":"Point","coordinates":[143.5439,43.1199]},"properties":{"name":"\u672c\u5225\u753a\u5909\u96fb\u6240","vm_pu":1.0,"va_deg":-14.15,"vn_kv":33.0}},{"type":"Feature","geometry":{"type":"Point","coordinates":[141.6663,44.1545]},"properties":{"name":"\u9b3c\u9e7f\u7530\u4ee3\u5909\u96fb\u6240","vm_pu":0.9516,"va_deg":-14.32,"vn_kv":66.0}},{"type":"Feature","geometry":{"type":"Point","coordinates":[141.6692,44.0162]},"properties":{"name":"\u5c0f\u5e73\u5909\u96fb\u6240 (Obira Hendensho)","vm_pu":0.9638,"va_deg":-10.99,"vn_kv":66.0}},{"type":"Feature","geometry":{"type":"Point","coordinates":[143.0272,43.0655]},"properties":{"name":"\u9e7f\u8ffd\u753a\u5909\u96fb\u6240","vm_pu":0.9907,"va_deg":-12.94,"vn_kv":66.0}},{"type":"Feature","geometry":{"type":"Point","coordinates":[143.0064,43.0965]},"properties":{"name":"\u9e7f\u8ffd\u5317\u4e09\u7dda\u5909\u96fb\u6240","vm_pu":0.9976,"va_deg":-12.53,"vn_kv":66.0}},{"type":"Feature","geometry":{"type":"Point","coordinates":[142.9918,43.0999]},"properties":{"name":"\u9e7f\u8ffd\u5909\u96fb\u6240","vm_pu":0.9969,"va_deg":-12.56,"vn_kv":66.0}},{"type":"Feature","geometry":{"type":"Point","coordinates":[143.243,43.1703]},"properties":{"name":"\u58eb\u5e4c\u5909\u96fb\u6240","vm_pu":0.9762,"va_deg":-14.64,"vn_kv":66.0}},{"type":"Feature","geometry":{"type":"Point","coordinates":[141.8432,43.4202]},"properties":{"name":"\u5948\u4e95\u6c5f\u753a\u5909\u96fb\u6240","vm_pu":1.0,"va_deg":-4.74,"vn_kv":187.0}},{"type":"Feature","geometry":{"type":"Point","coordinates":[141.7487,43.2071]},"properties":{"name":"\u5ca9\u898b\u6ca2\u5909\u96fb\u6240 (Iwamizawa Hendensho)","vm_pu":0.9989,"va_deg":-7.52,"vn_kv":66.0}},{"type":"Feature","geometry":{"type":"Point","coordinates":[141.6997,43.3292]},"properties":{"name":"\u7f8e\u5504\u5e02\u5909\u96fb\u6240","vm_pu":1.0,"va_deg":-7.63,"vn_kv":66.0}},{"type":"Feature","geometry":{"type":"Point","coordinates":[141.826,43.2604]},"properties":{"name":"\u5cf0\u5ef6\u5909\u96fb\u6240","vm_pu":0.9976,"va_deg":-8.14,"vn_kv":66.0}},{"type":"Feature","geometry":{"type":"Point","coordinates":[141.6048,42.8667]},"properties":{"name":"\u6075\u5357\u5909\u96fb\u6240","vm_pu":1.0,"va_deg":-1.35,"vn_kv":66.0}},{"type":"Feature","geometry":{"type":"Point","coordinates":[141.6138,42.7905]},"properties":{"name":"\u6cc9\u6ca2\u5909\u96fb\u6240","vm_pu":1.0,"va_deg":0.37,"vn_kv":66.0}},{"type":"Feature","geometry":{"type":"Point","coordinates":[141.8897,43.4167]},"properties":{"name":"\u5948\u4e95\u6c5f\u5909\u96fb\u6240","vm_pu":1.0,"va_deg":-7.5,"vn_kv":66.0}},{"type":"Feature","geometry":{"type":"Point","coordinates":[141.5202,43.212]},"properties":{"name":"\u5f53\u5225\u5909\u96fb\u6240 (Tobetsu Hendensho)","vm_pu":0.9456,"va_deg":-6.08,"vn_kv":66.0}},{"type":"Feature","geometry":{"type":"Point","coordinates":[141.6961,43.0132]},"properties":{"name":"\u9577\u6cbc\u5909\u96fb\u6240 (Naganuma Hendensho)","vm_pu":0.9965,"va_deg":-3.45,"vn_kv":66.0}},{"type":"Feature","geometry":{"type":"Point","coordinates":[141.5523,43.0901]},"properties":{"name":"\u4e0a\u6c5f\u5225\u5909\u96fb\u6240","vm_pu":1.0,"va_deg":-4.45,"vn_kv":66.0}},{"type":"Feature","geometry":{"type":"Point","coordinates":[142.9034,43.1621]},"properties":{"name":"\u5317\u65b0\u5f97\u5909\u96fb\u6240","vm_pu":1.0,"va_deg":-11.94,"vn_kv":187.0}},{"type":"Feature","geometry":{"type":"Point","coordinates":[143.5093,44.0232]},"properties":{"name":"\u9060\u8efd\u5909\u96fb\u6240","vm_pu":1.0,"va_deg":-16.08,"vn_kv":66.0}},{"type":"Feature","geometry":{"type":"Point","coordinates":[142.792,43.8416]},"properties":{"name":"\u65e5\u6771\u5909\u96fb\u6240","vm_pu":1.0,"va_deg":-11.71,"vn_kv":66.0}},{"type":"Feature","geometry":{"type":"Point","coordinates":[142.8719,43.8096]},"properties":{"name":"\u4e0a\u5ddd\u753a\u5909\u96fb\u6240","vm_pu":1.0,"va_deg":-11.76,"vn_kv":66.0}},{"type":"Feature","geometry":{"type":"Point","coordinates":[141.9519,43.8127]},"properties":{"name":"\u65ed\u753a\u56db\u4e01\u76ee\u5909\u96fb\u6240","vm_pu":0.9884,"va_deg":-6.15,"vn_kv":187.0}},{"type":"Feature","geometry":{"type":"Point","coordinates":[142.003,43.7416]},"properties":{"name":"\u6df1\u5ddd\u5e02\u5909\u96fb\u6240","vm_pu":0.9873,"va_deg":-7.3,"vn_kv":66.0}},{"type":"Feature","geometry":{"type":"Point","coordinates":[143.0335,42.9215]},"properties":{"name":"\u5317\u82bd\u5ba4\u5909\u96fb\u6240 (Kita-Memuro Hendensho)","vm_pu":0.998,"va_deg":-12.41,"vn_kv":187.0}},{"type":"Feature","geometry":{"type":"Point","coordinates":[143.1459,42.9382]},"properties":{"name":"\u897f\u5e2f\u5e83\u5909\u96fb\u6240 (Nishi-Obihiro Hendensho)","vm_pu":0.9983,"va_deg":-12.4,"vn_kv":66.0}},{"type":"Feature","geometry":{"type":"Point","coordinates":[142.9249,43.1821]},"properties":{"name":"\u65b0\u5ca9\u677e\u5909\u96fb\u6240","vm_pu":1.0,"va_deg":-12.58,"vn_kv":66.0}},{"type":"Feature","geometry":{"type":"Point","coordinates":[141.576,42.9938]},"properties":{"name":"\u5317\u5e83\u5cf6\u5909\u96fb\u6240","vm_pu":0.9981,"va_deg":-1.98,"vn_kv":66.0}},{"type":"Feature","geometry":{"type":"Point","coordinates":[141.6364,42.8333]},"properties":{"name":"\u5343\u6b73\u5909\u96fb\u6240","vm_pu":0.999,"va_deg":-0.84,"vn_kv":66.0}},{"type":"Feature","geometry":{"type":"Point","coordinates":[141.9292,43.2578]},"properties":{"name":"\u5f25\u751f\u85e4\u679d\u753a\u5909\u96fb\u6240","vm_pu":1.0,"va_deg":-8.29,"vn_kv":66.0}},{"type":"Feature","geometry":{"type":"Point","coordinates":[141.8126,42.7613]},"properties":{"name":"\u65e9\u6765\u5909\u96fb\u6240","vm_pu":1.0,"va_deg":-0.52,"vn_kv":66.0}},{"type":"Feature","geometry":{"type":"Point","coordinates":[141.729,43.1894]},"properties":{"name":"JR\u5909\u96fb\u6240","vm_pu":1.0,"va_deg":-7.26,"vn_kv":66.0}},{"type":"Feature","geometry":{"type":"Point","coordinates":[142.6106,42.9459]},"properties":{"name":"\u65e5\u9ad8\u753a\u5909\u96fb\u6240","vm_pu":1.0,"va_deg":-9.78,"vn_kv":187.0}},{"type":"Feature","geometry":{"type":"Point","coordinates":[143.394,43.344]},"properties":{"name":"\u8db3\u5bc4\u753a\u5909\u96fb\u6240_2","vm_pu":1.0,"va_deg":-14.08,"vn_kv":187.0}},{"type":"Feature","geometry":{"type":"Point","coordinates":[143.3512,44.0161]},"properties":{"name":"\u4e38\u702c\u5e03\u897f\u753a\u5909\u96fb\u6240","vm_pu":0.9954,"va_deg":-15.59,"vn_kv":66.0}},{"type":"Feature","geometry":{"type":"Point","coordinates":[143.5487,43.2409]},"properties":{"name":"\u5357\u56db\u6761\u516d\u4e01\u76ee\u5909\u96fb\u6240","vm_pu":0.9988,"va_deg":-14.35,"vn_kv":33.0}},{"type":"Feature","geometry":{"type":"Point","coordinates":[142.3469,43.799]},"properties":{"name":"\u4f4f\u5409\u4e03\u6761\u4e00\u4e01\u76ee\u5909\u96fb\u6240","vm_pu":0.9776,"va_deg":-9.89,"vn_kv":66.0}},{"type":"Feature","geometry":{"type":"Point","coordinates":[142.4752,43.5878]},"properties":{"name":"\u4e2d\u753a\u4e8c\u4e01\u76ee\u5909\u96fb\u6240","vm_pu":0.9973,"va_deg":-12.85,"vn_kv":66.0}},{"type":"Feature","geometry":{"type":"Point","coordinates":[142.4633,43.4659]},"properties":{"name":"\u6cc9\u753a\u4e00\u4e01\u76ee\u5909\u96fb\u6240","vm_pu":1.0,"va_deg":-14.49,"vn_kv":66.0}},{"type":"Feature","geometry":{"type":"Point","coordinates":[142.369,43.3331]},"properties":{"name":"\u5317\u306e\u5cf0\u5909\u96fb\u6240","vm_pu":0.9902,"va_deg":-15.81,"vn_kv":66.0}},{"type":"Feature","geometry":{"type":"Point","coordinates":[142.383,43.3494]},"properties":{"name":"\u5bcc\u826f\u91ce\u5909\u96fb\u6240","vm_pu":0.9916,"va_deg":-15.45,"vn_kv":66.0}},{"type":"Feature","geometry":{"type":"Point","coordinates":[142.3826,43.2564]},"properties":{"name":"\u5c71\u90e8\u5909\u96fb\u6240","vm_pu":0.9882,"va_deg":-17.09,"vn_kv":66.0}},{"type":"Feature","geometry":{"type":"Point","coordinates":[142.0818,43.9238]},"properties":{"name":"\u6df1\u5ddd\u5e02\u5909\u96fb\u6240_2","vm_pu":0.9668,"va_deg":-17.58,"vn_kv":66.0}},{"type":"Feature","geometry":{"type":"Point","coordinates":[141.5278,43.8513]},"properties":{"name":"\u5f01\u5929\u753a\u4e94\u4e01\u76ee\u5909\u96fb\u6240","vm_pu":0.9764,"va_deg":-8.48,"vn_kv":66.0}},{"type":"Feature","geometry":{"type":"Point","coordinates":[141.6503,43.9324]},"properties":{"name":"\u6cc9\u753a\u4e00\u4e01\u76ee\u5909\u96fb\u6240_2","vm_pu":0.9824,"va_deg":-7.95,"vn_kv":66.0}},{"type":"Feature","geometry":{"type":"Point","coordinates":[141.7797,43.0526]},"properties":{"name":"\u6817\u5c71\u5909\u96fb\u6240","vm_pu":0.9965,"va_deg":-3.16,"vn_kv":66.0}},{"type":"Feature","geometry":{"type":"Point","coordinates":[143.1955,42.9973]},"properties":{"name":"\u97f3\u66f4\u5909\u96fb\u6240","vm_pu":0.9679,"va_deg":-15.39,"vn_kv":66.0}},{"type":"Feature","geometry":{"type":"Point","coordinates":[142.8395,43.0785]},"properties":{"name":"\u65b0\u5f97\u5909\u96fb\u6240","vm_pu":0.999,"va_deg":-11.8,"vn_kv":22.0}},{"type":"Feature","geometry":{"type":"Point","coordinates":[142.8948,43.0226]},"properties":{"name":"\u6e05\u6c34\u5909\u96fb\u6240","vm_pu":0.9962,"va_deg":-12.48,"vn_kv":66.0}},{"type":"Feature","geometry":{"type":"Point","coordinates":[143.36,42.9111]},"properties":{"name":"\u5e55\u5225\u5909\u96fb\u6240","vm_pu":0.9836,"va_deg":-13.96,"vn_kv":22.0}},{"type":"Feature","geometry":{"type":"Point","coordinates":[143.4474,42.9396]},"properties":{"name":"\u6c60\u7530\u5909\u96fb\u6240","vm_pu":0.987,"va_deg":-13.67,"vn_kv":66.0}},{"type":"Feature","geometry":{"type":"Point","coordinates":[143.5482,42.8232]},"properties":{"name":"\u8c4a\u9803\u5909\u96fb\u6240","vm_pu":0.9894,"va_deg":-13.21,"vn_kv":66.0}},{"type":"Feature","geometry":{"type":"Point","coordinates":[142.4671,42.8927]},"properties":{"name":"\u53f3\u5de6\u5e9c\u5909\u96fb\u6240","vm_pu":1.0,"va_deg":-3.81,"vn_kv":66.0}},{"type":"Feature","geometry":{"type":"Point","coordinates":[142.4133,42.9747]},"properties":{"name":"\u5360\u51a0\u5909\u96fb\u6240","vm_pu":0.9992,"va_deg":-2.34,"vn_kv":33.0}},{"type":"Feature","geometry":{"type":"Point","coordinates":[143.2545,43.3613]},"properties":{"name":"\u9ed2\u77f3\u5e73\u5909\u96fb\u6240","vm_pu":1.0,"va_deg":-14.06,"vn_kv":187.0}},{"type":"Feature","geometry":{"type":"Point","coordinates":[142.5803,43.6522]},"properties":{"name":"\u6771\u5341\u4e8c\u53f7\u5357\u5909\u96fb\u6240","vm_pu":1.0,"va_deg":-11.49,"vn_kv":66.0}},{"type":"Feature","geometry":{"type":"Point","coordinates":[141.5346,43.1209]},"properties":{"name":"\u5317\u6c5f\u5225\u5909\u96fb\u6240","vm_pu":0.9977,"va_deg":-2.35,"vn_kv":187.0}},{"type":"Feature","geometry":{"type":"Point","coordinates":[142.7066,44.1158]},"properties":{"name":"\u58eb\u5225\u5e02\u5909\u96fb\u6240","vm_pu":0.9626,"va_deg":-18.22,"vn_kv":66.0}},{"type":"Feature","geometry":{"type":"Point","coordinates":[142.7124,44.0414]},"properties":{"name":"\u58eb\u5225\u5e02\u5909\u96fb\u6240_2","vm_pu":0.959,"va_deg":-18.55,"vn_kv":66.0}},{"type":"Feature","geometry":{"type":"Point","coordinates":[142.2003,43.5131]},"properties":{"name":"\u5357\u4e09\u6761\u6771\u4e09\u4e01\u76ee\u5909\u96fb\u6240","vm_pu":1.0,"va_deg":-13.1,"vn_kv":66.0}},{"type":"Feature","geometry":{"type":"Point","coordinates":[142.0772,43.5397]},"properties":{"name":"\u8302\u5c3b\u5909\u96fb\u6240","vm_pu":0.9937,"va_deg":-10.71,"vn_kv":66.0}},{"type":"Feature","geometry":{"type":"Point","coordinates":[142.709,43.8409]},"properties":{"name":"\u5b89\u8db3\u9593\u5909\u96fb\u6240","vm_pu":1.0,"va_deg":-11.32,"vn_kv":110.0}},{"type":"Feature","geometry":{"type":"Point","coordinates":[142.6593,43.8843]},"properties":{"name":"\u611b\u5225\u5909\u96fb\u6240","vm_pu":1.0,"va_deg":-11.26,"vn_kv":110.0}},{"type":"Feature","geometry":{"type":"Point","coordinates":[142.4407,43.1315]},"properties":{"name":"\u5357\u5bcc\u826f\u91ce\u753a\u5909\u96fb\u6240","vm_pu":1.0,"va_deg":-18.33,"vn_kv":66.0}},{"type":"Feature","geometry":{"type":"Point","coordinates":[142.4111,43.2013]},"properties":{"name":"\u5357\u5bcc\u826f\u91ce\u753a\u5909\u96fb\u6240_2","vm_pu":0.9905,"va_deg":-18.06,"vn_kv":66.0}},{"type":"Feature","geometry":{"type":"Point","coordinates":[142.513,43.1556]},"properties":{"name":"\u9e7f\u8d8a\u5909\u96fb\u6240","vm_pu":0.9861,"va_deg":-18.44,"vn_kv":66.0}},{"type":"Feature","geometry":{"type":"Point","coordinates":[142.3715,42.7604]},"properties":{"name":"\u5ca9\u77e5\u5fd7\u5909\u96fb\u6240","vm_pu":1.0,"va_deg":-4.15,"vn_kv":66.0}},{"type":"Feature","geometry":{"type":"Point","coordinates":[141.8001,42.951]},"properties":{"name":"\u4e09\u5ddd\u65ed\u753a\u5909\u96fb\u6240","vm_pu":0.9995,"va_deg":-2.19,"vn_kv":66.0}},{"type":"Feature","geometry":{"type":"Point","coordinates":[142.0091,42.9786]},"properties":{"name":"\u5357\u6e05\u6c34\u6ca2\u56db\u4e01\u76ee\u5909\u96fb\u6240","vm_pu":1.0,"va_deg":-1.51,"vn_kv":187.0}},{"type":"Feature","geometry":{"type":"Point","coordinates":[142.9042,43.1643]},"properties":{"name":"\u5317\u65b0\u5f97\u5909\u96fb\u6240","vm_pu":1.0,"va_deg":-11.67,"vn_kv":275.0}},{"type":"Feature","geometry":{"type":"Point","coordinates":[142.9319,43.7513]},"properties":{"name":"\u4e0a\u5ddd\u753a\u5909\u96fb\u6240_2","vm_pu":1.0,"va_deg":-11.31,"vn_kv":110.0}},{"type":"Feature","geometry":{"type":"Point","coordinates":[141.8907,43.5757]},"properties":{"name":"\u6cc9\u753a\u4e8c\u4e01\u76ee\u5909\u96fb\u6240","vm_pu":0.9937,"va_deg":-6.39,"vn_kv":187.0}},{"type":"Feature","geometry":{"type":"Point","coordinates":[141.9253,43.4842]},"properties":{"name":"\u7802\u5ddd\u5909\u96fb\u6240","vm_pu":0.9954,"va_deg":-8.04,"vn_kv":66.0}},{"type":"Feature","geometry":{"type":"Point","coordinates":[141.9684,43.6988]},"properties":{"name":"\u59b9\u80cc\u725b\u5909\u96fb\u6240","vm_pu":0.9838,"va_deg":-8.43,"vn_kv":66.0}},{"type":"Feature","geometry":{"type":"Point","coordinates":[141.9642,43.0308]},"properties":{"name":"\u5915\u5f35\u5909\u96fb\u6240","vm_pu":0.9964,"va_deg":-2.56,"vn_kv":66.0}},{"type":"Feature","geometry":{"type":"Point","coordinates":[142.0647,43.0177]},"properties":{"name":"\u5915\u5f35\u5e02\u5909\u96fb\u6240","vm_pu":1.0,"va_deg":-1.93,"vn_kv":66.0}},{"type":"Feature","geometry":{"type":"Point","coordinates":[142.0227,43.7138]},"properties":{"name":"\u6587\u5149\u753a\u5909\u96fb\u6240","vm_pu":0.9843,"va_deg":-7.82,"vn_kv":66.0}},{"type":"Feature","geometry":{"type":"Point","coordinates":[142.0216,43.7145]},"properties":{"name":"\u6587\u5149\u753a\u5909\u96fb\u6240_2","vm_pu":0.9843,"va_deg":-7.81,"vn_kv":66.0}},{"type":"Feature","geometry":{"type":"Point","coordinates":[142.0861,43.6961]},"properties":{"name":"\u6df1\u5ddd\u5e02\u5909\u96fb\u6240_3","vm_pu":0.9825,"va_deg":-9.46,"vn_kv":66.0}},{"type":"Feature","geometry":{"type":"Point","coordinates":[141.9187,43.5808]},"properties":{"name":"\u4e8c\u306e\u5742\u753a\u897f\u4e8c\u4e01\u76ee\u5909\u96fb\u6240","vm_pu":0.9923,"va_deg":-7.41,"vn_kv":66.0}},{"type":"Feature","geometry":{"type":"Point","coordinates":[141.9477,43.6173]},"properties":{"name":"\u6c5f\u90e8\u4e59\u753a\u6771\u5341\u4e00\u4e01\u76ee\u5909\u96fb\u6240","vm_pu":0.9871,"va_deg":-7.98,"vn_kv":66.0}},{"type":"Feature","geometry":{"type":"Point","coordinates":[141.8977,43.4562]},"properties":{"name":"\u8c4a\u6cbc\u5909\u96fb\u6240","vm_pu":1.0,"va_deg":-7.39,"vn_kv":66.0}},{"type":"Feature","geometry":{"type":"Point","coordinates":[141.5738,42.9088]},"properties":{"name":"\u6075\u307f\u91ce\u91cc\u7f8e\u4e00\u4e01\u76ee\u5909\u96fb\u6240","vm_pu":0.9979,"va_deg":-1.53,"vn_kv":66.0}},{"type":"Feature","geometry":{"type":"Point","coordinates":[142.5214,43.841]},"properties":{"name":"\u5f53\u9ebb\u5909\u96fb\u6240","vm_pu":0.9962,"va_deg":-11.26,"vn_kv":110.0}},{"type":"Feature","geometry":{"type":"Point","coordinates":[142.4157,43.7537]},"properties":{"name":"\u6771\u5149\u5909\u96fb\u6240","vm_pu":0.9931,"va_deg":-11.09,"vn_kv":110.0}},{"type":"Feature","geometry":{"type":"Point","coordinates":[142.2805,43.8154]},"properties":{"name":"Asahikawa Arashiyama Switching Station","vm_pu":0.9813,"va_deg":-9.38,"vn_kv":187.0}},{"type":"Feature","geometry":{"type":"Point","coordinates":[141.5386,43.1213]},"properties":{"name":"\u6c5f\u5225\u5909\u96fb\u6240","vm_pu":0.9889,"va_deg":-4.46,"vn_kv":66.0}},{"type":"Feature","geometry":{"type":"Point","coordinates":[141.5555,42.8033]},"properties":{"name":"\u5343\u6b73\u5e02\u5909\u96fb\u6240_4","vm_pu":0.9946,"va_deg":0.47,"vn_kv":66.0}},{"type":"Feature","geometry":{"type":"Point","coordinates":[143.2551,43.3607]},"properties":{"name":"\u7ce0\u5e73\u767a\u96fb\u6240","vm_pu":1.0,"va_deg":-14.05,"vn_kv":187.0}},{"type":"Feature","geometry":{"type":"Point","coordinates":[141.6249,43.0611]},"properties":{"name":"\u6669\u7fe0\u5909\u96fb\u6240","vm_pu":1.0,"va_deg":-4.19,"vn_kv":66.0}},{"type":"Feature","geometry":{"type":"Point","coordinates":[144.2171,43.8324]},"properties":{"name":"\u5973\u6e80\u5225\u5909\u96fb\u6240","vm_pu":0.9999,"va_deg":-15.32,"vn_kv":187.0}},{"type":"Feature","geometry":{"type":"Point","coordinates":[145.5777,43.321]},"properties":{"name":"\u897f\u6d5c\u753a\u4e00\u4e01\u76ee\u5909\u96fb\u6240","vm_pu":1.0,"va_deg":-12.4,"vn_kv":66.0}},{"type":"Feature","geometry":{"type":"Point","coordinates":[144.0929,43.2913]},"properties":{"name":"\u963f\u5bd2\u753a\u98fd\u5225\u4e94\u5341\u4e09\u7dda\u5909\u96fb\u6240","vm_pu":0.9866,"va_deg":-15.29,"vn_kv":66.0}},{"type":"Feature","geometry":{"type":"Point","coordinates":[144.1225,43.1028]},"properties":{"name":"\u963f\u5bd2\u753a\u5909\u96fb\u6240","vm_pu":1.0,"va_deg":-13.37,"vn_kv":66.0}},{"type":"Feature","geometry":{"type":"Point","coordinates":[144.112,43.3355]},"properties":{"name":"\u963f\u5bd2\u753a\u30ef\u30c4\u30ab\u30bf\u30f3\u30cd\u30ca\u30a4\u5909\u96fb\u6240","vm_pu":0.9857,"va_deg":-15.57,"vn_kv":66.0}},{"type":"Feature","geometry":{"type":"Point","coordinates":[144.0872,43.4327]},"properties":{"name":"\u963f\u5bd2\u753a\u963f\u5bd2\u6e56\u6e29\u6cc9\u56db\u4e01\u76ee\u5909\u96fb\u6240","vm_pu":0.9886,"va_deg":-15.77,"vn_kv":66.0}},{"type":"Feature","geometry":{"type":"Point","coordinates":[144.0279,43.7101]},"properties":{"name":"\u6d25\u5225\u5909\u96fb\u6240","vm_pu":0.9958,"va_deg":-16.26,"vn_kv":66.0}},{"type":"Feature","geometry":{"type":"Point","coordinates":[143.9384,42.8992]},"properties":{"name":"\u97f3\u5225\u753a\u3042\u3051\u307c\u306e\u4e00\u4e01\u76ee\u5909\u96fb\u6240","vm_pu":1.0,"va_deg":-12.06,"vn_kv":66.0}},{"type":"Feature","geometry":{"type":"Point","coordinates":[143.8582,43.7841]},"properties":{"name":"\u5317\u5149\u5909\u96fb\u6240_2","vm_pu":1.0,"va_deg":-16.29,"vn_kv":66.0}},{"type":"Feature","geometry":{"type":"Point","coordinates":[144.0625,44.1086]},"properties":{"name":"\u5e38\u5442\u5909\u96fb\u6240 (Tokoro Hendensho)","vm_pu":0.9876,"va_deg":-16.94,"vn_kv":66.0}},{"type":"Feature","geometry":{"type":"Point","coordinates":[144.1551,43.0775]},"properties":{"name":"\u5b87\u5186\u5225\u5909\u96fb\u6240","vm_pu":0.9999,"va_deg":-12.87,"vn_kv":187.0}},{"type":"Feature","geometry":{"type":"Point","coordinates":[144.1285,42.9865]},"properties":{"name":"\u5eb6\u8def\u5909\u96fb\u6240 (Shoro Hendensho)","vm_pu":1.0,"va_deg":-12.84,"vn_kv":66.0}},{"type":"Feature","geometry":{"type":"Point","coordinates":[144.2179,43.0037]},"properties":{"name":"\u91e7\u767d\u5909\u96fb\u6240","vm_pu":0.9985,"va_deg":-13.07,"vn_kv":66.0}},{"type":"Feature","geometry":{"type":"Point","coordinates":[145.5942,43.3277]},"properties":{"name":"\u5149\u6d0b\u753a\u4e00\u4e01\u76ee\u5909\u96fb\u6240","vm_pu":1.0,"va_deg":-12.42,"vn_kv":66.0}},{"type":"Feature","geometry":{"type":"Point","coordinates":[144.4659,43.4784]},"properties":{"name":"\u5f1f\u5b50\u5c48\u5909\u96fb\u6240","vm_pu":1.0,"va_deg":-14.71,"vn_kv":66.0}},{"type":"Feature","geometry":{"type":"Point","coordinates":[144.4273,43.0063]},"properties":{"name":"\u5225\u4fdd\u5909\u96fb\u6240","vm_pu":0.9994,"va_deg":-12.98,"vn_kv":66.0}},{"type":"Feature","geometry":{"type":"Point","coordinates":[144.4469,43.0106]},"properties":{"name":"\u6771\u91e7\u8def\u5909\u96fb\u6240 (Higashi-Kushiro Hendensho)","vm_pu":1.0,"va_deg":-13.09,"vn_kv":187.0}},{"type":"Feature","geometry":{"type":"Point","coordinates":[144.811,43.0614]},"properties":{"name":"\u539a\u5cb8\u5909\u96fb\u6240 (Akkeshi Hendensho)","vm_pu":0.9933,"va_deg":-13.87,"vn_kv":66.0}},{"type":"Feature","geometry":{"type":"Point","coordinates":[144.4132,42.9845]},"properties":{"name":"\u91e7\u8def\u5909\u96fb\u6240","vm_pu":1.0,"va_deg":-13.03,"vn_kv":66.0}},{"type":"Feature","geometry":{"type":"Point","coordinates":[144.4089,42.9615]},"properties":{"name":"\u592a\u5e73\u6d0b\u8208\u767a\u5909\u96fb\u6240","vm_pu":1.0,"va_deg":-12.79,"vn_kv":66.0}},{"type":"Feature","geometry":{"type":"Point","coordinates":[144.8,43.4862]},"properties":{"name":"\u8a08\u6839\u5225\u672c\u901a\u897f\u4e94\u4e01\u76ee\u5909\u96fb\u6240","vm_pu":0.9999,"va_deg":-13.68,"vn_kv":66.0}},{"type":"Feature","geometry":{"type":"Point","coordinates":[143.7659,44.0116]},"properties":{"name":"\u4f50\u5442\u9593\u5909\u96fb\u6240 (Saroma Hendensho)","vm_pu":0.9889,"va_deg":-16.96,"vn_kv":66.0}},{"type":"Feature","geometry":{"type":"Point","coordinates":[145.5342,43.2377]},"properties":{"name":"\u6d5c\u677e\u5909\u96fb\u6240","vm_pu":1.0,"va_deg":-12.84,"vn_kv":66.0}},{"type":"Feature","geometry":{"type":"Point","coordinates":[144.1197,43.8123]},"properties":{"name":"\u7a32\u7f8e\u5909\u96fb\u6240","vm_pu":0.997,"va_deg":-15.95,"vn_kv":66.0}},{"type":"Feature","geometry":{"type":"Point","coordinates":[144.1352,43.8279]},"properties":{"name":"\u5831\u5fb3\u5909\u96fb\u6240","vm_pu":0.9983,"va_deg":-15.79,"vn_kv":66.0}},{"type":"Feature","geometry":{"type":"Point","coordinates":[144.9577,43.5433]},"properties":{"name":"\u897f\u5341\u56db\u6761\u5317\u516b\u4e01\u76ee\u5909\u96fb\u6240","vm_pu":1.0,"va_deg":-13.87,"vn_kv":66.0}},{"type":"Feature","geometry":{"type":"Point","coordinates":[145.0811,43.8819]},"properties":{"name":"\u7f85\u81fc\u753a\u5909\u96fb\u6240","vm_pu":0.992,"va_deg":-15.69,"vn_kv":66.0}},{"type":"Feature","geometry":{"type":"Point","coordinates":[143.8733,43.7985]},"properties":{"name":"\u5317\u898b\u5909\u96fb\u6240","vm_pu":0.9992,"va_deg":-16.36,"vn_kv":66.0}},{"type":"Feature","geometry":{"type":"Point","coordinates":[143.9159,43.8153]},"properties":{"name":"\u7530\u7aef\u753a\u5909\u96fb\u6240","vm_pu":1.0,"va_deg":-16.01,"vn_kv":66.0}},{"type":"Feature","geometry":{"type":"Point","coordinates":[143.7587,43.8012]},"properties":{"name":"\u76f8\u5185\u753a\u5909\u96fb\u6240","vm_pu":1.0,"va_deg":-16.0,"vn_kv":66.0}},{"type":"Feature","geometry":{"type":"Point","coordinates":[143.743,43.7324]},"properties":{"name":"\u6771\u5e78\u753a\u5909\u96fb\u6240","vm_pu":0.9983,"va_deg":-16.13,"vn_kv":66.0}},{"type":"Feature","geometry":{"type":"Point","coordinates":[143.7392,43.4713]},"properties":{"name":"\u5927\u901a\u5909\u96fb\u6240","vm_pu":1.0,"va_deg":-15.52,"vn_kv":22.0}},{"type":"Feature","geometry":{"type":"Point","coordinates":[144.2865,43.849]},"properties":{"name":"\u6771\u85fb\u7434\u897f\u5009\u5909\u96fb\u6240","vm_pu":1.0,"va_deg":-15.35,"vn_kv":66.0}},{"type":"Feature","geometry":{"type":"Point","coordinates":[144.3881,42.9904]},"properties":{"name":"\u6a4b\u5317\u5909\u96fb\u6240","vm_pu":0.9984,"va_deg":-13.06,"vn_kv":66.0}},{"type":"Feature","geometry":{"type":"Point","coordinates":[144.3518,43.0153]},"properties":{"name":"\u9ce5\u53d6\u5909\u96fb\u6240","vm_pu":1.0,"va_deg":-12.52,"vn_kv":66.0}},{"type":"Feature","geometry":{"type":"Point","coordinates":[144.3135,43.0116]},"properties":{"name":"\u661f\u304c\u6d66\u5909\u96fb\u6240","vm_pu":1.0,"va_deg":-12.67,"vn_kv":66.0}},{"type":"Feature","geometry":{"type":"Point","coordinates":[144.0445,43.6937]},"properties":{"name":"\u4e0b\u6d25\u5225\u767a\u96fb\u6240","vm_pu":1.0,"va_deg":-16.44,"vn_kv":22.0}},{"type":"Feature","geometry":{"type":"Point","coordinates":[144.8068,43.3969]},"properties":{"name":"\u897f\u6625\u5225\u5909\u96fb\u6240","vm_pu":1.0,"va_deg":-13.23,"vn_kv":187.0}},{"type":"Feature","geometry":{"type":"Point","coordinates":[145.2493,43.2332]},"properties":{"name":"\u539a\u5e8a\u5909\u96fb\u6240","vm_pu":1.0,"va_deg":-13.32,"vn_kv":66.0}},{"type":"Feature","geometry":{"type":"Point","coordinates":[145.131,43.3854]},"properties":{"name":"\u5225\u6d77\u5bff\u753a\u5909\u96fb\u6240","vm_pu":1.0,"va_deg":-13.89,"vn_kv":66.0}},{"type":"Feature","geometry":{"type":"Point","coordinates":[145.127,43.6606]},"properties":{"name":"\u5317\u4e8c\u6761\u897f\u4e09\u4e01\u76ee\u5909\u96fb\u6240","vm_pu":1.0,"va_deg":-14.82,"vn_kv":66.0}},{"type":"Feature","geometry":{"type":"Point","coordinates":[145.0985,43.1575]},"properties":{"name":"\u6d5c\u4e2d\u5909\u96fb\u6240","vm_pu":0.9948,"va_deg":-13.76,"vn_kv":66.0}},{"type":"Feature","geometry":{"type":"Point","coordinates":[145.0366,43.7118]},"properties":{"name":"\u4f0a\u8336\u4ec1\u5909\u96fb\u6240","vm_pu":1.0,"va_deg":-15.01,"vn_kv":66.0}},{"type":"Feature","geometry":{"type":"Point","coordinates":[143.6611,42.8191]},"properties":{"name":"\u6d66\u5e4c\u5909\u96fb\u6240","vm_pu":0.9915,"va_deg":-12.92,"vn_kv":66.0}},{"type":"Feature","geometry":{"type":"Point","coordinates":[144.4374,42.9677]},"properties":{"name":"\u685c\u30f6\u5ca1\u5909\u96fb\u6240","vm_pu":0.9986,"va_deg":-13.2,"vn_kv":66.0}},{"type":"Feature","geometry":{"type":"Point","coordinates":[144.4718,42.9575]},"properties":{"name":"\u91e7\u8def\u5e02\u5909\u96fb\u6240_2","vm_pu":0.9976,"va_deg":-13.27,"vn_kv":66.0}},{"type":"Feature","geometry":{"type":"Point","coordinates":[141.654,44.3062]},"properties":{"name":"\u82eb\u524d\u5909\u96fb\u6240 (Tomamae Hendensho)","vm_pu":0.9541,"va_deg":-16.67,"vn_kv":66.0}},{"type":"Feature","geometry":{"type":"Point","coordinates":[141.6692,44.253]},"properties":{"name":"\u82eb\u524d\u753a\u5909\u96fb\u6240","vm_pu":0.9515,"va_deg":-15.99,"vn_kv":66.0}},{"type":"Feature","geometry":{"type":"Point","coordinates":[141.668,45.3842]},"properties":{"name":"\u7a1a\u5185\u897f\u5909\u96fb\u6240","vm_pu":0.9794,"va_deg":-27.72,"vn_kv":100.0}},{"type":"Feature","geometry":{"type":"Point","coordinates":[141.711,44.361]},"properties":{"name":"\u7fbd\u5e4c\u5909\u96fb\u6240","vm_pu":0.9608,"va_deg":-17.26,"vn_kv":66.0}},{"type":"Feature","geometry":{"type":"Point","coordinates":[141.853,45.0176]},"properties":{"name":"\u5e4c\u5ef6\u5909\u96fb\u6240","vm_pu":0.9645,"va_deg":-26.34,"vn_kv":100.0}},{"type":"Feature","geometry":{"type":"Point","coordinates":[141.7249,45.3869]},"properties":{"name":"\u5bcc\u5ca1\u4e94\u4e01\u76ee\u5909\u96fb\u6240","vm_pu":1.0,"va_deg":-27.72,"vn_kv":100.0}},{"type":"Feature","geometry":{"type":"Point","coordinates":[142.0819,44.8422]},"properties":{"name":"\u4e2d\u5ddd\u5909\u96fb\u6240 (Nakagawa Hendensho)","vm_pu":0.9588,"va_deg":-21.81,"vn_kv":100.0}},{"type":"Feature","geometry":{"type":"Point","coordinates":[141.6805,45.3983]},"properties":{"name":"\u7a1a\u5185\u5909\u96fb\u6240","vm_pu":0.9794,"va_deg":-27.72,"vn_kv":100.0}},{"type":"Feature","geometry":{"type":"Point","coordinates":[142.4701,44.8402]},"properties":{"name":"\u6b4c\u767b\u753a\u5909\u96fb\u6240","vm_pu":0.9416,"va_deg":-24.09,"vn_kv":66.0}},{"type":"Feature","geometry":{"type":"Point","coordinates":[142.5722,44.9262]},"properties":{"name":"\u5317\u6804\u753a\u5909\u96fb\u6240","vm_pu":0.9369,"va_deg":-24.59,"vn_kv":66.0}},{"type":"Feature","geometry":{"type":"Point","coordinates":[143.0564,44.5102]},"properties":{"name":"\u6ca2\u6728\u5909\u96fb\u6240","vm_pu":0.9109,"va_deg":-25.68,"vn_kv":22.0}},{"type":"Feature","geometry":{"type":"Point","coordinates":[143.1116,44.4659]},"properties":{"name":"\u8208\u90e8\u5909\u96fb\u6240","vm_pu":0.9652,"va_deg":-21.1,"vn_kv":22.0}},{"type":"Feature","geometry":{"type":"Point","coordinates":[143.3485,44.3466]},"properties":{"name":"\u7d0b\u5225\u5909\u96fb\u6240","vm_pu":1.0,"va_deg":-18.47,"vn_kv":66.0}},{"type":"Feature","geometry":{"type":"Point","coordinates":[143.2687,44.2442]},"properties":{"name":"\u4e0a\u6e1a\u6ed1\u5909\u96fb\u6240","vm_pu":0.9951,"va_deg":-18.87,"vn_kv":66.0}},{"type":"Feature","geometry":{"type":"Point","coordinates":[143.5989,44.1939]},"properties":{"name":"\u4e2d\u6e67\u5225\u5909\u96fb\u6240","vm_pu":0.9956,"va_deg":-17.58,"vn_kv":66.0}},{"type":"Feature","geometry":{"type":"Point","coordinates":[142.3548,44.4808]},"properties":{"name":"\u7f8e\u6df1\u5909\u96fb\u6240","vm_pu":0.9676,"va_deg":-18.07,"vn_kv":22.0}},{"type":"Feature","geometry":{"type":"Point","coordinates":[142.6242,44.3015]},"properties":{"name":"\u897f\u753a\u5909\u96fb\u6240","vm_pu":1.0,"va_deg":-18.46,"vn_kv":100.0}},{"type":"Feature","geometry":{"type":"Point","coordinates":[142.4564,44.3394]},"properties":{"name":"\u540d\u5bc4\u5909\u96fb\u6240","vm_pu":0.9717,"va_deg":-17.58,"vn_kv":100.0}},{"type":"Feature","geometry":{"type":"Point","coordinates":[142.419,44.3448]},"properties":{"name":"\u897f\u540d\u5bc4\u5909\u96fb\u6240","vm_pu":0.9681,"va_deg":-17.36,"vn_kv":187.0}},{"type":"Feature","geometry":{"type":"Point","coordinates":[142.3912,44.1701]},"properties":{"name":"\u897f\u4e00\u6761\u5341\u4e8c\u4e01\u76ee\u5909\u96fb\u6240","vm_pu":0.9656,"va_deg":-17.77,"vn_kv":100.0}},{"type":"Feature","geometry":{"type":"Point","coordinates":[141.7373,45.2027]},"properties":{"name":"\u82a6\u5ddd\u5909\u96fb\u6240","vm_pu":0.9646,"va_deg":-27.24,"vn_kv":33.0}},{"type":"Feature","geometry":{"type":"Point","coordinates":[142.1977,45.2641]},"properties":{"name":"\u733f\u6255\u5909\u96fb\u6240","vm_pu":0.9309,"va_deg":-25.23,"vn_kv":33.0}},{"type":"Feature","geometry":{"type":"Point","coordinates":[141.7687,45.1147]},"properties":{"name":"\u8c4a\u5bcc\u5909\u96fb\u6240","vm_pu":0.9665,"va_deg":-26.77,"vn_kv":100.0}},{"type":"Feature","geometry":{"type":"Point","coordinates":[142.2984,44.8292]},"properties":{"name":"\u5c0f\u9813\u5225\u5909\u96fb\u6240","vm_pu":0.9442,"va_deg":-23.64,"vn_kv":100.0}},{"type":"Feature","geometry":{"type":"Point","coordinates":[142.3588,45.1214]},"properties":{"name":"\u7dd1\u30b1\u4e18\u4e09\u4e01\u76ee\u5909\u96fb\u6240","vm_pu":0.9396,"va_deg":-24.38,"vn_kv":66.0}},{"type":"Feature","geometry":{"type":"Point","coordinates":[142.0344,44.8312]},"properties":{"name":"\u4e2d\u5ddd\u753a\u5909\u96fb\u6240","vm_pu":0.9613,"va_deg":-20.54,"vn_kv":187.0}},{"type":"Feature","geometry":{"type":"Point","coordinates":[141.7955,45.1961]},"properties":{"name":"Kitatoyotomi Substation","vm_pu":0.961,"va_deg":-20.95,"vn_kv":187.0}},{"type":"Feature","geometry":{"type":"Point","coordinates":[141.7532,45.2523]},"properties":{"name":"\u958b\u6e90\u958b\u9589\u6240","vm_pu":0.9602,"va_deg":-21.07,"vn_kv":100.0}},{"type":"Feature","geometry":{"type":"Point","coordinates":[141.805,45.349]},"properties":{"name":"Wakkanai Keihoku Substation","vm_pu":0.9609,"va_deg":-20.99,"vn_kv":187.0}},{"type":"Feature","geometry":{"type":"Point","coordinates":[142.4129,45.1132]},"properties":{"name":"\u6d5c\u9813\u5225\u753a\u5909\u96fb\u6240","vm_pu":0.9386,"va_deg":-24.48,"vn_kv":66.0}},{"type":"Feature","geometry":{"type":"Point","coordinates":[141.9028,45.26]},"properties":{"name":"\u66f2\u6e15\u5909\u96fb\u6240","vm_pu":0.9393,"va_deg":-29.49,"vn_kv":33.0}},{"type":"Feature","geometry":{"type":"Point","coordinates":[142.2772,44.6953]},"properties":{"name":"\u54b2\u6765\u5909\u96fb\u6240","vm_pu":0.9657,"va_deg":-18.96,"vn_kv":100.0}},{"type":"Feature","geometry":{"type":"Point","coordinates":[142.1805,44.3007]},"properties":{"name":"\u5e4c\u52a0\u5185\u753a\u5909\u96fb\u6240","vm_pu":0.9653,"va_deg":-17.81,"vn_kv":66.0}},{"type":"Feature","geometry":{"type":"Point","coordinates":[142.1805,44.3006]},"properties":{"name":"\u5e4c\u52a0\u5185\u753a\u5909\u96fb\u6240_2","vm_pu":0.9654,"va_deg":-17.79,"vn_kv":66.0}},{"type":"Feature","geometry":{"type":"Point","coordinates":[141.7211,45.3696]},"properties":{"name":"\u58f0\u554f\u958b\u9589\u6240","vm_pu":0.9806,"va_deg":-27.54,"vn_kv":33.0}},{"type":"Feature","geometry":{"type":"Point","coordinates":[141.7527,44.8838]},"properties":{"name":"\u5929\u5869\u5909\u96fb\u6240","vm_pu":0.9613,"va_deg":-26.8,"vn_kv":33.0}},{"type":"Feature","geometry":{"type":"Point","coordinates":[141.8033,44.7248]},"properties":{"name":"\u8981\u7167\u4f1a","vm_pu":0.9291,"va_deg":-29.69,"vn_kv":33.0}},{"type":"Feature","geometry":{"type":"Point","coordinates":[142.8707,44.342]},"properties":{"name":"\u4e0a\u8208\u90e8\u5909\u96fb\u6240","vm_pu":0.9951,"va_deg":-19.06,"vn_kv":22.0}},{"type":"Feature","geometry":{"type":"Point","coordinates":[142.9525,44.3288]},"properties":{"name":"\u4e2d\u85fb\u5909\u96fb\u6240","vm_pu":0.9404,"va_deg":-23.2,"vn_kv":22.0}},{"type":"Feature","geometry":{"type":"Point","coordinates":[143.08,44.1948]},"properties":{"name":"\u6edd\u306e\u4e0a\u5909\u96fb\u6240","vm_pu":0.85,"va_deg":-31.53,"vn_kv":22.0}},{"type":"Feature","geometry":{"type":"Point","coordinates":[142.9598,44.5801]},"properties":{"name":"\u96c4\u6b66\u5909\u96fb\u6240","vm_pu":0.8679,"va_deg":-29.87,"vn_kv":22.0}}]}