{"type":"FeatureCollection","features":[{"type":"Feature","geometry":{"type":"Point","coordinates":[137.04,36.6547]},"properties":{"name":"\u5897\u5c71\u5909\u96fb\u6240","vm_pu":1.0,"va_deg":-2.08,"vn_kv":77.0}},{"type":"Feature","geometry":{"type":"Point","coordinates":[136.2235,36.0752]},"properties":{"name":"\u897f\u5225\u9662\u5909\u96fb\u6240","vm_pu":1.0,"va_deg":-0.35,"vn_kv":77.0}},{"type":"Feature","geometry":{"type":"Point","coordinates":[137.8506,36.6878]},"properties":{"name":"\u767d\u99ac\u6751\u5909\u96fb\u6240","vm_pu":1.0,"va_deg":-0.25,"vn_kv":275.0}},{"type":"Feature","geometry":{"type":"Point","coordinates":[136.8391,36.9957]},"properties":{"name":"\u4e2d\u80fd\u767b\u5909\u96fb\u6240","vm_pu":1.0,"va_deg":0.54,"vn_kv":500.0}},{"type":"Feature","geometry":{"type":"Point","coordinates":[136.8253,36.4994]},"properties":{"name":"\u5357\u798f\u5149\u9023\u7cfb\u6240","vm_pu":1.0,"va_deg":0.22,"vn_kv":500.0}},{"type":"Feature","geometry":{"type":"Point","coordinates":[136.7253,36.5017]},"properties":{"name":"\u52a0\u8cc0\u5909\u96fb\u6240","vm_pu":1.0,"va_deg":0.22,"vn_kv":500.0}},{"type":"Feature","geometry":{"type":"Point","coordinates":[136.2842,36.0904]},"properties":{"name":"\u677e\u5ca1","vm_pu":1.0,"va_deg":0.06,"vn_kv":154.0}},{"type":"Feature","geometry":{"type":"Point","coordinates":[136.6589,36.5838]},"properties":{"name":"\u6d45\u91ce\u753a\u5909\u96fb\u6240","vm_pu":1.0,"va_deg":-1.51,"vn_kv":77.0}},{"type":"Feature","geometry":{"type":"Point","coordinates":[137.2049,35.7339]},"properties":{"name":"\u4e09\u30c4\u6e15\u5909\u96fb\u6240","vm_pu":1.0,"va_deg":0.17,"vn_kv":154.0}},{"type":"Feature","geometry":{"type":"Point","coordinates":[137.4912,36.0356]},"properties":{"name":"\u9ad8\u6839\u753a\u4e0a\u30b1\u6d1e\u5909\u96fb\u6240","vm_pu":1.0,"va_deg":0.1,"vn_kv":275.0}},{"type":"Feature","geometry":{"type":"Point","coordinates":[136.8604,35.8564]},"properties":{"name":"\u767d\u9ce5\u753a\u5927\u5cf6\u5909\u96fb\u6240","vm_pu":1.0,"va_deg":0.29,"vn_kv":275.0}},{"type":"Feature","geometry":{"type":"Point","coordinates":[137.2625,35.9489]},"properties":{"name":"\u5c0f\u5742\u753a\u5c0f\u5742\u753a\u5909\u96fb\u6240","vm_pu":1.0,"va_deg":0.02,"vn_kv":154.0}},{"type":"Feature","geometry":{"type":"Point","coordinates":[137.5987,35.8588]},"properties":{"name":"\u4e09\u5cb3\u5909\u96fb\u6240","vm_pu":1.0,"va_deg":-0.31,"vn_kv":154.0}},{"type":"Feature","geometry":{"type":"Point","coordinates":[136.7169,36.501]},"properties":{"name":"\u52a0\u8cc0\u5909\u96fb\u6240","vm_pu":1.0,"va_deg":0.21,"vn_kv":500.0}},{"type":"Feature","geometry":{"type":"Point","coordinates":[136.8616,36.5602]},"properties":{"name":"\u4e2d\u30ce\u6c5f\u5909\u96fb\u6240","vm_pu":1.0,"va_deg":-0.26,"vn_kv":154.0}},{"type":"Feature","geometry":{"type":"Point","coordinates":[136.8982,36.5115]},"properties":{"name":"\u57ce\u7aef\u5909\u96fb\u6240","vm_pu":1.0,"va_deg":-0.8,"vn_kv":77.0}},{"type":"Feature","geometry":{"type":"Point","coordinates":[136.6078,36.4905]},"properties":{"name":"\u5357\u91d1\u6ca2\u5909\u96fb\u6240","vm_pu":1.0,"va_deg":-1.37,"vn_kv":154.0}},{"type":"Feature","geometry":{"type":"Point","coordinates":[136.9557,36.6368]},"properties":{"name":"\u5c71\u738b\u753a\u5909\u96fb\u6240","vm_pu":1.0,"va_deg":-0.58,"vn_kv":66.0}},{"type":"Feature","geometry":{"type":"Point","coordinates":[136.9045,36.9661]},"properties":{"name":"\u6700\u52dd\u8b1b\u5909\u96fb\u6240","vm_pu":1.0,"va_deg":0.25,"vn_kv":154.0}},{"type":"Feature","geometry":{"type":"Point","coordinates":[136.2936,36.1413]},"properties":{"name":"\u4e38\u5ca1\u753a\u821b\u7530\u5909\u96fb\u6240","vm_pu":1.0,"va_deg":0.09,"vn_kv":275.0}},{"type":"Feature","geometry":{"type":"Point","coordinates":[136.2869,36.2067]},"properties":{"name":"\u4e0a\u91ce\u5909\u96fb\u6240","vm_pu":1.0,"va_deg":0.06,"vn_kv":275.0}},{"type":"Feature","geometry":{"type":"Point","coordinates":[136.416,35.9954]},"properties":{"name":"\u8d8a\u524d\u5909\u96fb\u6240","vm_pu":1.0,"va_deg":0.27,"vn_kv":500.0}},{"type":"Feature","geometry":{"type":"Point","coordinates":[136.1755,36.1211]},"properties":{"name":"\u5929\u83c5\u751f\u753a\u5909\u96fb\u6240","vm_pu":1.0,"va_deg":0.33,"vn_kv":154.0}},{"type":"Feature","geometry":{"type":"Point","coordinates":[136.1364,36.2098]},"properties":{"name":"\u4e09\u56fd\u753a\u65b0\u4fdd\u5909\u96fb\u6240","vm_pu":1.0,"va_deg":0.85,"vn_kv":154.0}},{"type":"Feature","geometry":{"type":"Point","coordinates":[137.8843,36.1388]},"properties":{"name":"\u65b0\u4fe1\u6fc3\u5909\u96fb\u6240","vm_pu":1.0,"va_deg":0.0,"vn_kv":500.0}},{"type":"Feature","geometry":{"type":"Point","coordinates":[136.9154,36.4959]},"properties":{"name":"\u57ce\u7aef\u958b\u9589\u6240","vm_pu":1.0,"va_deg":0.39,"vn_kv":275.0}},{"type":"Feature","geometry":{"type":"Point","coordinates":[136.239,36.0859]},"properties":{"name":"\u958b\u767a\u5909\u96fb\u6240","vm_pu":1.0,"va_deg":-0.46,"vn_kv":77.0}},{"type":"Feature","geometry":{"type":"Point","coordinates":[136.1853,36.0469]},"properties":{"name":"\u5357\u798f\u4e95\u5909\u96fb\u6240","vm_pu":1.0,"va_deg":-0.3,"vn_kv":77.0}},{"type":"Feature","geometry":{"type":"Point","coordinates":[136.2287,36.1206]},"properties":{"name":"\u6625\u6c5f\u753a\u70ba\u56fd\u5e78\u5909\u96fb\u6240","vm_pu":1.0,"va_deg":-0.16,"vn_kv":77.0}},{"type":"Feature","geometry":{"type":"Point","coordinates":[136.6412,36.5566]},"properties":{"name":"\u5897\u6cc9\u4e00\u4e01\u76ee\u5909\u96fb\u6240","vm_pu":1.0,"va_deg":-1.92,"vn_kv":77.0}},{"type":"Feature","geometry":{"type":"Point","coordinates":[136.4636,36.4524]},"properties":{"name":"\u5927\u6210\u753a\u5909\u96fb\u6240","vm_pu":1.0,"va_deg":-2.62,"vn_kv":66.0}},{"type":"Feature","geometry":{"type":"Point","coordinates":[136.8799,36.9697]},"properties":{"name":"\u91d1\u4e38\u5909\u96fb\u6240","vm_pu":1.0,"va_deg":0.29,"vn_kv":66.0}},{"type":"Feature","geometry":{"type":"Point","coordinates":[136.5552,36.5194]},"properties":{"name":"\u677e\u4efb\u5909\u96fb\u6240","vm_pu":1.0,"va_deg":-2.02,"vn_kv":77.0}},{"type":"Feature","geometry":{"type":"Point","coordinates":[136.5126,36.4463]},"properties":{"name":"\u79cb\u5e38\u753a\u5909\u96fb\u6240","vm_pu":1.0,"va_deg":-2.36,"vn_kv":66.0}},{"type":"Feature","geometry":{"type":"Point","coordinates":[136.5534,36.4689]},"properties":{"name":"\u5ddd\u5317\u5909\u96fb\u6240","vm_pu":1.0,"va_deg":-1.9,"vn_kv":77.0}},{"type":"Feature","geometry":{"type":"Point","coordinates":[136.6246,36.4459]},"properties":{"name":"\u9db4\u6765\u5909\u96fb\u6240","vm_pu":1.0,"va_deg":-1.54,"vn_kv":77.0}},{"type":"Feature","geometry":{"type":"Point","coordinates":[136.6287,36.5795]},"properties":{"name":"\u5317\u91d1\u6ca2\u5909\u96fb\u6240","vm_pu":1.0,"va_deg":-1.74,"vn_kv":154.0}},{"type":"Feature","geometry":{"type":"Point","coordinates":[136.2404,36.2087]},"properties":{"name":"\u91d1\u6d25\u5909\u96fb\u6240","vm_pu":1.0,"va_deg":-0.72,"vn_kv":77.0}},{"type":"Feature","geometry":{"type":"Point","coordinates":[136.4098,36.3238]},"properties":{"name":"\u7bb1\u5bae\u753a\u5909\u96fb\u6240","vm_pu":1.0,"va_deg":-1.28,"vn_kv":154.0}},{"type":"Feature","geometry":{"type":"Point","coordinates":[136.4416,36.4205]},"properties":{"name":"\u5b89\u5b85\u5909\u96fb\u6240","vm_pu":1.0,"va_deg":-2.4,"vn_kv":77.0}},{"type":"Feature","geometry":{"type":"Point","coordinates":[136.7246,36.6838]},"properties":{"name":"\u821f\u6a4b\u5909\u96fb\u6240","vm_pu":1.0,"va_deg":-1.5,"vn_kv":77.0}},{"type":"Feature","geometry":{"type":"Point","coordinates":[136.324,36.3001]},"properties":{"name":"\u5357\u90f7\u753a\u5909\u96fb\u6240","vm_pu":1.0,"va_deg":-0.81,"vn_kv":66.0}},{"type":"Feature","geometry":{"type":"Point","coordinates":[136.6248,36.5437]},"properties":{"name":"\u897f\u91d1\u6ca2\u5909\u96fb\u6240","vm_pu":1.0,"va_deg":-2.14,"vn_kv":77.0}},{"type":"Feature","geometry":{"type":"Point","coordinates":[136.5071,36.405]},"properties":{"name":"\u8352\u6728\u7530\u753a\u5909\u96fb\u6240","vm_pu":1.0,"va_deg":-2.28,"vn_kv":66.0}},{"type":"Feature","geometry":{"type":"Point","coordinates":[136.718,36.6501]},"properties":{"name":"\u592a\u7530\u5909\u96fb\u6240","vm_pu":1.0,"va_deg":-1.68,"vn_kv":77.0}},{"type":"Feature","geometry":{"type":"Point","coordinates":[136.4544,36.3987]},"properties":{"name":"\u5c0f\u677e\u5909\u96fb\u6240","vm_pu":1.0,"va_deg":-2.08,"vn_kv":77.0}},{"type":"Feature","geometry":{"type":"Point","coordinates":[136.4786,36.3816]},"properties":{"name":"\u65b0\u5c0f\u677e\u5909\u96fb\u6240","vm_pu":1.0,"va_deg":-1.58,"vn_kv":154.0}},{"type":"Feature","geometry":{"type":"Point","coordinates":[136.1624,36.2085]},"properties":{"name":"\u4e09\u56fd\u753a\u4e09\u56fd\u6771\u56db\u4e01\u76ee\u5909\u96fb\u6240","vm_pu":1.0,"va_deg":-0.78,"vn_kv":66.0}},{"type":"Feature","geometry":{"type":"Point","coordinates":[136.3667,36.3305]},"properties":{"name":"\u7247\u5c71\u6d25\u753a\u5909\u96fb\u6240","vm_pu":1.0,"va_deg":-1.38,"vn_kv":66.0}},{"type":"Feature","geometry":{"type":"Point","coordinates":[137.8866,36.3371]},"properties":{"name":"\u7a42\u9ad8\u5909\u96fb\u6240","vm_pu":1.0,"va_deg":-0.95,"vn_kv":77.0}},{"type":"Feature","geometry":{"type":"Point","coordinates":[136.1921,35.9294]},"properties":{"name":"\u9ad8\u6728\u753a\u5909\u96fb\u6240","vm_pu":1.0,"va_deg":0.24,"vn_kv":154.0}},{"type":"Feature","geometry":{"type":"Point","coordinates":[136.1937,35.9459]},"properties":{"name":"\u9bd6\u6c5f\u5909\u96fb\u6240","vm_pu":1.0,"va_deg":-0.14,"vn_kv":66.0}},{"type":"Feature","geometry":{"type":"Point","coordinates":[137.857,36.3229]},"properties":{"name":"\u5b89\u66c7\u91ce\u5e02\u5909\u96fb\u6240_2","vm_pu":1.0,"va_deg":-0.54,"vn_kv":154.0}},{"type":"Feature","geometry":{"type":"Point","coordinates":[137.5543,36.856]},"properties":{"name":"\u65b0\u611b\u672c\u5909\u96fb\u6240","vm_pu":1.0,"va_deg":-0.58,"vn_kv":275.0}},{"type":"Feature","geometry":{"type":"Point","coordinates":[137.4265,36.8329]},"properties":{"name":"\u7acb\u77f3\u5909\u96fb\u6240","vm_pu":1.0,"va_deg":-1.0,"vn_kv":154.0}},{"type":"Feature","geometry":{"type":"Point","coordinates":[137.1815,36.7237]},"properties":{"name":"\u5bcc\u5c71\u5909\u96fb\u6240","vm_pu":1.0,"va_deg":-0.08,"vn_kv":154.0}},{"type":"Feature","geometry":{"type":"Point","coordinates":[137.4382,36.8633]},"properties":{"name":"\u4e2d\u91ce\u5909\u96fb\u6240","vm_pu":1.0,"va_deg":-1.72,"vn_kv":66.0}},{"type":"Feature","geometry":{"type":"Point","coordinates":[137.783,36.515]},"properties":{"name":"\u5927\u753a\u5e02\u5909\u96fb\u6240","vm_pu":1.0,"va_deg":-0.01,"vn_kv":154.0}},{"type":"Feature","geometry":{"type":"Point","coordinates":[137.8553,36.4892]},"properties":{"name":"\u5927\u753a\u5e02\u5909\u96fb\u6240_2","vm_pu":1.0,"va_deg":-0.25,"vn_kv":154.0}},{"type":"Feature","geometry":{"type":"Point","coordinates":[137.8725,37.0418]},"properties":{"name":"\u7cf8\u9b5a\u5ddd\u5909\u96fb\u6240","vm_pu":1.0,"va_deg":2.94,"vn_kv":66.0}},{"type":"Feature","geometry":{"type":"Point","coordinates":[137.2231,36.6407]},"properties":{"name":"\u5bcc\u5357\u5909\u96fb\u6240","vm_pu":1.0,"va_deg":-0.6,"vn_kv":154.0}},{"type":"Feature","geometry":{"type":"Point","coordinates":[137.4142,36.7513]},"properties":{"name":"\u5927\u6d66\u5909\u96fb\u6240","vm_pu":1.0,"va_deg":-0.6,"vn_kv":275.0}},{"type":"Feature","geometry":{"type":"Point","coordinates":[137.2075,36.5607]},"properties":{"name":"\u6625\u65e5\u5909\u96fb\u6240","vm_pu":1.0,"va_deg":-0.45,"vn_kv":154.0}},{"type":"Feature","geometry":{"type":"Point","coordinates":[137.3152,36.7105]},"properties":{"name":"\u821f\u6a4b\u5909\u96fb\u6240 (Funahashi Hendensho)","vm_pu":1.0,"va_deg":-0.78,"vn_kv":154.0}},{"type":"Feature","geometry":{"type":"Point","coordinates":[137.8992,36.2052]},"properties":{"name":"\u677e\u672c\u5e02\u5909\u96fb\u6240","vm_pu":1.0,"va_deg":-1.54,"vn_kv":77.0}},{"type":"Feature","geometry":{"type":"Point","coordinates":[137.8569,36.2135]},"properties":{"name":"\u677e\u672c\u5e02\u5909\u96fb\u6240_2","vm_pu":1.0,"va_deg":-1.76,"vn_kv":77.0}},{"type":"Feature","geometry":{"type":"Point","coordinates":[137.1629,36.6668]},"properties":{"name":"\u5a66\u4e2d\u5909\u96fb\u6240","vm_pu":1.0,"va_deg":-0.82,"vn_kv":66.0}},{"type":"Feature","geometry":{"type":"Point","coordinates":[137.1355,36.5982]},"properties":{"name":"\u516b\u5c3e\u753a\u798f\u5cf6\u4e03\u4e01\u76ee\u5909\u96fb\u6240","vm_pu":1.0,"va_deg":-0.26,"vn_kv":66.0}},{"type":"Feature","geometry":{"type":"Point","coordinates":[137.2228,36.5544]},"properties":{"name":"\u725b\u30b1\u5897\u5909\u96fb\u6240","vm_pu":1.0,"va_deg":-0.35,"vn_kv":66.0}},{"type":"Feature","geometry":{"type":"Point","coordinates":[137.2443,36.1758]},"properties":{"name":"\u65ed\u30b1\u4e18\u753a\u5909\u96fb\u6240","vm_pu":1.0,"va_deg":0.15,"vn_kv":154.0}},{"type":"Feature","geometry":{"type":"Point","coordinates":[136.9096,36.1406]},"properties":{"name":"\u767d\u5ddd\u6751\u5909\u96fb\u6240","vm_pu":1.0,"va_deg":0.35,"vn_kv":275.0}},{"type":"Feature","geometry":{"type":"Point","coordinates":[137.7928,36.1811]},"properties":{"name":"\u7adc\u5cf6\u5909\u96fb\u6240","vm_pu":1.0,"va_deg":0.4,"vn_kv":275.0}},{"type":"Feature","geometry":{"type":"Point","coordinates":[137.6462,36.1712]},"properties":{"name":"\u677e\u672c\u5e02\u5909\u96fb\u6240_3","vm_pu":1.0,"va_deg":0.51,"vn_kv":154.0}},{"type":"Feature","geometry":{"type":"Point","coordinates":[137.8645,36.4996]},"properties":{"name":"\u5927\u753a\u5e02\u5909\u96fb\u6240_3","vm_pu":1.0,"va_deg":-0.15,"vn_kv":77.0}},{"type":"Feature","geometry":{"type":"Point","coordinates":[137.8609,36.4928]},"properties":{"name":"\u5927\u753a\u5e02\u5909\u96fb\u6240_4","vm_pu":1.0,"va_deg":-0.06,"vn_kv":77.0}},{"type":"Feature","geometry":{"type":"Point","coordinates":[137.8295,36.4792]},"properties":{"name":"\u5927\u753a\u5e02\u5909\u96fb\u6240_5","vm_pu":1.0,"va_deg":-0.25,"vn_kv":154.0}},{"type":"Feature","geometry":{"type":"Point","coordinates":[137.8602,36.4723]},"properties":{"name":"\u5927\u753a\u5e02\u5909\u96fb\u6240_6","vm_pu":1.0,"va_deg":-0.29,"vn_kv":77.0}},{"type":"Feature","geometry":{"type":"Point","coordinates":[137.849,36.4591]},"properties":{"name":"\u5927\u753a\u5e02\u5909\u96fb\u6240_7","vm_pu":1.0,"va_deg":-0.39,"vn_kv":77.0}},{"type":"Feature","geometry":{"type":"Point","coordinates":[137.8443,36.433]},"properties":{"name":"\u677e\u5ddd\u6751\u5909\u96fb\u6240","vm_pu":1.0,"va_deg":-0.87,"vn_kv":77.0}},{"type":"Feature","geometry":{"type":"Point","coordinates":[137.8863,36.4161]},"properties":{"name":"\u6c60\u7530\u5909\u96fb\u6240","vm_pu":1.0,"va_deg":-0.42,"vn_kv":77.0}},{"type":"Feature","geometry":{"type":"Point","coordinates":[137.8815,36.3401]},"properties":{"name":"\u5b89\u66c7\u91ce\u5e02\u5909\u96fb\u6240_3","vm_pu":1.0,"va_deg":-1.01,"vn_kv":77.0}},{"type":"Feature","geometry":{"type":"Point","coordinates":[137.0814,36.698]},"properties":{"name":"\u65b0\u5bcc\u5c71\u5909\u96fb\u6240","vm_pu":1.0,"va_deg":0.34,"vn_kv":275.0}},{"type":"Feature","geometry":{"type":"Point","coordinates":[137.8151,37.0244]},"properties":{"name":"\u7cf8\u9b5a\u5ddd\u5e02\u5909\u96fb\u6240","vm_pu":1.0,"va_deg":2.76,"vn_kv":66.0}},{"type":"Feature","geometry":{"type":"Point","coordinates":[137.816,37.0254]},"properties":{"name":"\u7cf8\u9b5a\u5ddd\u5e02\u5909\u96fb\u6240_2","vm_pu":1.0,"va_deg":1.5,"vn_kv":77.0}},{"type":"Feature","geometry":{"type":"Point","coordinates":[137.5571,36.8462]},"properties":{"name":"\u5185\u5c71\u5909\u96fb\u6240","vm_pu":1.0,"va_deg":-0.64,"vn_kv":1.5}},{"type":"Feature","geometry":{"type":"Point","coordinates":[137.4115,36.8374]},"properties":{"name":"\u4ecf\u53c8\u5909\u96fb\u6240","vm_pu":1.0,"va_deg":-1.33,"vn_kv":1.5}},{"type":"Feature","geometry":{"type":"Point","coordinates":[137.0795,36.7807]},"properties":{"name":"\u4e09\u65e5\u66fd\u6839\u5909\u96fb\u6240","vm_pu":1.0,"va_deg":0.02,"vn_kv":154.0}},{"type":"Feature","geometry":{"type":"Point","coordinates":[137.0532,36.7748]},"properties":{"name":"\u4f0f\u6728\u5909\u96fb\u6240","vm_pu":1.0,"va_deg":0.04,"vn_kv":154.0}},{"type":"Feature","geometry":{"type":"Point","coordinates":[137.0391,36.7735]},"properties":{"name":"\u4e07\u8449\u7dda\u682a\u5f0f\u4f1a\u793e \u7c73\u5cf6\u5909\u96fb\u6240","vm_pu":1.0,"va_deg":0.03,"vn_kv":154.0}},{"type":"Feature","geometry":{"type":"Point","coordinates":[137.0247,36.7413]},"properties":{"name":"\u5927\u91ce\u5909\u96fb\u6240","vm_pu":1.0,"va_deg":-0.57,"vn_kv":66.0}},{"type":"Feature","geometry":{"type":"Point","coordinates":[137.03,36.7403]},"properties":{"name":"\u57ce\u6771\u4e8c\u4e01\u76ee\u5909\u96fb\u6240","vm_pu":1.0,"va_deg":-0.43,"vn_kv":66.0}},{"type":"Feature","geometry":{"type":"Point","coordinates":[137.1751,36.7199]},"properties":{"name":"\u5449\u7fbd\u5909\u96fb\u6240","vm_pu":1.0,"va_deg":-0.32,"vn_kv":66.0}},{"type":"Feature","geometry":{"type":"Point","coordinates":[137.2309,36.7376]},"properties":{"name":"\u72ac\u5cf6\u56db\u4e01\u76ee\u5909\u96fb\u6240","vm_pu":1.0,"va_deg":-1.03,"vn_kv":66.0}},{"type":"Feature","geometry":{"type":"Point","coordinates":[137.2323,36.6967]},"properties":{"name":"\u7a32\u8377\u753a\u4e09\u4e01\u76ee\u5909\u96fb\u6240","vm_pu":1.0,"va_deg":-327.26,"vn_kv":1.5}},{"type":"Feature","geometry":{"type":"Point","coordinates":[137.2121,36.5668]},"properties":{"name":"\u5317\u7b39\u6d25\u5909\u96fb\u6240","vm_pu":1.0,"va_deg":-0.44,"vn_kv":154.0}},{"type":"Feature","geometry":{"type":"Point","coordinates":[136.8706,36.6782]},"properties":{"name":"\u65b0\u5bcc\u753a\u5909\u96fb\u6240","vm_pu":1.0,"va_deg":-0.68,"vn_kv":66.0}},{"type":"Feature","geometry":{"type":"Point","coordinates":[137.2577,36.7165]},"properties":{"name":"\u9db4\u30f6\u4e18\u753a\u5909\u96fb\u6240","vm_pu":1.0,"va_deg":-1.36,"vn_kv":66.0}},{"type":"Feature","geometry":{"type":"Point","coordinates":[137.0762,36.7458]},"properties":{"name":"\u585a\u539f\u5909\u96fb\u6240","vm_pu":1.0,"va_deg":0.2,"vn_kv":154.0}},{"type":"Feature","geometry":{"type":"Point","coordinates":[137.5617,36.9452]},"properties":{"name":"\u9053\u4e0b\u5909\u96fb\u6240","vm_pu":1.0,"va_deg":-6.08,"vn_kv":66.0}},{"type":"Feature","geometry":{"type":"Point","coordinates":[136.8931,37.2406]},"properties":{"name":"\u4e0a\u91ce\u5909\u96fb\u6240_2","vm_pu":1.0,"va_deg":-0.32,"vn_kv":154.0}},{"type":"Feature","geometry":{"type":"Point","coordinates":[137.5363,36.8965]},"properties":{"name":"\u4e0b\u5c71\u5909\u96fb\u6240","vm_pu":1.0,"va_deg":-4.43,"vn_kv":66.0}},{"type":"Feature","geometry":{"type":"Point","coordinates":[137.5036,36.9436]},"properties":{"name":"\u541b\u5cf6\u5909\u96fb\u6240","vm_pu":1.0,"va_deg":-5.09,"vn_kv":66.0}},{"type":"Feature","geometry":{"type":"Point","coordinates":[136.9106,37.2315]},"properties":{"name":"\u5317\u9678\u96fb\u529b\u7a74\u6c34\u5909\u96fb\u6240","vm_pu":1.0,"va_deg":-1.38,"vn_kv":66.0}},{"type":"Feature","geometry":{"type":"Point","coordinates":[137.6323,36.9784]},"properties":{"name":"\u5883\u5909\u96fb\u6240","vm_pu":1.0,"va_deg":-7.78,"vn_kv":66.0}},{"type":"Feature","geometry":{"type":"Point","coordinates":[137.6349,36.9777]},"properties":{"name":"\u671d\u65e5\u753a\u5909\u96fb\u6240","vm_pu":1.0,"va_deg":-7.75,"vn_kv":66.0}},{"type":"Feature","geometry":{"type":"Point","coordinates":[137.6352,36.977]},"properties":{"name":"\u671d\u65e5\u753a\u5909\u96fb\u6240_2","vm_pu":1.0,"va_deg":0.84,"vn_kv":66.0}},{"type":"Feature","geometry":{"type":"Point","coordinates":[137.592,36.8021]},"properties":{"name":"\u9ed2\u90e8\u5e02\u5909\u96fb\u6240_2","vm_pu":1.0,"va_deg":-0.5,"vn_kv":275.0}},{"type":"Feature","geometry":{"type":"Point","coordinates":[137.3658,36.5626]},"properties":{"name":"\u6c34\u9808\u5909\u96fb\u6240","vm_pu":1.0,"va_deg":-0.46,"vn_kv":154.0}},{"type":"Feature","geometry":{"type":"Point","coordinates":[136.1731,35.8095]},"properties":{"name":"\u5965\u91ce\u3005\u5909\u96fb\u6240","vm_pu":1.0,"va_deg":0.59,"vn_kv":275.0}},{"type":"Feature","geometry":{"type":"Point","coordinates":[137.2067,36.5689]},"properties":{"name":"\u897f\u5927\u6ca2\u5909\u96fb\u6240","vm_pu":1.0,"va_deg":-0.95,"vn_kv":66.0}},{"type":"Feature","geometry":{"type":"Point","coordinates":[137.2025,36.5782]},"properties":{"name":"\u9ad8\u5185\u5909\u96fb\u6240","vm_pu":1.0,"va_deg":-1.02,"vn_kv":66.0}},{"type":"Feature","geometry":{"type":"Point","coordinates":[137.2027,36.5757]},"properties":{"name":"\u9ad8\u5185\u5909\u96fb\u6240_2","vm_pu":1.0,"va_deg":-1.03,"vn_kv":66.0}},{"type":"Feature","geometry":{"type":"Point","coordinates":[137.8407,37.0247]},"properties":{"name":"\u5927\u5b57\u9808\u6ca2\u5909\u96fb\u6240","vm_pu":1.0,"va_deg":3.09,"vn_kv":66.0}},{"type":"Feature","geometry":{"type":"Point","coordinates":[137.1269,36.766]},"properties":{"name":"\u5c04\u6c34\u5e02\u5909\u96fb\u6240","vm_pu":1.0,"va_deg":1.92,"vn_kv":154.0}},{"type":"Feature","geometry":{"type":"Point","coordinates":[137.2143,36.7562]},"properties":{"name":"\u8349\u5cf6\u5909\u96fb\u6240","vm_pu":1.0,"va_deg":0.2,"vn_kv":154.0}},{"type":"Feature","geometry":{"type":"Point","coordinates":[137.2104,36.7201]},"properties":{"name":"\u6728\u5834\u753a\u5909\u96fb\u6240","vm_pu":1.0,"va_deg":-0.92,"vn_kv":66.0}},{"type":"Feature","geometry":{"type":"Point","coordinates":[136.9465,36.6977]},"properties":{"name":"\u798f\u5ca1\u753a\u5c0f\u4f0a\u52e2\u9818\u5909\u96fb\u6240","vm_pu":1.0,"va_deg":-0.63,"vn_kv":154.0}},{"type":"Feature","geometry":{"type":"Point","coordinates":[137.2897,36.7115]},"properties":{"name":"\u6c34\u6a4b\u958b\u767a\u5909\u96fb\u6240","vm_pu":1.0,"va_deg":-0.71,"vn_kv":154.0}},{"type":"Feature","geometry":{"type":"Point","coordinates":[137.4372,36.8932]},"properties":{"name":"\u7aaa\u7530\u5909\u96fb\u6240","vm_pu":1.0,"va_deg":-2.38,"vn_kv":66.0}},{"type":"Feature","geometry":{"type":"Point","coordinates":[136.6267,36.4006]},"properties":{"name":"\u6cb3\u5185\u753a\u304d\u308a\u306e\u91cc\u5909\u96fb\u6240","vm_pu":1.0,"va_deg":-1.31,"vn_kv":154.0}},{"type":"Feature","geometry":{"type":"Point","coordinates":[136.2774,36.2526]},"properties":{"name":"\u725b\u30ce\u8c37\u5909\u96fb\u6240","vm_pu":1.0,"va_deg":-0.51,"vn_kv":77.0}},{"type":"Feature","geometry":{"type":"Point","coordinates":[136.435,36.3701]},"properties":{"name":"\u84d1\u8f2a\u753a\u5909\u96fb\u6240","vm_pu":1.0,"va_deg":-1.52,"vn_kv":154.0}},{"type":"Feature","geometry":{"type":"Point","coordinates":[137.2339,36.7512]},"properties":{"name":"\u68ee\u5909\u96fb\u6240","vm_pu":1.0,"va_deg":-1.05,"vn_kv":66.0}},{"type":"Feature","geometry":{"type":"Point","coordinates":[137.2347,36.7521]},"properties":{"name":"\u5bcc\u5c71\u5e02\u5909\u96fb\u6240","vm_pu":1.0,"va_deg":-1.06,"vn_kv":77.0}},{"type":"Feature","geometry":{"type":"Point","coordinates":[137.2502,36.7591]},"properties":{"name":"\u6d77\u5cb8\u901a\u5909\u96fb\u6240","vm_pu":1.0,"va_deg":-1.07,"vn_kv":77.0}},{"type":"Feature","geometry":{"type":"Point","coordinates":[137.8264,35.9776]},"properties":{"name":"\u5e73\u6ca2\u5909\u96fb\u6240","vm_pu":1.0,"va_deg":-0.13,"vn_kv":154.0}},{"type":"Feature","geometry":{"type":"Point","coordinates":[137.646,36.1708]},"properties":{"name":"\u677e\u672c\u5e02\u5909\u96fb\u6240_4","vm_pu":1.0,"va_deg":0.55,"vn_kv":154.0}},{"type":"Feature","geometry":{"type":"Point","coordinates":[137.677,35.8245]},"properties":{"name":"\u6728\u66fd\u753a\u5909\u96fb\u6240_2","vm_pu":1.0,"va_deg":-0.31,"vn_kv":154.0}},{"type":"Feature","geometry":{"type":"Point","coordinates":[137.4636,36.7988]},"properties":{"name":"\u77f3\u57a3\u5909\u96fb\u6240","vm_pu":1.0,"va_deg":-0.8,"vn_kv":77.0}},{"type":"Feature","geometry":{"type":"Point","coordinates":[137.4462,36.5789]},"properties":{"name":"\u5bcc\u5c71\u5e02\u5909\u96fb\u6240_2","vm_pu":1.0,"va_deg":-0.46,"vn_kv":154.0}},{"type":"Feature","geometry":{"type":"Point","coordinates":[136.263,36.0132]},"properties":{"name":"\u4e0a\u6771\u90f7\u753a\u5909\u96fb\u6240","vm_pu":1.0,"va_deg":0.01,"vn_kv":275.0}},{"type":"Feature","geometry":{"type":"Point","coordinates":[137.4416,36.8198]},"properties":{"name":"\u888b\u5909\u96fb\u6240","vm_pu":1.0,"va_deg":-0.92,"vn_kv":154.0}},{"type":"Feature","geometry":{"type":"Point","coordinates":[136.6609,35.7351]},"properties":{"name":"\u672c\u5de3\u5e02\u5909\u96fb\u6240","vm_pu":1.0,"va_deg":0.32,"vn_kv":500.0}},{"type":"Feature","geometry":{"type":"Point","coordinates":[136.7079,36.5429]},"properties":{"name":"\u89d2\u9593\u753a\u5909\u96fb\u6240","vm_pu":1.0,"va_deg":-0.32,"vn_kv":154.0}},{"type":"Feature","geometry":{"type":"Point","coordinates":[137.3609,36.7554]},"properties":{"name":"\u5bae\u7aaa\u5909\u96fb\u6240","vm_pu":1.0,"va_deg":-0.96,"vn_kv":77.0}},{"type":"Feature","geometry":{"type":"Point","coordinates":[136.9674,37.0347]},"properties":{"name":"\u4e03\u5c3e\u5909\u96fb\u6240","vm_pu":1.0,"va_deg":0.33,"vn_kv":66.0}},{"type":"Feature","geometry":{"type":"Point","coordinates":[136.7583,37.0712]},"properties":{"name":"\u82e5\u8449\u53f0\u5909\u96fb\u6240","vm_pu":1.0,"va_deg":1.2,"vn_kv":66.0}},{"type":"Feature","geometry":{"type":"Point","coordinates":[136.7785,36.9945]},"properties":{"name":"\u9577\u6ca2\u5909\u96fb\u6240","vm_pu":1.0,"va_deg":0.25,"vn_kv":66.0}},{"type":"Feature","geometry":{"type":"Point","coordinates":[136.0174,35.7536]},"properties":{"name":"\u8272\u6d5c\u5909\u96fb\u6240","vm_pu":1.0,"va_deg":1.1,"vn_kv":500.0}},{"type":"Feature","geometry":{"type":"Point","coordinates":[137.293,36.6091]},"properties":{"name":"\u4e2d\u6edd\u5909\u96fb\u6240","vm_pu":1.0,"va_deg":-0.66,"vn_kv":66.0}},{"type":"Feature","geometry":{"type":"Point","coordinates":[137.2916,36.6073]},"properties":{"name":"\u4e2d\u6edd\u5909\u96fb\u6240_2","vm_pu":1.0,"va_deg":-0.67,"vn_kv":66.0}},{"type":"Feature","geometry":{"type":"Point","coordinates":[136.9861,36.7526]},"properties":{"name":"\u6ce2\u5ca1\u5909\u96fb\u6240","vm_pu":1.0,"va_deg":-0.99,"vn_kv":66.0}},{"type":"Feature","geometry":{"type":"Point","coordinates":[137.0596,36.0705]},"properties":{"name":"\u98db\u9a28\u5909\u63db\u6240","vm_pu":1.0,"va_deg":0.14,"vn_kv":500.0}},{"type":"Feature","geometry":{"type":"Point","coordinates":[136.9815,36.6865]},"properties":{"name":"\u6238\u51fa\u5909\u96fb\u6240","vm_pu":1.0,"va_deg":-0.6,"vn_kv":66.0}},{"type":"Feature","geometry":{"type":"Point","coordinates":[136.9384,36.708]},"properties":{"name":"\u798f\u5ca1\u753a\u4e0b\u84d1\u65b0\u5909\u96fb\u6240","vm_pu":1.0,"va_deg":-0.78,"vn_kv":66.0}},{"type":"Feature","geometry":{"type":"Point","coordinates":[137.0347,36.7761]},"properties":{"name":"\u4e0b\u516b\u30b1\u5909\u96fb\u6240","vm_pu":1.0,"va_deg":-0.7,"vn_kv":66.0}},{"type":"Feature","geometry":{"type":"Point","coordinates":[137.0902,36.7573]},"properties":{"name":"\u5c04\u6c34\u5909\u96fb\u6240","vm_pu":1.0,"va_deg":0.04,"vn_kv":66.0}},{"type":"Feature","geometry":{"type":"Point","coordinates":[137.0067,36.7551]},"properties":{"name":"\u5e73\u7c73\u753a\u5909\u96fb\u6240","vm_pu":1.0,"va_deg":-1.05,"vn_kv":66.0}},{"type":"Feature","geometry":{"type":"Point","coordinates":[137.0036,36.6498]},"properties":{"name":"\u5e84\u4e2d\u5909\u96fb\u6240","vm_pu":1.0,"va_deg":-2.33,"vn_kv":77.0}},{"type":"Feature","geometry":{"type":"Point","coordinates":[137.0103,36.7072]},"properties":{"name":"\u4e8c\u585a\u5909\u96fb\u6240","vm_pu":1.0,"va_deg":-0.38,"vn_kv":154.0}},{"type":"Feature","geometry":{"type":"Point","coordinates":[137.0082,36.7301]},"properties":{"name":"\u6e05\u6c34\u753a\u4e8c\u4e01\u76ee\u5909\u96fb\u6240","vm_pu":1.0,"va_deg":-0.69,"vn_kv":66.0}},{"type":"Feature","geometry":{"type":"Point","coordinates":[137.0201,36.7051]},"properties":{"name":"\u5e83\u4e0a\u5909\u96fb\u6240","vm_pu":1.0,"va_deg":-0.99,"vn_kv":66.0}},{"type":"Feature","geometry":{"type":"Point","coordinates":[137.0249,36.7662]},"properties":{"name":"\u4e8c\u4e0a\u65b0\u5909\u96fb\u6240","vm_pu":1.0,"va_deg":-0.71,"vn_kv":66.0}},{"type":"Feature","geometry":{"type":"Point","coordinates":[137.0893,36.719]},"properties":{"name":"\u4e09\u30b1\u5909\u96fb\u6240","vm_pu":1.0,"va_deg":0.16,"vn_kv":154.0}},{"type":"Feature","geometry":{"type":"Point","coordinates":[137.031,36.6427]},"properties":{"name":"\u798f\u5ca1\u5909\u96fb\u6240","vm_pu":1.0,"va_deg":-1.06,"vn_kv":66.0}},{"type":"Feature","geometry":{"type":"Point","coordinates":[136.8425,36.4991]},"properties":{"name":"\u592a\u7f8e\u5909\u96fb\u6240","vm_pu":1.0,"va_deg":0.21,"vn_kv":500.0}},{"type":"Feature","geometry":{"type":"Point","coordinates":[136.9956,36.6183]},"properties":{"name":"\u592a\u7530\u5909\u96fb\u6240_2","vm_pu":1.0,"va_deg":-0.36,"vn_kv":154.0}},{"type":"Feature","geometry":{"type":"Point","coordinates":[137.005,36.7692]},"properties":{"name":"\u5b88\u8b77\u753a\u4e00\u4e01\u76ee\u5909\u96fb\u6240","vm_pu":1.0,"va_deg":-0.1,"vn_kv":154.0}},{"type":"Feature","geometry":{"type":"Point","coordinates":[136.2028,35.7905]},"properties":{"name":"\u516b\u4e59\u5973\u5909\u96fb\u6240","vm_pu":1.0,"va_deg":0.67,"vn_kv":154.0}},{"type":"Feature","geometry":{"type":"Point","coordinates":[136.1557,35.902]},"properties":{"name":"\u4e2d\u592e\u4e00\u4e01\u76ee\u5909\u96fb\u6240","vm_pu":1.0,"va_deg":0.3,"vn_kv":154.0}},{"type":"Feature","geometry":{"type":"Point","coordinates":[137.3219,36.6896]},"properties":{"name":"\u5bfa\u7530\u5909\u96fb\u6240","vm_pu":1.0,"va_deg":-0.78,"vn_kv":66.0}},{"type":"Feature","geometry":{"type":"Point","coordinates":[136.5023,35.9964]},"properties":{"name":"\u53cb\u6c5f\u5909\u96fb\u6240","vm_pu":1.0,"va_deg":0.1,"vn_kv":154.0}},{"type":"Feature","geometry":{"type":"Point","coordinates":[137.2454,36.6864]},"properties":{"name":"\u9577\u6c5f\u5909\u96fb\u6240","vm_pu":1.0,"va_deg":-1.05,"vn_kv":66.0}},{"type":"Feature","geometry":{"type":"Point","coordinates":[137.3138,36.6656]},"properties":{"name":"\u524d\u6ca2\u65b0\u753a\u5909\u96fb\u6240","vm_pu":1.0,"va_deg":-0.72,"vn_kv":66.0}},{"type":"Feature","geometry":{"type":"Point","coordinates":[137.3173,36.5839]},"properties":{"name":"\u6771\u5c0f\u4fe3\u5909\u96fb\u6240","vm_pu":1.0,"va_deg":-0.57,"vn_kv":154.0}},{"type":"Feature","geometry":{"type":"Point","coordinates":[137.2018,36.5608]},"properties":{"name":"\u6625\u65e5\u5909\u96fb\u6240_2","vm_pu":1.0,"va_deg":-1.04,"vn_kv":66.0}},{"type":"Feature","geometry":{"type":"Point","coordinates":[137.1601,36.6652]},"properties":{"name":"\u5a66\u4e2d\u753a\u6771\u672c\u90f7\u5909\u96fb\u6240","vm_pu":1.0,"va_deg":-0.82,"vn_kv":66.0}},{"type":"Feature","geometry":{"type":"Point","coordinates":[137.173,36.6211]},"properties":{"name":"\u5a66\u4e2d\u753a\u65b0\u5c4b\u5909\u96fb\u6240","vm_pu":1.0,"va_deg":-0.33,"vn_kv":66.0}},{"type":"Feature","geometry":{"type":"Point","coordinates":[137.1744,36.6001]},"properties":{"name":"\u516b\u5c3e\u753a\u6ec5\u9b3c\u5909\u96fb\u6240","vm_pu":1.0,"va_deg":-0.37,"vn_kv":66.0}},{"type":"Feature","geometry":{"type":"Point","coordinates":[136.6571,36.5296]},"properties":{"name":"\u9577\u5742\u753a\u5909\u96fb\u6240","vm_pu":1.0,"va_deg":-2.46,"vn_kv":77.0}},{"type":"Feature","geometry":{"type":"Point","coordinates":[136.6948,36.5304]},"properties":{"name":"\u7530\u4e0a\u5909\u96fb\u6240","vm_pu":1.0,"va_deg":-2.7,"vn_kv":77.0}},{"type":"Feature","geometry":{"type":"Point","coordinates":[136.6183,36.5134]},"properties":{"name":"\u984d\u5909\u96fb\u6240","vm_pu":1.0,"va_deg":-2.07,"vn_kv":77.0}},{"type":"Feature","geometry":{"type":"Point","coordinates":[136.8248,36.4996]},"properties":{"name":"\u5357\u798f\u5149\u5909\u96fb\u6240","vm_pu":1.0,"va_deg":0.22,"vn_kv":500.0}},{"type":"Feature","geometry":{"type":"Point","coordinates":[136.9009,36.2802]},"properties":{"name":"\u98ef\u5cf6\u5909\u96fb\u6240","vm_pu":1.0,"va_deg":0.33,"vn_kv":275.0}},{"type":"Feature","geometry":{"type":"Point","coordinates":[136.8758,36.3546]},"properties":{"name":"\u6210\u51fa\u5909\u96fb\u6240","vm_pu":1.0,"va_deg":0.33,"vn_kv":275.0}},{"type":"Feature","geometry":{"type":"Point","coordinates":[136.9819,36.4769]},"properties":{"name":"\u57ce\u5909\u96fb\u6240","vm_pu":1.0,"va_deg":0.36,"vn_kv":275.0}},{"type":"Feature","geometry":{"type":"Point","coordinates":[136.9822,36.4777]},"properties":{"name":"\u57ce\u5909\u96fb\u6240_2","vm_pu":1.0,"va_deg":0.36,"vn_kv":275.0}},{"type":"Feature","geometry":{"type":"Point","coordinates":[136.8828,36.5639]},"properties":{"name":"\u4e0b\u5409\u6c5f\u5909\u96fb\u6240","vm_pu":1.0,"va_deg":-0.25,"vn_kv":154.0}},{"type":"Feature","geometry":{"type":"Point","coordinates":[136.0206,35.7521]},"properties":{"name":"\u8272\u6d5c\u5909\u96fb\u6240_2","vm_pu":1.0,"va_deg":0.99,"vn_kv":500.0}},{"type":"Feature","geometry":{"type":"Point","coordinates":[136.9886,36.0198]},"properties":{"name":"\u9ad8\u5c71\u5e02\u5909\u96fb\u6240","vm_pu":1.0,"va_deg":-0.04,"vn_kv":77.0}},{"type":"Feature","geometry":{"type":"Point","coordinates":[136.9067,36.001]},"properties":{"name":"\u90e1\u4e0a\u5e02\u5909\u96fb\u6240","vm_pu":1.0,"va_deg":0.15,"vn_kv":77.0}},{"type":"Feature","geometry":{"type":"Point","coordinates":[137.685,35.8368]},"properties":{"name":"\u6728\u66fd\u753a\u5909\u96fb\u6240_3","vm_pu":1.0,"va_deg":-0.86,"vn_kv":77.0}},{"type":"Feature","geometry":{"type":"Point","coordinates":[137.7918,37.0103]},"properties":{"name":"\u5927\u5b57\u9752\u6d77\u5909\u96fb\u6240","vm_pu":1.0,"va_deg":1.74,"vn_kv":66.0}},{"type":"Feature","geometry":{"type":"Point","coordinates":[136.6872,35.8926]},"properties":{"name":"\u5927\u91ce\u5e02\u5909\u96fb\u6240","vm_pu":1.0,"va_deg":0.58,"vn_kv":77.0}},{"type":"Feature","geometry":{"type":"Point","coordinates":[137.0939,36.7612]},"properties":{"name":"\u4e45\u3005\u6e4a\u5909\u96fb\u6240","vm_pu":1.0,"va_deg":0.04,"vn_kv":66.0}},{"type":"Feature","geometry":{"type":"Point","coordinates":[137.1019,36.7533]},"properties":{"name":"\u91ce\u6751\u5909\u96fb\u6240","vm_pu":1.0,"va_deg":0.57,"vn_kv":154.0}},{"type":"Feature","geometry":{"type":"Point","coordinates":[136.9656,37.0351]},"properties":{"name":"\u4e03\u5c3e\u5909\u96fb\u6240","vm_pu":1.0,"va_deg":0.46,"vn_kv":66.0}},{"type":"Feature","geometry":{"type":"Point","coordinates":[136.5058,35.9763]},"properties":{"name":"\u6771\u4e2d\u5909\u96fb\u6240","vm_pu":1.0,"va_deg":0.16,"vn_kv":77.0}},{"type":"Feature","geometry":{"type":"Point","coordinates":[136.1952,36.0789]},"properties":{"name":"\u798f\u4e95\u958b\u9589\u6240","vm_pu":1.0,"va_deg":-0.35,"vn_kv":77.0}},{"type":"Feature","geometry":{"type":"Point","coordinates":[136.1348,36.005]},"properties":{"name":"\u4e39\u751f\u5909\u96fb\u6240","vm_pu":1.0,"va_deg":0.21,"vn_kv":154.0}},{"type":"Feature","geometry":{"type":"Point","coordinates":[136.1812,35.9865]},"properties":{"name":"\u795e\u660e\u5909\u96fb\u6240","vm_pu":1.0,"va_deg":-0.12,"vn_kv":77.0}},{"type":"Feature","geometry":{"type":"Point","coordinates":[136.2208,36.0779]},"properties":{"name":"\u5317\u798f\u4e95\u5909\u96fb\u6240","vm_pu":1.0,"va_deg":-0.45,"vn_kv":77.0}},{"type":"Feature","geometry":{"type":"Point","coordinates":[136.238,35.9102]},"properties":{"name":"\u5343\u539f\u753a\u5909\u96fb\u6240","vm_pu":1.0,"va_deg":0.21,"vn_kv":154.0}},{"type":"Feature","geometry":{"type":"Point","coordinates":[137.255,37.4336]},"properties":{"name":"\u4e0a\u6238\u753a\u5317\u65b9\u5909\u96fb\u6240","vm_pu":1.0,"va_deg":-7.63,"vn_kv":66.0}},{"type":"Feature","geometry":{"type":"Point","coordinates":[137.2556,37.4326]},"properties":{"name":"\u5317\u9678\u96fb\u529b\u9001\u914d\u96fb\u3000\u98ef\u7530\u5909\u96fb\u6240","vm_pu":1.0,"va_deg":-7.63,"vn_kv":66.0}},{"type":"Feature","geometry":{"type":"Point","coordinates":[136.9029,37.3894]},"properties":{"name":"\u6cb3\u4e95\u753a\u5909\u96fb\u6240","vm_pu":1.0,"va_deg":-0.93,"vn_kv":66.0}},{"type":"Feature","geometry":{"type":"Point","coordinates":[136.7863,36.8964]},"properties":{"name":"\u6771\u5ddd\u539f\u753a\u5909\u96fb\u6240","vm_pu":1.0,"va_deg":1.69,"vn_kv":66.0}},{"type":"Feature","geometry":{"type":"Point","coordinates":[136.9296,37.0736]},"properties":{"name":"\u77f3\u5d0e\u753a\u5909\u96fb\u6240","vm_pu":1.0,"va_deg":0.85,"vn_kv":66.0}},{"type":"Feature","geometry":{"type":"Point","coordinates":[136.7903,37.2938]},"properties":{"name":"\u9580\u524d\u753a\u7530\u6751\u5909\u96fb\u6240","vm_pu":1.0,"va_deg":-1.55,"vn_kv":66.0}},{"type":"Feature","geometry":{"type":"Point","coordinates":[136.7895,37.2931]},"properties":{"name":"\u9580\u524d\u753a\u7530\u6751\u5909\u96fb\u6240_2","vm_pu":1.0,"va_deg":-1.54,"vn_kv":66.0}},{"type":"Feature","geometry":{"type":"Point","coordinates":[137.2321,37.3428]},"properties":{"name":"\u4e0a\u6771\u5909\u96fb\u6240","vm_pu":1.0,"va_deg":-6.12,"vn_kv":66.0}},{"type":"Feature","geometry":{"type":"Point","coordinates":[137.146,37.3084]},"properties":{"name":"\u5b87\u51fa\u6d25\u65b0\u5909\u96fb\u6240","vm_pu":1.0,"va_deg":-4.06,"vn_kv":66.0}},{"type":"Feature","geometry":{"type":"Point","coordinates":[136.735,37.1419]},"properties":{"name":"\u5bcc\u6765\u5730\u982d\u753a\u5909\u96fb\u6240","vm_pu":1.0,"va_deg":0.26,"vn_kv":66.0}},{"type":"Feature","geometry":{"type":"Point","coordinates":[136.7504,37.0749]},"properties":{"name":"\u82e5\u8449\u53f0\u5909\u96fb\u6240_2","vm_pu":1.0,"va_deg":1.1,"vn_kv":66.0}},{"type":"Feature","geometry":{"type":"Point","coordinates":[136.7397,37.0696]},"properties":{"name":"\u5fd7\u8cc0\u753a\u5909\u96fb\u6240","vm_pu":1.0,"va_deg":3.26,"vn_kv":66.0}},{"type":"Feature","geometry":{"type":"Point","coordinates":[137.5707,36.8228]},"properties":{"name":"\u9ed2\u90e8\u5e02\u5909\u96fb\u6240_3","vm_pu":1.0,"va_deg":-1.15,"vn_kv":66.0}},{"type":"Feature","geometry":{"type":"Point","coordinates":[137.4893,36.8915]},"properties":{"name":"\u4e94\u90ce\u516b\u5909\u96fb\u6240","vm_pu":1.0,"va_deg":-2.25,"vn_kv":66.0}},{"type":"Feature","geometry":{"type":"Point","coordinates":[137.2912,36.4026]},"properties":{"name":"\u98db\u9a52\u5e02\u5909\u96fb\u6240","vm_pu":1.0,"va_deg":-0.27,"vn_kv":154.0}},{"type":"Feature","geometry":{"type":"Point","coordinates":[137.2326,36.5068]},"properties":{"name":"\u5bfa\u6d25\u5909\u96fb\u6240","vm_pu":1.0,"va_deg":-0.29,"vn_kv":154.0}},{"type":"Feature","geometry":{"type":"Point","coordinates":[137.0073,37.0653]},"properties":{"name":"\u5927\u7530\u753a\u5909\u96fb\u6240_2","vm_pu":1.0,"va_deg":0.51,"vn_kv":275.0}},{"type":"Feature","geometry":{"type":"Point","coordinates":[136.705,36.7195]},"properties":{"name":"\u5b87\u91ce\u6c17\u5909\u96fb\u6240","vm_pu":1.0,"va_deg":-0.97,"vn_kv":77.0}},{"type":"Feature","geometry":{"type":"Point","coordinates":[136.7682,36.8268]},"properties":{"name":"\u9ea6\u751f\u5909\u96fb\u6240","vm_pu":1.0,"va_deg":1.71,"vn_kv":77.0}},{"type":"Feature","geometry":{"type":"Point","coordinates":[137.036,36.7748]},"properties":{"name":"\u7c73\u5cf6\u5909\u96fb\u6240","vm_pu":1.0,"va_deg":-0.72,"vn_kv":66.0}},{"type":"Feature","geometry":{"type":"Point","coordinates":[136.6806,36.5554]},"properties":{"name":"\u77f3\u5f15\u4e00\u4e01\u76ee\u5909\u96fb\u6240","vm_pu":1.0,"va_deg":-1.09,"vn_kv":77.0}},{"type":"Feature","geometry":{"type":"Point","coordinates":[136.6846,36.577]},"properties":{"name":"\u6771\u9577\u6c5f\u753a\u5909\u96fb\u6240","vm_pu":1.0,"va_deg":-0.54,"vn_kv":154.0}},{"type":"Feature","geometry":{"type":"Point","coordinates":[136.7333,36.7534]},"properties":{"name":"\u7b20\u5cf6\u5909\u96fb\u6240","vm_pu":1.0,"va_deg":-0.27,"vn_kv":77.0}},{"type":"Feature","geometry":{"type":"Point","coordinates":[136.7347,36.7716]},"properties":{"name":"\u9577\u67c4\u753a\u5909\u96fb\u6240","vm_pu":1.0,"va_deg":0.28,"vn_kv":77.0}},{"type":"Feature","geometry":{"type":"Point","coordinates":[137.3331,36.756]},"properties":{"name":"\u83f0\u539f\u5909\u96fb\u6240","vm_pu":1.0,"va_deg":-1.06,"vn_kv":66.0}},{"type":"Feature","geometry":{"type":"Point","coordinates":[137.2689,36.162]},"properties":{"name":"\u4e09\u798f\u5bfa\u753a\u5909\u96fb\u6240","vm_pu":1.0,"va_deg":0.11,"vn_kv":154.0}},{"type":"Feature","geometry":{"type":"Point","coordinates":[137.2096,36.6764]},"properties":{"name":"\u5357\u5bcc\u5c71\u5909\u96fb\u6240","vm_pu":1.0,"va_deg":-1.07,"vn_kv":66.0}},{"type":"Feature","geometry":{"type":"Point","coordinates":[137.2124,36.6628]},"properties":{"name":"\u639b\u5c3e\u5909\u96fb\u6240","vm_pu":1.0,"va_deg":-0.94,"vn_kv":66.0}},{"type":"Feature","geometry":{"type":"Point","coordinates":[137.1346,36.3239]},"properties":{"name":"\u5bae\u5ddd\u753a\u91ce\u9996\u5909\u96fb\u6240","vm_pu":1.0,"va_deg":0.3,"vn_kv":275.0}},{"type":"Feature","geometry":{"type":"Point","coordinates":[136.2422,36.212]},"properties":{"name":"\u83c5\u91ce\u5909\u96fb\u6240","vm_pu":1.0,"va_deg":-0.73,"vn_kv":77.0}},{"type":"Feature","geometry":{"type":"Point","coordinates":[136.3632,36.2944]},"properties":{"name":"\u5c71\u4ee3\u6e29\u6cc9\u5909\u96fb\u6240","vm_pu":1.0,"va_deg":-0.37,"vn_kv":154.0}},{"type":"Feature","geometry":{"type":"Point","coordinates":[136.4761,36.0724]},"properties":{"name":"\u8352\u571f\u753a\u677e\u30f6\u5d0e\u5909\u96fb\u6240","vm_pu":1.0,"va_deg":0.06,"vn_kv":154.0}},{"type":"Feature","geometry":{"type":"Point","coordinates":[137.0546,36.7372]},"properties":{"name":"\u5927\u9580\u5909\u96fb\u6240","vm_pu":1.0,"va_deg":0.1,"vn_kv":154.0}},{"type":"Feature","geometry":{"type":"Point","coordinates":[136.525,36.0924]},"properties":{"name":"\u91ce\u5411\u753a\u85ac\u5e2b\u795e\u8c37\u5909\u96fb\u6240","vm_pu":1.0,"va_deg":-0.56,"vn_kv":77.0}},{"type":"Feature","geometry":{"type":"Point","coordinates":[137.689,35.7819]},"properties":{"name":"\u65ed\u753a\u5909\u96fb\u6240","vm_pu":1.0,"va_deg":-0.59,"vn_kv":77.0}},{"type":"Feature","geometry":{"type":"Point","coordinates":[137.6981,35.7083]},"properties":{"name":"\u5927\u6851\u6751\u5909\u96fb\u6240","vm_pu":1.0,"va_deg":-0.36,"vn_kv":154.0}}]}