{"type":"FeatureCollection","features":[{"type":"Feature","geometry":{"type":"LineString","coordinates":[[127.6745,26.1908],[127.6734,26.1913],[127.6724,26.1926],[127.6713,26.194],[127.6704,26.1949],[127.6694,26.1959],[127.6693,26.1961],[127.6696,26.197],[127.6696,26.197],[127.6696,26.1971],[127.6698,26.1978],[127.6699,26.1993],[127.6699,26.2001],[127.6698,26.2009],[127.6697,26.2012],[127.6691,26.2018],[127.669,26.2018],[127.6684,26.2023],[127.6674,26.2031],[127.667,26.2035],[127.666,26.2044],[127.665,26.2054],[127.664,26.2061]]},"properties":{"name":"\u90a3\u8987\u9ad8\u5b89\u7dda; \u90a3\u8987\u5c0f\u7984\u7dda","loading_pct":46.8,"p_mw":-32.1}},{"type":"Feature","geometry":{"type":"LineString","coordinates":[[127.6745,26.1908],[127.6742,26.1908],[127.6746,26.1906],[127.6746,26.1906],[127.6762,26.1899],[127.6763,26.1898],[127.6764,26.1898],[127.6764,26.1898],[127.6778,26.1892],[127.6789,26.1888],[127.6799,26.1884],[127.6802,26.1882],[127.6816,26.1877],[127.6835,26.1869],[127.6851,26.1863],[127.6866,26.1858],[127.6877,26.1855],[127.6881,26.1854],[127.69,26.1851],[127.6909,26.1849],[127.6926,26.1845],[127.6942,26.1842],[127.6959,26.1838],[127.6976,26.1838],[127.6991,26.1834],[127.7001,26.1823],[127.7005,26.1813],[127.7018,26.1805],[127.7023,26.1788],[127.7025,26.1771],[127.6876,26.1754]]},"properties":{"name":"\u90a3\u8987\u9ad8\u5b89\u7dda; \u5c0f\u7984\u7dda","loading_pct":11.6,"p_mw":7.9}},{"type":"Feature","geometry":{"type":"LineString","coordinates":[[127.7129,26.1986],[127.7128,26.197],[127.7127,26.1956],[127.7126,26.1936],[127.7126,26.1935],[127.7117,26.1922],[127.7107,26.1907],[127.7093,26.1886],[127.7082,26.1869],[127.7067,26.1861],[127.7056,26.1856],[127.7046,26.1852],[127.7025,26.1843],[127.7013,26.184],[127.6998,26.1837],[127.6876,26.1754]]},"properties":{"name":"\u7e41\u591a\u5ddd\u7dda","loading_pct":35.2,"p_mw":-24.2}},{"type":"Feature","geometry":{"type":"LineString","coordinates":[[127.7324,26.1817],[127.7328,26.1845],[127.7346,26.1868],[127.7356,26.1881],[127.7367,26.19],[127.7368,26.1903],[127.7382,26.1934],[127.739,26.1943],[127.7394,26.1968],[127.7406,26.199],[127.7418,26.2014],[127.7431,26.2022],[127.7453,26.203],[127.746,26.2033],[127.747,26.2037],[127.747,26.2041],[127.7476,26.204]]},"properties":{"name":"\u5357\u98a8\u539f\u5909\u96fb\u6240~\u4e0e\u90a3\u539f\u5909\u96fb\u6240\u7dda","loading_pct":79.2,"p_mw":-163.3}},{"type":"Feature","geometry":{"type":"LineString","coordinates":[[127.8722,26.4597],[127.9185,26.4472],[127.919,26.4484],[127.9192,26.4496],[127.9188,26.4516],[127.9191,26.4535],[127.9188,26.4553],[127.9212,26.4563],[127.9232,26.4575],[127.9245,26.4587],[127.9271,26.4591],[127.9294,26.4599],[127.9301,26.4624],[127.9304,26.465],[127.9318,26.4669],[127.9329,26.4693],[127.9335,26.4721],[127.9337,26.4739],[127.9339,26.4757],[127.9352,26.4777],[127.9378,26.479],[127.9404,26.4803],[127.9431,26.4814],[127.9465,26.4835],[127.9487,26.4849],[127.9528,26.4875],[127.9549,26.4887],[127.9568,26.49],[127.9595,26.4919],[127.9629,26.4928],[127.9658,26.4937],[127.9679,26.4948],[127.9717,26.4969],[127.9752,26.4989],[127.9776,26.5002],[127.9805,26.5017],[127.9833,26.5031],[127.9854,26.5058],[127.9886,26.5076],[127.9927,26.5088]]},"properties":{"name":"\u4f0a\u82b8\u5909\u96fb\u6240~\u677e\u7530\u5909\u96fb\u6240\u7dda","loading_pct":80.0,"p_mw":235.6}},{"type":"Feature","geometry":{"type":"LineString","coordinates":[[127.9396,26.5356],[127.946,26.5272],[127.9482,26.5287],[127.9506,26.5303],[127.9543,26.5319],[127.9562,26.5318],[127.9586,26.5328],[127.9618,26.5334],[127.9634,26.5334],[127.9658,26.5334],[127.9679,26.5322],[127.9711,26.5328],[127.9728,26.5338],[127.9722,26.537],[127.9739,26.5391],[127.976,26.5418],[127.9787,26.545],[127.9797,26.5468],[127.981,26.5481],[127.983,26.5499],[127.9848,26.5517],[127.986,26.5537],[127.9869,26.5548],[127.9887,26.5568],[127.9887,26.5593],[127.9901,26.5612],[127.9917,26.5634],[127.9944,26.5659],[127.9955,26.5684],[127.9976,26.5709],[127.9976,26.5735],[127.9959,26.5748],[127.9947,26.5768],[127.9937,26.5775],[127.9932,26.5786],[127.9908,26.587]]},"properties":{"name":"\u559c\u702c\u5909\u96fb\u6240~\u540d\u8b77\u5e02\u5909\u96fb\u6240\u7dda","loading_pct":70.4,"p_mw":-48.3}},{"type":"Feature","geometry":{"type":"LineString","coordinates":[[127.8263,26.4561],[127.8278,26.4583],[127.8295,26.459],[127.8321,26.458],[127.8352,26.4576],[127.8372,26.4561],[127.8374,26.456],[127.8405,26.4541],[127.8427,26.4539],[127.8438,26.4562],[127.8453,26.4589],[127.8464,26.4612],[127.8475,26.4626],[127.8488,26.4647],[127.8494,26.4671],[127.8483,26.4693],[127.8496,26.4723],[127.8499,26.4741],[127.851,26.4761],[127.8513,26.4789],[127.8524,26.4822],[127.8526,26.4852],[127.8528,26.4875],[127.8525,26.4889],[127.8526,26.4897],[127.8523,26.4919],[127.8528,26.493],[127.857,26.4947],[127.8595,26.4974],[127.8625,26.4992],[127.864,26.5011],[127.8667,26.5019],[127.8696,26.5042],[127.8718,26.5043],[127.8736,26.5024],[127.8757,26.5015],[127.8783,26.5014],[127.8796,26.5001],[127.8813,26.4984],[127.8844,26.4965],[127.8865,26.4949],[127.8888,26.4953],[127.8903,26.4959],[127.8914,26.4944],[127.8942,26.4925],[127.8973,26.4927],[127.899,26.4934],[127.9011,26.4951],[127.9042,26.4962],[127.9069,26.4954],[127.9115,26.4965],[127.9131,26.4991],[127.917,26.5005],[127.9171,26.5022],[127.9179,26.5033],[127.9181,26.5054],[127.92,26.5064],[127.9218,26.5071],[127.9248,26.5087],[127.9262,26.5105],[127.9274,26.5114],[127.9295,26.5125],[127.9311,26.5135],[127.9335,26.5145],[127.9356,26.5151],[127.9381,26.5155],[127.9406,26.5153],[127.9426,26.5154],[127.9439,26.5172],[127.945,26.5194],[127.9449,26.5215],[127.9437,26.5238],[127.9396,26.5356]]},"properties":{"name":"\u6069\u7d0d\u6751\u5909\u96fb\u6240~\u559c\u702c\u5909\u96fb\u6240\u7dda","loading_pct":35.2,"p_mw":-24.2}},{"type":"Feature","geometry":{"type":"LineString","coordinates":[[127.7592,26.2358],[127.7633,26.2359],[127.7667,26.2359],[127.7696,26.2378],[127.7715,26.2397],[127.7728,26.241],[127.7749,26.2427],[127.7764,26.244],[127.7778,26.246],[127.7797,26.2485],[127.7811,26.2497],[127.7826,26.2514],[127.783,26.2528],[127.7838,26.2548],[127.7845,26.2569],[127.7855,26.2589],[127.7864,26.2618],[127.7871,26.2636],[127.7876,26.2649],[127.7881,26.2672],[127.7894,26.2689],[127.7916,26.2719],[127.7926,26.2731],[127.7946,26.2743],[127.7958,26.275],[127.7971,26.2758],[127.7989,26.2772],[127.8,26.278],[127.8041,26.2804],[127.8059,26.2809],[127.8083,26.2822],[127.8101,26.2831],[127.8112,26.283],[127.8104,26.2835],[127.8112,26.2854],[127.8118,26.2873],[127.8129,26.2903],[127.8117,26.2914],[127.8106,26.2928],[127.8102,26.2946],[127.8098,26.2962],[127.8093,26.2981],[127.8101,26.3002],[127.811,26.3025],[127.8115,26.3045]]},"properties":{"name":"\u897f\u539f\u5909\u96fb\u6240~\u6e21\u53e3\u5909\u96fb\u6240\u7dda","loading_pct":76.1,"p_mw":-275.4}},{"type":"Feature","geometry":{"type":"LineString","coordinates":[[127.756,26.2859],[127.7554,26.2859],[127.7545,26.2846],[127.7544,26.2845],[127.7543,26.2844],[127.7538,26.2838],[127.7533,26.2833],[127.7524,26.2827],[127.751,26.2817],[127.7452,26.2779],[127.7435,26.2768],[127.7404,26.274],[127.7398,26.2732],[127.7391,26.2718],[127.7387,26.271],[127.7379,26.2703],[127.7374,26.2701],[127.7368,26.2698],[127.7363,26.2696],[127.7331,26.2689],[127.7297,26.2681],[127.7253,26.2667],[127.7244,26.2665],[127.7236,26.2664],[127.7226,26.2665],[127.7207,26.267],[127.721,26.2677],[127.7211,26.2682],[127.7193,26.2687]]},"properties":{"name":"\u4f0a\u4f50\u4e00\u4e01\u76ee\u5909\u96fb\u6240_2~\u7267\u6e2f\u4e94\u4e01\u76ee\u5909\u96fb\u6240\u7dda","loading_pct":51.5,"p_mw":141.2}},{"type":"Feature","geometry":{"type":"LineString","coordinates":[[127.8069,26.3543],[127.8052,26.3526],[127.8039,26.3508],[127.7997,26.3448],[127.7985,26.3429],[127.7975,26.3416],[127.7964,26.3397],[127.794,26.3377],[127.7911,26.3373],[127.7887,26.3376],[127.7863,26.3352],[127.7837,26.3341],[127.7814,26.3329],[127.7821,26.3307],[127.7831,26.3283],[127.7841,26.3261],[127.7851,26.3242],[127.7863,26.3229],[127.7879,26.322],[127.7879,26.321],[127.7872,26.3194],[127.7867,26.3183],[127.7874,26.3169],[127.7883,26.3159],[127.7886,26.3139],[127.7877,26.3121],[127.7817,26.3072]]},"properties":{"name":"\u7f8e\u91cc\u516d\u4e01\u76ee\u5909\u96fb\u6240~\u745e\u6176\u89a7\u5909\u96fb\u6240\u7dda","loading_pct":93.8,"p_mw":128.7}},{"type":"Feature","geometry":{"type":"LineString","coordinates":[[127.6922,26.1357],[127.6915,26.1373],[127.6915,26.1373],[127.6888,26.1372],[127.6861,26.1387],[127.6845,26.1391],[127.6841,26.1406],[127.6838,26.142],[127.6829,26.144],[127.68,26.1449],[127.6791,26.1463],[127.6784,26.1498],[127.6764,26.1515],[127.6757,26.1534],[127.6624,26.1642]]},"properties":{"name":"\u5927\u91cc\u5909\u96fb\u6240~\u6c96\u7e04\u96fb\u529b\u4e0e\u6839\u5909\u96fb\u6240\u7dda","loading_pct":35.2,"p_mw":24.2}},{"type":"Feature","geometry":{"type":"LineString","coordinates":[[127.6884,26.2416],[127.6925,26.2438],[127.6888,26.2396],[127.6876,26.2378],[127.6858,26.2341],[127.6856,26.2325],[127.6862,26.2301],[127.6863,26.2284],[127.686,26.2271],[127.6853,26.2257],[127.6839,26.2229],[127.6828,26.2208],[127.6835,26.2199]]},"properties":{"name":"\u66d9\u5909\u96fb\u6240~\u4e45\u8302\u5730\u5909\u96fb\u6240\u7dda","loading_pct":81.1,"p_mw":128.7}},{"type":"Feature","geometry":{"type":"LineString","coordinates":[[127.7091,26.2593],[127.7101,26.2586],[127.71,26.2582],[127.7096,26.2578],[127.7075,26.2558],[127.7068,26.2551],[127.7065,26.2549],[127.704,26.2524],[127.7034,26.2519],[127.7029,26.2515],[127.7022,26.251],[127.7011,26.2503],[127.6989,26.2489],[127.6982,26.2482],[127.6969,26.2467],[127.6966,26.2465],[127.6959,26.2461],[127.6884,26.2416]]},"properties":{"name":"\u6e2f\u5ddd\u5909\u96fb\u6240~\u66d9\u5909\u96fb\u6240\u7dda","loading_pct":80.9,"p_mw":152.9}},{"type":"Feature","geometry":{"type":"LineString","coordinates":[[127.9066,26.6571],[127.9329,26.678],[127.9313,26.6808],[127.9299,26.6825],[127.927,26.6855],[127.9245,26.686],[127.9199,26.6875],[127.9172,26.689],[127.9133,26.6903],[127.9109,26.691],[127.9088,26.6927],[127.9061,26.695],[127.9035,26.6972],[127.9008,26.6975],[127.898,26.6979],[127.8949,26.6974],[127.8948,26.6966],[127.8937,26.6961],[127.8935,26.6944],[127.8912,26.6937],[127.8894,26.6939],[127.8863,26.6937],[127.8842,26.694],[127.8828,26.6934],[127.8808,26.6922]]},"properties":{"name":"\u6771\u5909\u96fb\u6240~\u6d77\u6d0b\u535a\u5909\u96fb\u6240\u7dda","loading_pct":6.4,"p_mw":4.4}},{"type":"Feature","geometry":{"type":"LineString","coordinates":[[127.9876,26.6103],[128.002,26.6026],[128.0031,26.6041],[128.0038,26.6053],[128.0053,26.6062],[128.0087,26.6076],[128.0116,26.6086],[128.013,26.6091],[128.015,26.6104],[128.0182,26.6123],[128.0224,26.614],[128.0251,26.6158],[128.0282,26.6178],[128.0294,26.6187],[128.0309,26.6204],[128.0331,26.6217],[128.0357,26.6233],[128.0391,26.6261],[128.0407,26.627],[128.0443,26.6285],[128.0461,26.6288],[128.0493,26.6307],[128.0521,26.6319],[128.0535,26.6334],[128.0556,26.6345],[128.058,26.635],[128.0611,26.6356],[128.0628,26.636],[128.0666,26.6379],[128.0685,26.6388],[128.0706,26.638],[128.0725,26.6373],[128.0772,26.6368],[128.0779,26.6368],[128.0783,26.6368],[128.0816,26.6362],[128.0837,26.6372],[128.0861,26.638],[128.0879,26.6388],[128.0912,26.6397],[128.0939,26.6395],[128.0965,26.6396],[128.0986,26.6418],[128.1022,26.6435],[128.1058,26.6443],[128.1093,26.6451],[128.1116,26.646],[128.1132,26.6466],[128.1161,26.6474],[128.1182,26.6481],[128.1204,26.6498],[128.1219,26.6514],[128.1239,26.6531],[128.1264,26.6546],[128.128,26.6555],[128.1295,26.6574]]},"properties":{"name":"\u540d\u8b77\u96fb\u529b\u6240~\u7530\u6e2f\u5909\u96fb\u6240\u7dda","loading_pct":56.0,"p_mw":38.4}},{"type":"Feature","geometry":{"type":"LineString","coordinates":[[127.8152,26.433],[127.8174,26.4349],[127.8195,26.4373],[127.8227,26.4396],[127.8254,26.4418],[127.8285,26.4431],[127.8315,26.4443],[127.8346,26.4418]]},"properties":{"name":"\u4ef2\u6cca\u5909\u96fb\u6240~\u77f3\u5ddd\u6771\u5c71\u4e00\u4e01\u76ee\u5909\u96fb\u6240\u7dda","loading_pct":99.1,"p_mw":-135.9}},{"type":"Feature","geometry":{"type":"LineString","coordinates":[[127.8069,26.3543],[127.8387,26.3467],[127.8401,26.3494],[127.8427,26.351],[127.8451,26.3512],[127.8474,26.3513],[127.8807,26.3318]]},"properties":{"name":"\u7f8e\u91cc\u516d\u4e01\u76ee\u5909\u96fb\u6240~\u5ddd\u7530\u5909\u96fb\u6240\u7dda","loading_pct":34.4,"p_mw":-47.2}},{"type":"Feature","geometry":{"type":"LineString","coordinates":[[127.8069,26.3543],[127.8387,26.3467],[127.8401,26.3494],[127.8427,26.351],[127.8451,26.3512],[127.8474,26.3513],[127.8807,26.3318]]},"properties":{"name":"\u7f8e\u91cc\u516d\u4e01\u76ee\u5909\u96fb\u6240~\u5ddd\u7530\u5909\u96fb\u6240\u7dda","loading_pct":45.4,"p_mw":-31.1}},{"type":"Feature","geometry":{"type":"LineString","coordinates":[[127.8736,26.3812],[127.851,26.3557],[127.8486,26.3578],[127.8458,26.3596],[127.8446,26.3605],[127.8426,26.3626],[127.842,26.3654],[127.8415,26.3678],[127.8409,26.3708],[127.8392,26.3736],[127.8372,26.3757],[127.8385,26.3773],[127.8354,26.3797],[127.8329,26.3818],[127.8319,26.3825],[127.8315,26.3849],[127.8293,26.3849],[127.8273,26.3865],[127.827,26.3891],[127.8263,26.3919]]},"properties":{"name":"\u5b87\u5805\u5909\u96fb\u6240~\u3046\u308b\u307e\u5e02\u5909\u96fb\u6240\u7dda","loading_pct":54.2,"p_mw":148.8}},{"type":"Feature","geometry":{"type":"LineString","coordinates":[[127.9876,26.6103],[127.9627,26.6389],[127.9625,26.6413],[127.9615,26.6429],[127.9623,26.6458],[127.9627,26.6485],[127.9609,26.6507],[127.9578,26.6516],[127.9551,26.6532],[127.9549,26.6549],[127.955,26.6574],[127.9786,26.6744]]},"properties":{"name":"\u540d\u8b77\u96fb\u529b\u6240~\u4ef2\u5b97\u6839\u5909\u96fb\u6240\u7dda","loading_pct":48.1,"p_mw":33.0}},{"type":"Feature","geometry":{"type":"LineString","coordinates":[[127.9786,26.6744],[127.9525,26.6621],[127.9506,26.6642],[127.9489,26.6665],[127.947,26.6686],[127.9451,26.6705],[127.9426,26.6713],[127.9393,26.6723],[127.9366,26.6729],[127.9356,26.6739],[127.9337,26.6753],[127.9066,26.6571]]},"properties":{"name":"\u4ef2\u5b97\u6839\u5909\u96fb\u6240~\u6771\u5909\u96fb\u6240\u7dda","loading_pct":12.9,"p_mw":8.8}},{"type":"Feature","geometry":{"type":"LineString","coordinates":[[127.9876,26.6103],[127.9639,26.6344],[127.9621,26.6328],[127.962,26.6317],[127.9631,26.6309],[127.9624,26.6288],[127.9611,26.6269],[127.9602,26.6246],[127.9608,26.6227],[127.9592,26.6213],[127.9568,26.6193],[127.9555,26.6174],[127.9523,26.6169],[127.9513,26.616],[127.9486,26.614],[127.9456,26.6125],[127.9443,26.6102],[127.9411,26.6104],[127.9392,26.6111],[127.9369,26.6116]]},"properties":{"name":"\u540d\u8b77\u96fb\u529b\u6240~\u5c71\u5165\u7aef\u5909\u96fb\u6240\u7dda","loading_pct":35.2,"p_mw":24.2}},{"type":"Feature","geometry":{"type":"LineString","coordinates":[[127.9908,26.587],[127.9994,26.6003],[127.9876,26.6103]]},"properties":{"name":"\u540d\u8b77\u5e02\u5909\u96fb\u6240~\u540d\u8b77\u96fb\u529b\u6240\u7dda","loading_pct":80.0,"p_mw":119.7}},{"type":"Feature","geometry":{"type":"LineString","coordinates":[[127.664,26.2061],[127.6668,26.2053],[127.6668,26.2053],[127.6679,26.2048],[127.6695,26.2042],[127.6709,26.2042],[127.6719,26.2045],[127.6729,26.2052],[127.6733,26.2056],[127.6737,26.2061],[127.6742,26.2072],[127.68,26.2085]]},"properties":{"name":"\u90a3\u8987\u5909\u96fb\u6240~\u58f7\u5ddd\u5909\u96fb\u6240\u7dda","loading_pct":82.0,"p_mw":-56.2}},{"type":"Feature","geometry":{"type":"LineString","coordinates":[[127.6835,26.2199],[127.6812,26.2214],[127.6802,26.2217]]},"properties":{"name":"\u4e45\u8302\u5730\u5909\u96fb\u6240~\u897f\u90a3\u8987\u5909\u96fb\u6240\u7dda","loading_pct":35.2,"p_mw":24.2}},{"type":"Feature","geometry":{"type":"LineString","coordinates":[[127.9927,26.5088],[127.9927,26.5118],[127.9949,26.5153],[127.9968,26.5168],[128.0003,26.5197],[128.0041,26.5209],[128.0076,26.5218],[128.0112,26.5221],[128.0134,26.5222],[128.0161,26.5227],[128.0186,26.5232],[128.0204,26.5232],[128.0229,26.5234],[128.0263,26.5236],[128.0297,26.5239],[128.032,26.5247],[128.0327,26.5249],[128.0343,26.5255]]},"properties":{"name":"\u677e\u7530\u5909\u96fb\u6240~Henoko Substation\u7dda","loading_pct":80.0,"p_mw":211.4}},{"type":"Feature","geometry":{"type":"LineString","coordinates":[[128.0343,26.5255],[128.034,26.5264],[128.0348,26.5282],[128.0356,26.529],[128.0376,26.5325],[128.0371,26.5355],[128.0346,26.5373],[128.0324,26.5394],[128.0309,26.5409],[128.0298,26.5418],[128.0285,26.5428],[128.0261,26.5448],[128.0247,26.546],[128.0223,26.547],[128.0196,26.5495],[128.0178,26.5515],[128.0143,26.553],[128.0119,26.5547],[128.0106,26.5567],[128.0106,26.5599],[128.01,26.5629],[128.0099,26.565],[128.0098,26.5683],[128.0097,26.5713],[128.0117,26.5742],[128.0117,26.5765],[128.011,26.5791],[128.0117,26.5834],[128.0123,26.5858],[128.0127,26.5884],[128.0111,26.5896],[128.0089,26.5912],[128.0062,26.593],[128.0036,26.5948],[128.0021,26.5972],[127.9908,26.587]]},"properties":{"name":"Henoko Substation~\u540d\u8b77\u5e02\u5909\u96fb\u6240\u7dda","loading_pct":80.0,"p_mw":192.2}},{"type":"Feature","geometry":{"type":"LineString","coordinates":[[127.703,26.2296],[127.703,26.2305],[127.7036,26.2316],[127.7064,26.2342],[127.7069,26.2348],[127.7073,26.2353],[127.7074,26.2356],[127.711,26.2443],[127.7118,26.2458],[127.7122,26.2462],[127.7127,26.2468],[127.7138,26.2475],[127.7156,26.2483],[127.7167,26.2491],[127.7179,26.25],[127.7218,26.2531],[127.7236,26.2543],[127.7193,26.2687]]},"properties":{"name":"\u6d66\u6dfb\u5927\u540d\u7dda","loading_pct":12.3,"p_mw":-16.9}},{"type":"Feature","geometry":{"type":"LineString","coordinates":[[127.68,26.2085],[127.6763,26.214],[127.6798,26.2169],[127.6808,26.2182],[127.6812,26.2187],[127.6819,26.2194],[127.682,26.2196],[127.6835,26.2199]]},"properties":{"name":"\u58f7\u5ddd\u5909\u96fb\u6240~\u4e45\u8302\u5730\u5909\u96fb\u6240\u7dda","loading_pct":81.7,"p_mw":-80.4}},{"type":"Feature","geometry":{"type":"LineString","coordinates":[[128.1696,26.7309],[128.2647,26.6719],[128.2628,26.6742],[128.2597,26.6735],[128.2595,26.6716],[128.2586,26.6698],[128.257,26.6684],[128.2559,26.6647],[128.2544,26.6614],[128.252,26.6593],[128.2511,26.6573],[128.2503,26.6555],[128.2494,26.6531],[128.2472,26.6504],[128.2448,26.6495],[128.2433,26.6471],[128.2412,26.6449],[128.2409,26.6423],[128.2404,26.6404],[128.2378,26.6388],[128.2352,26.6371],[128.2339,26.6367],[128.2318,26.6369],[128.2308,26.6359],[128.2288,26.6356],[128.2271,26.6334],[128.2246,26.6335],[128.2227,26.6346],[128.2199,26.6346],[128.2177,26.6344],[128.2163,26.6347],[128.214,26.6358],[128.2123,26.6367],[128.2098,26.6376],[128.2069,26.6393],[128.2051,26.6392],[128.2023,26.6378],[128.2007,26.6369],[128.1972,26.6348],[128.1955,26.6336],[128.1932,26.6338],[128.1905,26.6349],[128.1884,26.6348],[128.1853,26.6347],[128.1833,26.6358],[128.1804,26.6363],[128.1778,26.6355],[128.1761,26.6365],[128.1728,26.6378],[128.1712,26.6384],[128.1689,26.6386],[128.1654,26.6399],[128.164,26.6404],[128.1617,26.6414],[128.1592,26.6418],[128.1568,26.6415],[128.1546,26.6409],[128.1522,26.6407],[128.1496,26.6404],[128.147,26.6401],[128.1442,26.6407],[128.1426,26.6418],[128.1401,26.6431],[128.1295,26.6574]]},"properties":{"name":"\u5965\u9593\u5909\u96fb\u6240~\u7530\u6e2f\u5909\u96fb\u6240\u7dda","loading_pct":80.0,"p_mw":-24.2}},{"type":"Feature","geometry":{"type":"LineString","coordinates":[[127.7193,26.2687],[127.7264,26.2544],[127.7273,26.2534],[127.7281,26.2527],[127.7295,26.2516],[127.7308,26.2508],[127.7324,26.2497],[127.7338,26.2486],[127.7355,26.2476],[127.7379,26.2459],[127.7428,26.243]]},"properties":{"name":"trafo_132/66kV","loading_pct":18.5,"p_mw":-27.7}},{"type":"Feature","geometry":{"type":"LineString","coordinates":[[127.7192,26.1659],[127.7199,26.1648],[127.7189,26.1626],[127.7176,26.16],[127.7175,26.1579],[127.7168,26.1554],[127.7162,26.1539],[127.7139,26.1514],[127.7124,26.149],[127.7104,26.1471],[127.7075,26.1469],[127.7043,26.1471],[127.7018,26.1458],[127.7001,26.1431],[127.6976,26.1415],[127.6954,26.1402],[127.6939,26.1382],[127.6922,26.1357]]},"properties":{"name":"trafo_132/66kV","loading_pct":32.2,"p_mw":48.3}},{"type":"Feature","geometry":{"type":"LineString","coordinates":[[127.7192,26.1659],[127.7202,26.1673],[127.7221,26.1673],[127.7233,26.1677],[127.7247,26.1684],[127.7256,26.1689],[127.7271,26.1714],[127.7265,26.1734],[127.7286,26.1751],[127.7306,26.1784],[127.7316,26.181],[127.7324,26.1817]]},"properties":{"name":"trafo_132/66kV","loading_pct":92.7,"p_mw":-139.1}},{"type":"Feature","geometry":{"type":"LineString","coordinates":[[127.8387,26.4428],[127.8467,26.4527],[127.8482,26.4543],[127.8497,26.4557],[127.8524,26.4583],[127.855,26.4591],[127.8587,26.4603],[127.861,26.4604],[127.8632,26.4607],[127.8664,26.4613],[127.869,26.4619],[127.8717,26.462],[127.8746,26.462],[127.8789,26.4622],[127.8817,26.4616],[127.8839,26.4606],[127.8866,26.4594],[127.8886,26.4586],[127.8905,26.4583],[127.8922,26.458],[127.8945,26.4565],[127.8964,26.4557],[127.8986,26.4548],[127.9015,26.454],[127.9045,26.4537],[127.907,26.4531],[127.9101,26.4494],[127.9163,26.4481],[127.9182,26.4473],[127.8722,26.4597]]},"properties":{"name":"trafo_132/7kV","loading_pct":80.0,"p_mw":151.2}},{"type":"Feature","geometry":{"type":"LineString","coordinates":[[127.8263,26.3919],[127.8295,26.3907],[127.8323,26.3898],[127.8332,26.39],[127.8346,26.3903],[127.8369,26.3903],[127.8403,26.3905],[127.844,26.3911],[127.8473,26.3924],[127.8504,26.3933],[127.853,26.3931]]},"properties":{"name":"trafo_132/66kV","loading_pct":2.5,"p_mw":-3.8}},{"type":"Feature","geometry":{"type":"LineString","coordinates":[[127.8263,26.3919],[127.8266,26.3859],[127.8258,26.3837],[127.8244,26.3818],[127.8222,26.3799],[127.8202,26.3786],[127.818,26.376],[127.8166,26.3745],[127.815,26.3717],[127.8143,26.3688],[127.8138,26.3663],[127.8113,26.3655],[127.8116,26.3631],[127.8102,26.3606],[127.8096,26.3588],[127.8083,26.3563],[127.8069,26.3543]]},"properties":{"name":"trafo_132/66kV","loading_pct":56.6,"p_mw":84.9}},{"type":"Feature","geometry":{"type":"LineString","coordinates":[[127.8115,26.3045],[127.8127,26.3056],[127.8094,26.3106],[127.8093,26.3133],[127.8094,26.3163],[127.8106,26.3187],[127.8129,26.3208],[127.8147,26.3225],[127.8156,26.3238],[127.8173,26.3251],[127.8197,26.3267],[127.8221,26.3284],[127.8249,26.333],[127.8257,26.3353],[127.8278,26.3368],[127.8295,26.3388],[127.833,26.3402],[127.8346,26.341],[127.837,26.3423],[127.8069,26.3543]]},"properties":{"name":"trafo_132/66kV","loading_pct":66.8,"p_mw":-100.1}},{"type":"Feature","geometry":{"type":"LineString","coordinates":[[127.8263,26.3919],[127.8261,26.3934],[127.8247,26.3946],[127.8232,26.3957],[127.8213,26.3963],[127.8213,26.4001],[127.8212,26.404],[127.8186,26.4057],[127.8153,26.4075],[127.8132,26.409],[127.8112,26.412],[127.8105,26.4152],[127.8104,26.4178],[127.81,26.4206],[127.8104,26.4237],[127.8145,26.4298],[127.8152,26.433]]},"properties":{"name":"trafo_132/66kV","loading_pct":74.5,"p_mw":-111.7}},{"type":"Feature","geometry":{"type":"LineString","coordinates":[[127.8387,26.4428],[127.8369,26.4406],[127.8346,26.4418]]},"properties":{"name":"trafo_132/66kV","loading_pct":3.1,"p_mw":-4.7}},{"type":"Feature","geometry":{"type":"LineString","coordinates":[[127.8387,26.4428],[127.8369,26.4406],[127.8346,26.4418]]},"properties":{"name":"trafo_132/66kV","loading_pct":3.1,"p_mw":-4.7}},{"type":"Feature","geometry":{"type":"LineString","coordinates":[[127.7592,26.2358],[127.7581,26.2337],[127.758,26.2332],[127.758,26.2329],[127.7579,26.232],[127.7583,26.2302],[127.7581,26.2285],[127.7583,26.227],[127.7582,26.2258],[127.7581,26.2241],[127.757,26.2223],[127.7556,26.2205],[127.7529,26.2171],[127.7543,26.2146],[127.755,26.213],[127.7539,26.2113],[127.753,26.2095],[127.7517,26.2072],[127.7482,26.2043],[127.7476,26.204]]},"properties":{"name":"trafo_132/66kV","loading_pct":79.3,"p_mw":187.4}},{"type":"Feature","geometry":{"type":"LineString","coordinates":[[127.7193,26.2687],[127.7186,26.2683],[127.7175,26.2684],[127.7172,26.2684],[127.7166,26.2684],[127.7146,26.2689],[127.7138,26.2679],[127.7126,26.2673],[127.7117,26.2661],[127.7097,26.2647],[127.7089,26.2635],[127.7091,26.2593]]},"properties":{"name":"trafo_132/66kV","loading_pct":80.8,"p_mw":177.0}},{"type":"Feature","geometry":{"type":"LineString","coordinates":[[127.756,26.2859],[127.7567,26.2864],[127.7575,26.2864],[127.7596,26.2873],[127.7605,26.2895],[127.7625,26.2906],[127.7645,26.2917],[127.7655,26.2933],[127.7633,26.2951],[127.7629,26.2973],[127.763,26.2998],[127.7637,26.3022],[127.7679,26.3034],[127.77,26.3048],[127.7748,26.3055],[127.7771,26.3068],[127.7797,26.307],[127.78,26.3071],[127.7803,26.3071],[127.7808,26.3072],[127.7817,26.3072]]},"properties":{"name":"trafo_132/66kV","loading_pct":86.6,"p_mw":-182.2}},{"type":"Feature","geometry":{"type":"LineString","coordinates":[[127.756,26.2859],[127.7555,26.2839],[127.7554,26.2829],[127.7546,26.2823],[127.7532,26.2812],[127.7515,26.2798],[127.7501,26.2788],[127.7557,26.2857]]},"properties":{"name":"trafo_132/66kV","loading_pct":16.1,"p_mw":24.2}},{"type":"Feature","geometry":{"type":"LineString","coordinates":[[127.8263,26.3919],[127.828,26.3944],[127.8273,26.3966],[127.8241,26.3969],[127.8229,26.3987],[127.8225,26.4015],[127.8225,26.4017],[127.8225,26.4044],[127.8229,26.4119]]},"properties":{"name":"trafo_132/66kV","loading_pct":16.1,"p_mw":24.2}},{"type":"Feature","geometry":{"type":"LineString","coordinates":[[127.8387,26.4428],[127.8369,26.4406],[127.8346,26.4418]]},"properties":{"name":"trafo_132/66kV","loading_pct":3.1,"p_mw":-4.7}},{"type":"Feature","geometry":{"type":"LineString","coordinates":[[127.7592,26.2358],[127.7579,26.2365],[127.7554,26.2379],[127.7527,26.2387],[127.7513,26.2393],[127.7508,26.2395],[127.7496,26.2403],[127.7494,26.2404],[127.7481,26.2411],[127.7463,26.2411],[127.7449,26.2416],[127.7428,26.243]]},"properties":{"name":"trafo_132/66kV","loading_pct":34.6,"p_mw":51.9}},{"type":"Feature","geometry":{"type":"LineString","coordinates":[[127.7592,26.2358],[127.7608,26.2341],[127.7618,26.2334],[127.7649,26.2332],[127.7673,26.233],[127.7702,26.232],[127.7719,26.2326],[127.7726,26.2318]]},"properties":{"name":"trafo_132/66kV","loading_pct":12.8,"p_mw":19.2}},{"type":"Feature","geometry":{"type":"LineString","coordinates":[[127.7192,26.1659],[127.7397,26.1655],[127.7419,26.1662],[127.7444,26.1657],[127.7474,26.1667],[127.7505,26.1668],[127.7533,26.1674],[127.7545,26.1674],[127.757,26.1677],[127.7604,26.1679],[127.7636,26.167],[127.7648,26.1657],[127.7662,26.1643],[127.7682,26.164],[127.771,26.1637],[127.7736,26.1633],[127.777,26.1637],[127.7776,26.1634],[127.7797,26.162],[127.7821,26.1614],[127.7842,26.1603],[127.7867,26.1595],[127.7876,26.1596]]},"properties":{"name":"trafo_132/66kV","loading_pct":12.8,"p_mw":19.2}},{"type":"Feature","geometry":{"type":"LineString","coordinates":[[127.7192,26.1659],[127.7381,26.1617],[127.7389,26.1587],[127.7398,26.1571],[127.7395,26.1544],[127.7394,26.1519],[127.7404,26.1505],[127.7406,26.1502],[127.7415,26.1486],[127.7423,26.146],[127.7438,26.1441],[127.7443,26.142],[127.7449,26.14],[127.7462,26.1382],[127.747,26.1357],[127.748,26.134],[127.749,26.1321],[127.7502,26.1302],[127.7509,26.1289],[127.7514,26.128]]},"properties":{"name":"trafo_132/66kV","loading_pct":9.5,"p_mw":14.3}},{"type":"Feature","geometry":{"type":"LineString","coordinates":[[127.8115,26.3045],[127.7957,26.2763],[127.7961,26.2787],[127.7957,26.2805],[127.7961,26.2823],[127.7955,26.2844],[127.7946,26.285],[127.7931,26.2862],[127.7907,26.2879],[127.7886,26.2894],[127.7873,26.2901],[127.7877,26.2915],[127.7817,26.3072]]},"properties":{"name":"trafo_132/66kV","loading_pct":25.9,"p_mw":38.9}},{"type":"Feature","geometry":{"type":"LineString","coordinates":[[127.8115,26.3045],[127.7957,26.2763],[127.7961,26.2787],[127.7957,26.2805],[127.7961,26.2823],[127.7955,26.2844],[127.7946,26.285],[127.7931,26.2862],[127.7907,26.2879],[127.7886,26.2894],[127.7873,26.2901],[127.7877,26.2915],[127.7817,26.3072]]},"properties":{"name":"trafo_132/66kV","loading_pct":25.9,"p_mw":38.9}},{"type":"Feature","geometry":{"type":"LineString","coordinates":[[127.8736,26.3812],[127.8517,26.3522],[127.8807,26.3318]]},"properties":{"name":"trafo_132/66kV","loading_pct":68.3,"p_mw":102.4}},{"type":"Feature","geometry":{"type":"LineString","coordinates":[[127.8736,26.3812],[127.874,26.3815],[127.872,26.3828],[127.8705,26.3855],[127.8701,26.3873],[127.8674,26.3884],[127.8661,26.3872],[127.862,26.3864],[127.8594,26.3862],[127.8586,26.3882],[127.8578,26.3899],[127.8556,26.3914],[127.8542,26.3927],[127.853,26.3931]]},"properties":{"name":"trafo_132/66kV","loading_pct":18.6,"p_mw":27.9}},{"type":"Feature","geometry":{"type":"LineString","coordinates":[[127.7192,26.1659],[127.7191,26.1652],[127.7183,26.1661],[127.7167,26.167],[127.7152,26.1673],[127.7135,26.1677],[127.7121,26.1684],[127.7098,26.1698],[127.7072,26.1715],[127.7049,26.1731],[127.6876,26.1754]]},"properties":{"name":"trafo_132/66kV","loading_pct":26.9,"p_mw":40.4}},{"type":"Feature","geometry":{"type":"LineString","coordinates":[[127.8263,26.3919],[127.8266,26.3859],[127.8258,26.3837],[127.8244,26.3818],[127.8222,26.3799],[127.8202,26.3786],[127.818,26.376],[127.8166,26.3745],[127.815,26.3717],[127.8143,26.3688],[127.8138,26.3663],[127.8113,26.3655],[127.8116,26.3631],[127.8102,26.3606],[127.8096,26.3588],[127.8083,26.3563],[127.8069,26.3543]]},"properties":{"name":"trafo_132/66kV","loading_pct":56.6,"p_mw":84.9}}]}