{"type":"FeatureCollection","features":[{"type":"Feature","geometry":{"type":"Point","coordinates":[127.8722,26.4597]},"properties":{"name":"\u4f0a\u82b8\u5909\u96fb\u6240","vm_pu":1.0,"va_deg":12.35,"vn_kv":6.6}},{"type":"Feature","geometry":{"type":"Point","coordinates":[127.6745,26.1908]},"properties":{"name":"\u5c0f\u7984\u5909\u96fb\u6240","vm_pu":0.9425,"va_deg":-21.54,"vn_kv":66.0}},{"type":"Feature","geometry":{"type":"Point","coordinates":[127.7129,26.1986]},"properties":{"name":"\u4e0a\u9593\u5909\u96fb\u6240","vm_pu":0.9477,"va_deg":-22.16,"vn_kv":66.0}},{"type":"Feature","geometry":{"type":"Point","coordinates":[127.7324,26.1817]},"properties":{"name":"\u5357\u98a8\u539f\u5909\u96fb\u6240","vm_pu":0.9727,"va_deg":-16.01,"vn_kv":66.0}},{"type":"Feature","geometry":{"type":"Point","coordinates":[127.7514,26.128]},"properties":{"name":"\u9577\u6bdb\u5909\u96fb\u6240","vm_pu":1.0,"va_deg":-21.12,"vn_kv":66.0}},{"type":"Feature","geometry":{"type":"Point","coordinates":[127.7557,26.2857]},"properties":{"name":"\u4f0a\u4f50\u4e00\u4e01\u76ee\u5909\u96fb\u6240","vm_pu":0.9927,"va_deg":-12.07,"vn_kv":66.0}},{"type":"Feature","geometry":{"type":"Point","coordinates":[127.8152,26.433]},"properties":{"name":"\u4ef2\u6cca\u5909\u96fb\u6240","vm_pu":0.9945,"va_deg":3.66,"vn_kv":66.0}},{"type":"Feature","geometry":{"type":"Point","coordinates":[127.756,26.2859]},"properties":{"name":"\u4f0a\u4f50\u4e00\u4e01\u76ee\u5909\u96fb\u6240_2","vm_pu":0.9979,"va_deg":-11.34,"vn_kv":132.0}},{"type":"Feature","geometry":{"type":"Point","coordinates":[127.6835,26.2199]},"properties":{"name":"\u4e45\u8302\u5730\u5909\u96fb\u6240","vm_pu":0.9447,"va_deg":-19.94,"vn_kv":66.0}},{"type":"Feature","geometry":{"type":"Point","coordinates":[127.6802,26.2217]},"properties":{"name":"\u897f\u90a3\u8987\u5909\u96fb\u6240","vm_pu":0.9443,"va_deg":-19.97,"vn_kv":66.0}},{"type":"Feature","geometry":{"type":"Point","coordinates":[127.6624,26.1642]},"properties":{"name":"\u6c96\u7e04\u96fb\u529b\u4e0e\u6839\u5909\u96fb\u6240","vm_pu":0.9609,"va_deg":-22.5,"vn_kv":66.0}},{"type":"Feature","geometry":{"type":"Point","coordinates":[127.8263,26.3919]},"properties":{"name":"\u3046\u308b\u307e\u5e02\u5909\u96fb\u6240","vm_pu":1.0,"va_deg":0.0,"vn_kv":132.0}},{"type":"Feature","geometry":{"type":"Point","coordinates":[127.8115,26.3045]},"properties":{"name":"\u6e21\u53e3\u5909\u96fb\u6240","vm_pu":1.0,"va_deg":-6.05,"vn_kv":132.0}},{"type":"Feature","geometry":{"type":"Point","coordinates":[127.7476,26.204]},"properties":{"name":"\u4e0e\u90a3\u539f\u5909\u96fb\u6240","vm_pu":0.9785,"va_deg":-13.44,"vn_kv":66.0}},{"type":"Feature","geometry":{"type":"Point","coordinates":[127.664,26.2061]},"properties":{"name":"\u90a3\u8987\u5909\u96fb\u6240","vm_pu":0.9409,"va_deg":-21.1,"vn_kv":66.0}},{"type":"Feature","geometry":{"type":"Point","coordinates":[127.7091,26.2593]},"properties":{"name":"\u6e2f\u5ddd\u5909\u96fb\u6240","vm_pu":0.9779,"va_deg":-15.94,"vn_kv":66.0}},{"type":"Feature","geometry":{"type":"Point","coordinates":[127.7193,26.2687]},"properties":{"name":"\u7267\u6e2f\u4e94\u4e01\u76ee\u5909\u96fb\u6240","vm_pu":1.0,"va_deg":-12.16,"vn_kv":132.0}},{"type":"Feature","geometry":{"type":"Point","coordinates":[127.7817,26.3072]},"properties":{"name":"\u745e\u6176\u89a7\u5909\u96fb\u6240","vm_pu":0.9956,"va_deg":-7.23,"vn_kv":66.0}},{"type":"Feature","geometry":{"type":"Point","coordinates":[127.8069,26.3543]},"properties":{"name":"\u7f8e\u91cc\u516d\u4e01\u76ee\u5909\u96fb\u6240","vm_pu":1.0,"va_deg":-2.76,"vn_kv":66.0}},{"type":"Feature","geometry":{"type":"Point","coordinates":[127.8346,26.4418]},"properties":{"name":"\u77f3\u5ddd\u6771\u5c71\u4e00\u4e01\u76ee\u5909\u96fb\u6240","vm_pu":1.0,"va_deg":8.05,"vn_kv":66.0}},{"type":"Feature","geometry":{"type":"Point","coordinates":[127.8387,26.4428]},"properties":{"name":"\u77f3\u5ddd\u6771\u5c71\u4e8c\u4e01\u76ee\u5909\u96fb\u6240","vm_pu":1.0,"va_deg":10.3,"vn_kv":132.0}},{"type":"Feature","geometry":{"type":"Point","coordinates":[127.7428,26.243]},"properties":{"name":"\u524d\u7530\u5909\u96fb\u6240","vm_pu":0.9919,"va_deg":-11.27,"vn_kv":66.0}},{"type":"Feature","geometry":{"type":"Point","coordinates":[127.7726,26.2318]},"properties":{"name":"\u5c0f\u90a3\u8987\u5909\u96fb\u6240","vm_pu":1.0,"va_deg":-10.27,"vn_kv":66.0}},{"type":"Feature","geometry":{"type":"Point","coordinates":[127.7192,26.1659]},"properties":{"name":"\u53cb\u5bc4\u5909\u96fb\u6240","vm_pu":0.9763,"va_deg":-20.58,"vn_kv":132.0}},{"type":"Feature","geometry":{"type":"Point","coordinates":[127.7876,26.1596]},"properties":{"name":"\u4f50\u6577\u5909\u96fb\u6240","vm_pu":1.0,"va_deg":-21.27,"vn_kv":66.0}},{"type":"Feature","geometry":{"type":"Point","coordinates":[127.6922,26.1357]},"properties":{"name":"\u5927\u91cc\u5909\u96fb\u6240","vm_pu":0.9654,"va_deg":-22.12,"vn_kv":66.0}},{"type":"Feature","geometry":{"type":"Point","coordinates":[127.8807,26.3318]},"properties":{"name":"\u5ddd\u7530\u5909\u96fb\u6240","vm_pu":0.9998,"va_deg":-2.29,"vn_kv":66.0}},{"type":"Feature","geometry":{"type":"Point","coordinates":[127.8736,26.3812]},"properties":{"name":"\u5b87\u5805\u5909\u96fb\u6240","vm_pu":1.0,"va_deg":0.96,"vn_kv":132.0}},{"type":"Feature","geometry":{"type":"Point","coordinates":[127.853,26.3931]},"properties":{"name":"\u77f3\u5ddd\u6771\u6069\u7d0d\u5909\u96fb\u6240","vm_pu":0.9974,"va_deg":0.12,"vn_kv":66.0}},{"type":"Feature","geometry":{"type":"Point","coordinates":[127.8229,26.4119]},"properties":{"name":"\u77f3\u5ddd\u66d9\u4e09\u4e01\u76ee\u5909\u96fb\u6240","vm_pu":0.9948,"va_deg":-0.73,"vn_kv":66.0}},{"type":"Feature","geometry":{"type":"Point","coordinates":[127.7592,26.2358]},"properties":{"name":"\u897f\u539f\u5909\u96fb\u6240","vm_pu":0.9895,"va_deg":-9.64,"vn_kv":132.0}},{"type":"Feature","geometry":{"type":"Point","coordinates":[127.6876,26.1754]},"properties":{"name":"\u4e0a\u7530\u5909\u96fb\u6240","vm_pu":0.9511,"va_deg":-21.86,"vn_kv":66.0}},{"type":"Feature","geometry":{"type":"Point","coordinates":[127.703,26.2296]},"properties":{"name":"\u5317\u90a3\u8987\u5909\u96fb\u6240","vm_pu":0.9991,"va_deg":-12.24,"vn_kv":132.0}},{"type":"Feature","geometry":{"type":"Point","coordinates":[127.68,26.2085]},"properties":{"name":"\u58f7\u5ddd\u5909\u96fb\u6240","vm_pu":0.9421,"va_deg":-20.48,"vn_kv":66.0}},{"type":"Feature","geometry":{"type":"Point","coordinates":[127.6884,26.2416]},"properties":{"name":"\u66d9\u5909\u96fb\u6240","vm_pu":0.961,"va_deg":-17.81,"vn_kv":66.0}}]}