{"type":"FeatureCollection","features":[{"type":"Feature","geometry":{"type":"Point","coordinates":[127.8722,26.4597]},"properties":{"name":"\u4f0a\u82b8\u5909\u96fb\u6240","vm_pu":1.0,"va_deg":1.2,"vn_kv":6.6}},{"type":"Feature","geometry":{"type":"Point","coordinates":[127.8808,26.6922]},"properties":{"name":"\u6d77\u6d0b\u535a\u5909\u96fb\u6240","vm_pu":1.0,"va_deg":-1358.93,"vn_kv":66.0}},{"type":"Feature","geometry":{"type":"Point","coordinates":[127.6745,26.1908]},"properties":{"name":"\u5c0f\u7984\u5909\u96fb\u6240","vm_pu":1.0,"va_deg":-20.49,"vn_kv":66.0}},{"type":"Feature","geometry":{"type":"Point","coordinates":[127.7129,26.1986]},"properties":{"name":"\u4e0a\u9593\u5909\u96fb\u6240","vm_pu":1.0,"va_deg":-20.94,"vn_kv":66.0}},{"type":"Feature","geometry":{"type":"Point","coordinates":[127.7324,26.1817]},"properties":{"name":"\u5357\u98a8\u539f\u5909\u96fb\u6240","vm_pu":1.0,"va_deg":-15.17,"vn_kv":66.0}},{"type":"Feature","geometry":{"type":"Point","coordinates":[127.7514,26.128]},"properties":{"name":"\u9577\u6bdb\u5909\u96fb\u6240","vm_pu":1.0,"va_deg":-19.85,"vn_kv":66.0}},{"type":"Feature","geometry":{"type":"Point","coordinates":[127.7557,26.2857]},"properties":{"name":"\u4f0a\u4f50\u4e00\u4e01\u76ee\u5909\u96fb\u6240","vm_pu":1.0,"va_deg":-11.53,"vn_kv":66.0}},{"type":"Feature","geometry":{"type":"Point","coordinates":[127.8152,26.433]},"properties":{"name":"\u4ef2\u6cca\u5909\u96fb\u6240","vm_pu":1.0,"va_deg":3.41,"vn_kv":66.0}},{"type":"Feature","geometry":{"type":"Point","coordinates":[128.1696,26.7309]},"properties":{"name":"\u5965\u9593\u5909\u96fb\u6240","vm_pu":1.0,"va_deg":-1408.84,"vn_kv":13.8}},{"type":"Feature","geometry":{"type":"Point","coordinates":[127.756,26.2859]},"properties":{"name":"\u4f0a\u4f50\u4e00\u4e01\u76ee\u5909\u96fb\u6240_2","vm_pu":1.0,"va_deg":-10.79,"vn_kv":132.0}},{"type":"Feature","geometry":{"type":"Point","coordinates":[127.6835,26.2199]},"properties":{"name":"\u4e45\u8302\u5730\u5909\u96fb\u6240","vm_pu":1.0,"va_deg":-19.13,"vn_kv":66.0}},{"type":"Feature","geometry":{"type":"Point","coordinates":[128.0343,26.5255]},"properties":{"name":"Henoko Substation","vm_pu":1.0,"va_deg":-1347.62,"vn_kv":66.0}},{"type":"Feature","geometry":{"type":"Point","coordinates":[127.6802,26.2217]},"properties":{"name":"\u897f\u90a3\u8987\u5909\u96fb\u6240","vm_pu":1.0,"va_deg":-19.16,"vn_kv":66.0}},{"type":"Feature","geometry":{"type":"Point","coordinates":[127.6624,26.1642]},"properties":{"name":"\u6c96\u7e04\u96fb\u529b\u4e0e\u6839\u5909\u96fb\u6240","vm_pu":1.0,"va_deg":-21.28,"vn_kv":66.0}},{"type":"Feature","geometry":{"type":"Point","coordinates":[127.9927,26.5088]},"properties":{"name":"\u677e\u7530\u5909\u96fb\u6240","vm_pu":1.0,"va_deg":-1342.1,"vn_kv":66.0}},{"type":"Feature","geometry":{"type":"Point","coordinates":[127.9876,26.6103]},"properties":{"name":"\u540d\u8b77\u96fb\u529b\u6240","vm_pu":1.0,"va_deg":-1358.1,"vn_kv":66.0}},{"type":"Feature","geometry":{"type":"Point","coordinates":[127.8263,26.3919]},"properties":{"name":"\u3046\u308b\u307e\u5e02\u5909\u96fb\u6240","vm_pu":1.0,"va_deg":0.0,"vn_kv":132.0}},{"type":"Feature","geometry":{"type":"Point","coordinates":[127.8115,26.3045]},"properties":{"name":"\u6e21\u53e3\u5909\u96fb\u6240","vm_pu":1.0,"va_deg":-5.64,"vn_kv":132.0}},{"type":"Feature","geometry":{"type":"Point","coordinates":[127.7476,26.204]},"properties":{"name":"\u4e0e\u90a3\u539f\u5909\u96fb\u6240","vm_pu":1.0,"va_deg":-12.76,"vn_kv":66.0}},{"type":"Feature","geometry":{"type":"Point","coordinates":[127.664,26.2061]},"properties":{"name":"\u90a3\u8987\u5909\u96fb\u6240","vm_pu":1.0,"va_deg":-20.14,"vn_kv":66.0}},{"type":"Feature","geometry":{"type":"Point","coordinates":[127.7091,26.2593]},"properties":{"name":"\u6e2f\u5ddd\u5909\u96fb\u6240","vm_pu":1.0,"va_deg":-15.26,"vn_kv":66.0}},{"type":"Feature","geometry":{"type":"Point","coordinates":[127.7193,26.2687]},"properties":{"name":"\u7267\u6e2f\u4e94\u4e01\u76ee\u5909\u96fb\u6240","vm_pu":1.0,"va_deg":-11.57,"vn_kv":132.0}},{"type":"Feature","geometry":{"type":"Point","coordinates":[127.7817,26.3072]},"properties":{"name":"\u745e\u6176\u89a7\u5909\u96fb\u6240","vm_pu":1.0,"va_deg":-6.83,"vn_kv":66.0}},{"type":"Feature","geometry":{"type":"Point","coordinates":[127.8069,26.3543]},"properties":{"name":"\u7f8e\u91cc\u516d\u4e01\u76ee\u5909\u96fb\u6240","vm_pu":1.0,"va_deg":-2.59,"vn_kv":66.0}},{"type":"Feature","geometry":{"type":"Point","coordinates":[127.8346,26.4418]},"properties":{"name":"\u77f3\u5ddd\u6771\u5c71\u4e00\u4e01\u76ee\u5909\u96fb\u6240","vm_pu":1.0,"va_deg":5.0,"vn_kv":66.0}},{"type":"Feature","geometry":{"type":"Point","coordinates":[127.8387,26.4428]},"properties":{"name":"\u77f3\u5ddd\u6771\u5c71\u4e8c\u4e01\u76ee\u5909\u96fb\u6240","vm_pu":1.0,"va_deg":4.86,"vn_kv":132.0}},{"type":"Feature","geometry":{"type":"Point","coordinates":[127.7428,26.243]},"properties":{"name":"\u524d\u7530\u5909\u96fb\u6240","vm_pu":1.0,"va_deg":-10.72,"vn_kv":66.0}},{"type":"Feature","geometry":{"type":"Point","coordinates":[127.7726,26.2318]},"properties":{"name":"\u5c0f\u90a3\u8987\u5909\u96fb\u6240","vm_pu":1.0,"va_deg":-9.72,"vn_kv":66.0}},{"type":"Feature","geometry":{"type":"Point","coordinates":[127.7192,26.1659]},"properties":{"name":"\u53cb\u5bc4\u5909\u96fb\u6240","vm_pu":1.0,"va_deg":-19.41,"vn_kv":132.0}},{"type":"Feature","geometry":{"type":"Point","coordinates":[127.7876,26.1596]},"properties":{"name":"\u4f50\u6577\u5909\u96fb\u6240","vm_pu":1.0,"va_deg":-20.0,"vn_kv":66.0}},{"type":"Feature","geometry":{"type":"Point","coordinates":[127.9066,26.6571]},"properties":{"name":"\u6771\u5909\u96fb\u6240","vm_pu":1.0,"va_deg":-1358.78,"vn_kv":66.0}},{"type":"Feature","geometry":{"type":"Point","coordinates":[127.6922,26.1357]},"properties":{"name":"\u5927\u91cc\u5909\u96fb\u6240","vm_pu":1.0,"va_deg":-20.89,"vn_kv":66.0}},{"type":"Feature","geometry":{"type":"Point","coordinates":[128.1295,26.6574]},"properties":{"name":"\u7530\u6e2f\u5909\u96fb\u6240","vm_pu":1.0,"va_deg":-1361.15,"vn_kv":66.0}},{"type":"Feature","geometry":{"type":"Point","coordinates":[127.8807,26.3318]},"properties":{"name":"\u5ddd\u7530\u5909\u96fb\u6240","vm_pu":1.0,"va_deg":-2.16,"vn_kv":66.0}},{"type":"Feature","geometry":{"type":"Point","coordinates":[127.8736,26.3812]},"properties":{"name":"\u5b87\u5805\u5909\u96fb\u6240","vm_pu":1.0,"va_deg":0.97,"vn_kv":132.0}},{"type":"Feature","geometry":{"type":"Point","coordinates":[127.853,26.3931]},"properties":{"name":"\u77f3\u5ddd\u6771\u6069\u7d0d\u5909\u96fb\u6240","vm_pu":1.0,"va_deg":0.12,"vn_kv":66.0}},{"type":"Feature","geometry":{"type":"Point","coordinates":[127.9786,26.6744]},"properties":{"name":"\u4ef2\u5b97\u6839\u5909\u96fb\u6240","vm_pu":1.0,"va_deg":-1358.64,"vn_kv":66.0}},{"type":"Feature","geometry":{"type":"Point","coordinates":[127.9369,26.6116]},"properties":{"name":"\u5c71\u5165\u7aef\u5909\u96fb\u6240","vm_pu":1.0,"va_deg":-1358.7,"vn_kv":66.0}},{"type":"Feature","geometry":{"type":"Point","coordinates":[127.9908,26.587]},"properties":{"name":"\u540d\u8b77\u5e02\u5909\u96fb\u6240","vm_pu":1.0,"va_deg":-1357.92,"vn_kv":66.0}},{"type":"Feature","geometry":{"type":"Point","coordinates":[127.9396,26.5356]},"properties":{"name":"\u559c\u702c\u5909\u96fb\u6240","vm_pu":1.0,"va_deg":-1360.35,"vn_kv":66.0}},{"type":"Feature","geometry":{"type":"Point","coordinates":[127.8263,26.4561]},"properties":{"name":"\u6069\u7d0d\u6751\u5909\u96fb\u6240","vm_pu":1.0,"va_deg":-1362.76,"vn_kv":66.0}},{"type":"Feature","geometry":{"type":"Point","coordinates":[127.8229,26.4119]},"properties":{"name":"\u77f3\u5ddd\u66d9\u4e09\u4e01\u76ee\u5909\u96fb\u6240","vm_pu":1.0,"va_deg":-0.74,"vn_kv":66.0}},{"type":"Feature","geometry":{"type":"Point","coordinates":[127.7592,26.2358]},"properties":{"name":"\u897f\u539f\u5909\u96fb\u6240","vm_pu":1.0,"va_deg":-9.14,"vn_kv":132.0}},{"type":"Feature","geometry":{"type":"Point","coordinates":[127.6876,26.1754]},"properties":{"name":"\u4e0a\u7530\u5909\u96fb\u6240","vm_pu":1.0,"va_deg":-20.64,"vn_kv":66.0}},{"type":"Feature","geometry":{"type":"Point","coordinates":[127.703,26.2296]},"properties":{"name":"\u5317\u90a3\u8987\u5909\u96fb\u6240","vm_pu":1.0,"va_deg":-11.65,"vn_kv":132.0}},{"type":"Feature","geometry":{"type":"Point","coordinates":[127.68,26.2085]},"properties":{"name":"\u58f7\u5ddd\u5909\u96fb\u6240","vm_pu":1.0,"va_deg":-19.61,"vn_kv":66.0}},{"type":"Feature","geometry":{"type":"Point","coordinates":[127.6884,26.2416]},"properties":{"name":"\u66d9\u5909\u96fb\u6240","vm_pu":1.0,"va_deg":-17.1,"vn_kv":66.0}}]}