{"type":"FeatureCollection","features":[{"type":"Feature","geometry":{"type":"LineString","coordinates":[[127.6745,26.1908],[127.6734,26.1913],[127.6724,26.1926],[127.6713,26.194],[127.6704,26.1949],[127.6694,26.1959],[127.6693,26.1961],[127.6696,26.197],[127.6696,26.197],[127.6696,26.1971],[127.6698,26.1978],[127.6699,26.1993],[127.6699,26.2001],[127.6698,26.2009],[127.6697,26.2012],[127.6691,26.2018],[127.669,26.2018],[127.6684,26.2023],[127.6674,26.2031],[127.667,26.2035],[127.666,26.2044],[127.665,26.2054],[127.664,26.2061]]},"properties":{"name":"\u90a3\u8987\u9ad8\u5b89\u7dda; \u90a3\u8987\u5c0f\u7984\u7dda","loading_pct":55.3,"p_mw":-31.0}},{"type":"Feature","geometry":{"type":"LineString","coordinates":[[127.6745,26.1908],[127.6742,26.1908],[127.6746,26.1906],[127.6746,26.1906],[127.6762,26.1899],[127.6763,26.1898],[127.6764,26.1898],[127.6764,26.1898],[127.6778,26.1892],[127.6789,26.1888],[127.6799,26.1884],[127.6802,26.1882],[127.6816,26.1877],[127.6835,26.1869],[127.6851,26.1863],[127.6866,26.1858],[127.6877,26.1855],[127.6881,26.1854],[127.69,26.1851],[127.6909,26.1849],[127.6926,26.1845],[127.6942,26.1842],[127.6959,26.1838],[127.6976,26.1838],[127.6991,26.1834],[127.7001,26.1823],[127.7005,26.1813],[127.7018,26.1805],[127.7023,26.1788],[127.7025,26.1771],[127.6876,26.1754]]},"properties":{"name":"\u90a3\u8987\u9ad8\u5b89\u7dda; \u5c0f\u7984\u7dda","loading_pct":41.1,"p_mw":6.9}},{"type":"Feature","geometry":{"type":"LineString","coordinates":[[127.7129,26.1986],[127.7128,26.197],[127.7127,26.1956],[127.7126,26.1936],[127.7126,26.1935],[127.7117,26.1922],[127.7107,26.1907],[127.7093,26.1886],[127.7082,26.1869],[127.7067,26.1861],[127.7056,26.1856],[127.7046,26.1852],[127.7025,26.1843],[127.7013,26.184],[127.6998,26.1837],[127.6876,26.1754]]},"properties":{"name":"\u7e41\u591a\u5ddd\u7dda","loading_pct":39.1,"p_mw":-24.2}},{"type":"Feature","geometry":{"type":"LineString","coordinates":[[127.7324,26.1817],[127.7328,26.1845],[127.7346,26.1868],[127.7356,26.1881],[127.7367,26.19],[127.7368,26.1903],[127.7382,26.1934],[127.739,26.1943],[127.7394,26.1968],[127.7406,26.199],[127.7418,26.2014],[127.7431,26.2022],[127.7453,26.203],[127.746,26.2033],[127.747,26.2037],[127.747,26.2041],[127.7476,26.204]]},"properties":{"name":"\u5357\u98a8\u539f\u5909\u96fb\u6240~\u4e0e\u90a3\u539f\u5909\u96fb\u6240\u7dda","loading_pct":82.7,"p_mw":-165.8}},{"type":"Feature","geometry":{"type":"LineString","coordinates":[[127.7592,26.2358],[127.7633,26.2359],[127.7667,26.2359],[127.7696,26.2378],[127.7715,26.2397],[127.7728,26.241],[127.7749,26.2427],[127.7764,26.244],[127.7778,26.246],[127.7797,26.2485],[127.7811,26.2497],[127.7826,26.2514],[127.783,26.2528],[127.7838,26.2548],[127.7845,26.2569],[127.7855,26.2589],[127.7864,26.2618],[127.7871,26.2636],[127.7876,26.2649],[127.7881,26.2672],[127.7894,26.2689],[127.7916,26.2719],[127.7926,26.2731],[127.7946,26.2743],[127.7958,26.275],[127.7971,26.2758],[127.7989,26.2772],[127.8,26.278],[127.8041,26.2804],[127.8059,26.2809],[127.8083,26.2822],[127.8101,26.2831],[127.8112,26.283],[127.8104,26.2835],[127.8112,26.2854],[127.8118,26.2873],[127.8129,26.2903],[127.8117,26.2914],[127.8106,26.2928],[127.8102,26.2946],[127.8098,26.2962],[127.8093,26.2981],[127.8101,26.3002],[127.811,26.3025],[127.8115,26.3045]]},"properties":{"name":"\u897f\u539f\u5909\u96fb\u6240~\u6e21\u53e3\u5909\u96fb\u6240\u7dda","loading_pct":78.3,"p_mw":-280.1}},{"type":"Feature","geometry":{"type":"LineString","coordinates":[[127.756,26.2859],[127.7554,26.2859],[127.7545,26.2846],[127.7544,26.2845],[127.7543,26.2844],[127.7538,26.2838],[127.7533,26.2833],[127.7524,26.2827],[127.751,26.2817],[127.7452,26.2779],[127.7435,26.2768],[127.7404,26.274],[127.7398,26.2732],[127.7391,26.2718],[127.7387,26.271],[127.7379,26.2703],[127.7374,26.2701],[127.7368,26.2698],[127.7363,26.2696],[127.7331,26.2689],[127.7297,26.2681],[127.7253,26.2667],[127.7244,26.2665],[127.7236,26.2664],[127.7226,26.2665],[127.7207,26.267],[127.721,26.2677],[127.7211,26.2682],[127.7193,26.2687]]},"properties":{"name":"\u4f0a\u4f50\u4e00\u4e01\u76ee\u5909\u96fb\u6240_2~\u7267\u6e2f\u4e94\u4e01\u76ee\u5909\u96fb\u6240\u7dda","loading_pct":54.7,"p_mw":144.8}},{"type":"Feature","geometry":{"type":"LineString","coordinates":[[127.8069,26.3543],[127.8052,26.3526],[127.8039,26.3508],[127.7997,26.3448],[127.7985,26.3429],[127.7975,26.3416],[127.7964,26.3397],[127.794,26.3377],[127.7911,26.3373],[127.7887,26.3376],[127.7863,26.3352],[127.7837,26.3341],[127.7814,26.3329],[127.7821,26.3307],[127.7831,26.3283],[127.7841,26.3261],[127.7851,26.3242],[127.7863,26.3229],[127.7879,26.322],[127.7879,26.321],[127.7872,26.3194],[127.7867,26.3183],[127.7874,26.3169],[127.7883,26.3159],[127.7886,26.3139],[127.7877,26.3121],[127.7817,26.3072]]},"properties":{"name":"\u7f8e\u91cc\u516d\u4e01\u76ee\u5909\u96fb\u6240~\u745e\u6176\u89a7\u5909\u96fb\u6240\u7dda","loading_pct":98.1,"p_mw":134.5}},{"type":"Feature","geometry":{"type":"LineString","coordinates":[[127.6922,26.1357],[127.6915,26.1373],[127.6915,26.1373],[127.6888,26.1372],[127.6861,26.1387],[127.6845,26.1391],[127.6841,26.1406],[127.6838,26.142],[127.6829,26.144],[127.68,26.1449],[127.6791,26.1463],[127.6784,26.1498],[127.6764,26.1515],[127.6757,26.1534],[127.6624,26.1642]]},"properties":{"name":"\u5927\u91cc\u5909\u96fb\u6240~\u6c96\u7e04\u96fb\u529b\u4e0e\u6839\u5909\u96fb\u6240\u7dda","loading_pct":38.6,"p_mw":24.2}},{"type":"Feature","geometry":{"type":"LineString","coordinates":[[127.6884,26.2416],[127.6925,26.2438],[127.6888,26.2396],[127.6876,26.2378],[127.6858,26.2341],[127.6856,26.2325],[127.6862,26.2301],[127.6863,26.2284],[127.686,26.2271],[127.6853,26.2257],[127.6839,26.2229],[127.6828,26.2208],[127.6835,26.2199]]},"properties":{"name":"\u66d9\u5909\u96fb\u6240~\u4e45\u8302\u5730\u5909\u96fb\u6240\u7dda","loading_pct":86.1,"p_mw":129.7}},{"type":"Feature","geometry":{"type":"LineString","coordinates":[[127.7091,26.2593],[127.7101,26.2586],[127.71,26.2582],[127.7096,26.2578],[127.7075,26.2558],[127.7068,26.2551],[127.7065,26.2549],[127.704,26.2524],[127.7034,26.2519],[127.7029,26.2515],[127.7022,26.251],[127.7011,26.2503],[127.6989,26.2489],[127.6982,26.2482],[127.6969,26.2467],[127.6966,26.2465],[127.6959,26.2461],[127.6884,26.2416]]},"properties":{"name":"\u6e2f\u5ddd\u5909\u96fb\u6240~\u66d9\u5909\u96fb\u6240\u7dda","loading_pct":86.2,"p_mw":155.5}},{"type":"Feature","geometry":{"type":"LineString","coordinates":[[127.8152,26.433],[127.8174,26.4349],[127.8195,26.4373],[127.8227,26.4396],[127.8254,26.4418],[127.8285,26.4431],[127.8315,26.4443],[127.8346,26.4418]]},"properties":{"name":"\u4ef2\u6cca\u5909\u96fb\u6240~\u77f3\u5ddd\u6771\u5c71\u4e00\u4e01\u76ee\u5909\u96fb\u6240\u7dda","loading_pct":79.8,"p_mw":-367.2}},{"type":"Feature","geometry":{"type":"LineString","coordinates":[[127.8069,26.3543],[127.8387,26.3467],[127.8401,26.3494],[127.8427,26.351],[127.8451,26.3512],[127.8474,26.3513],[127.8807,26.3318]]},"properties":{"name":"\u7f8e\u91cc\u516d\u4e01\u76ee\u5909\u96fb\u6240~\u5ddd\u7530\u5909\u96fb\u6240\u7dda","loading_pct":37.3,"p_mw":-50.5}},{"type":"Feature","geometry":{"type":"LineString","coordinates":[[127.8069,26.3543],[127.8387,26.3467],[127.8401,26.3494],[127.8427,26.351],[127.8451,26.3512],[127.8474,26.3513],[127.8807,26.3318]]},"properties":{"name":"\u7f8e\u91cc\u516d\u4e01\u76ee\u5909\u96fb\u6240~\u5ddd\u7530\u5909\u96fb\u6240\u7dda","loading_pct":47.5,"p_mw":-30.9}},{"type":"Feature","geometry":{"type":"LineString","coordinates":[[127.8736,26.3812],[127.851,26.3557],[127.8486,26.3578],[127.8458,26.3596],[127.8446,26.3605],[127.8426,26.3626],[127.842,26.3654],[127.8415,26.3678],[127.8409,26.3708],[127.8392,26.3736],[127.8372,26.3757],[127.8385,26.3773],[127.8354,26.3797],[127.8329,26.3818],[127.8319,26.3825],[127.8315,26.3849],[127.8293,26.3849],[127.8273,26.3865],[127.827,26.3891],[127.8263,26.3919]]},"properties":{"name":"\u5b87\u5805\u5909\u96fb\u6240~\u3046\u308b\u307e\u5e02\u5909\u96fb\u6240\u7dda","loading_pct":53.3,"p_mw":145.3}},{"type":"Feature","geometry":{"type":"LineString","coordinates":[[127.664,26.2061],[127.6668,26.2053],[127.6668,26.2053],[127.6679,26.2048],[127.6695,26.2042],[127.6709,26.2042],[127.6719,26.2045],[127.6729,26.2052],[127.6733,26.2056],[127.6737,26.2061],[127.6742,26.2072],[127.68,26.2085]]},"properties":{"name":"\u90a3\u8987\u5909\u96fb\u6240~\u58f7\u5ddd\u5909\u96fb\u6240\u7dda","loading_pct":86.9,"p_mw":-55.2}},{"type":"Feature","geometry":{"type":"LineString","coordinates":[[127.6835,26.2199],[127.6812,26.2214],[127.6802,26.2217]]},"properties":{"name":"\u4e45\u8302\u5730\u5909\u96fb\u6240~\u897f\u90a3\u8987\u5909\u96fb\u6240\u7dda","loading_pct":39.3,"p_mw":24.2}},{"type":"Feature","geometry":{"type":"LineString","coordinates":[[127.703,26.2296],[127.703,26.2305],[127.7036,26.2316],[127.7064,26.2342],[127.7069,26.2348],[127.7073,26.2353],[127.7074,26.2356],[127.711,26.2443],[127.7118,26.2458],[127.7122,26.2462],[127.7127,26.2468],[127.7138,26.2475],[127.7156,26.2483],[127.7167,26.2491],[127.7179,26.25],[127.7218,26.2531],[127.7236,26.2543],[127.7193,26.2687]]},"properties":{"name":"\u6d66\u6dfb\u5927\u540d\u7dda","loading_pct":13.0,"p_mw":-16.9}},{"type":"Feature","geometry":{"type":"LineString","coordinates":[[127.68,26.2085],[127.6763,26.214],[127.6798,26.2169],[127.6808,26.2182],[127.6812,26.2187],[127.6819,26.2194],[127.682,26.2196],[127.6835,26.2199]]},"properties":{"name":"\u58f7\u5ddd\u5909\u96fb\u6240~\u4e45\u8302\u5730\u5909\u96fb\u6240\u7dda","loading_pct":85.9,"p_mw":-79.6}},{"type":"Feature","geometry":{"type":"LineString","coordinates":[[127.7193,26.2687],[127.7264,26.2544],[127.7273,26.2534],[127.7281,26.2527],[127.7295,26.2516],[127.7308,26.2508],[127.7324,26.2497],[127.7338,26.2486],[127.7355,26.2476],[127.7379,26.2459],[127.7428,26.243]]},"properties":{"name":"trafo_132/66kV","loading_pct":21.8,"p_mw":-27.8}},{"type":"Feature","geometry":{"type":"LineString","coordinates":[[127.7192,26.1659],[127.7199,26.1648],[127.7189,26.1626],[127.7176,26.16],[127.7175,26.1579],[127.7168,26.1554],[127.7162,26.1539],[127.7139,26.1514],[127.7124,26.149],[127.7104,26.1471],[127.7075,26.1469],[127.7043,26.1471],[127.7018,26.1458],[127.7001,26.1431],[127.6976,26.1415],[127.6954,26.1402],[127.6939,26.1382],[127.6922,26.1357]]},"properties":{"name":"trafo_132/66kV","loading_pct":35.2,"p_mw":48.5}},{"type":"Feature","geometry":{"type":"LineString","coordinates":[[127.7192,26.1659],[127.7202,26.1673],[127.7221,26.1673],[127.7233,26.1677],[127.7247,26.1684],[127.7256,26.1689],[127.7271,26.1714],[127.7265,26.1734],[127.7286,26.1751],[127.7306,26.1784],[127.7316,26.181],[127.7324,26.1817]]},"properties":{"name":"trafo_132/66kV","loading_pct":97.3,"p_mw":-140.9}},{"type":"Feature","geometry":{"type":"LineString","coordinates":[[127.8387,26.4428],[127.8467,26.4527],[127.8482,26.4543],[127.8497,26.4557],[127.8524,26.4583],[127.855,26.4591],[127.8587,26.4603],[127.861,26.4604],[127.8632,26.4607],[127.8664,26.4613],[127.869,26.4619],[127.8717,26.462],[127.8746,26.462],[127.8789,26.4622],[127.8817,26.4616],[127.8839,26.4606],[127.8866,26.4594],[127.8886,26.4586],[127.8905,26.4583],[127.8922,26.458],[127.8945,26.4565],[127.8964,26.4557],[127.8986,26.4548],[127.9015,26.454],[127.9045,26.4537],[127.907,26.4531],[127.9101,26.4494],[127.9163,26.4481],[127.9182,26.4473],[127.8722,26.4597]]},"properties":{"name":"trafo_132/7kV","loading_pct":44.7,"p_mw":-84.2}},{"type":"Feature","geometry":{"type":"LineString","coordinates":[[127.8263,26.3919],[127.8295,26.3907],[127.8323,26.3898],[127.8332,26.39],[127.8346,26.3903],[127.8369,26.3903],[127.8403,26.3905],[127.844,26.3911],[127.8473,26.3924],[127.8504,26.3933],[127.853,26.3931]]},"properties":{"name":"trafo_132/66kV","loading_pct":4.2,"p_mw":-3.5}},{"type":"Feature","geometry":{"type":"LineString","coordinates":[[127.8263,26.3919],[127.8266,26.3859],[127.8258,26.3837],[127.8244,26.3818],[127.8222,26.3799],[127.8202,26.3786],[127.818,26.376],[127.8166,26.3745],[127.815,26.3717],[127.8143,26.3688],[127.8138,26.3663],[127.8113,26.3655],[127.8116,26.3631],[127.8102,26.3606],[127.8096,26.3588],[127.8083,26.3563],[127.8069,26.3543]]},"properties":{"name":"trafo_132/66kV","loading_pct":60.2,"p_mw":90.3}},{"type":"Feature","geometry":{"type":"LineString","coordinates":[[127.8115,26.3045],[127.8127,26.3056],[127.8094,26.3106],[127.8093,26.3133],[127.8094,26.3163],[127.8106,26.3187],[127.8129,26.3208],[127.8147,26.3225],[127.8156,26.3238],[127.8173,26.3251],[127.8197,26.3267],[127.8221,26.3284],[127.8249,26.333],[127.8257,26.3353],[127.8278,26.3368],[127.8295,26.3388],[127.833,26.3402],[127.8346,26.341],[127.837,26.3423],[127.8069,26.3543]]},"properties":{"name":"trafo_132/66kV","loading_pct":71.8,"p_mw":-107.2}},{"type":"Feature","geometry":{"type":"LineString","coordinates":[[127.8263,26.3919],[127.8261,26.3934],[127.8247,26.3946],[127.8232,26.3957],[127.8213,26.3963],[127.8213,26.4001],[127.8212,26.404],[127.8186,26.4057],[127.8153,26.4075],[127.8132,26.409],[127.8112,26.412],[127.8105,26.4152],[127.8104,26.4178],[127.81,26.4206],[127.8104,26.4237],[127.8145,26.4298],[127.8152,26.433]]},"properties":{"name":"trafo_132/66kV","loading_pct":80.0,"p_mw":-341.6}},{"type":"Feature","geometry":{"type":"LineString","coordinates":[[127.8387,26.4428],[127.8369,26.4406],[127.8346,26.4418]]},"properties":{"name":"trafo_132/66kV","loading_pct":49.2,"p_mw":73.7}},{"type":"Feature","geometry":{"type":"LineString","coordinates":[[127.8387,26.4428],[127.8369,26.4406],[127.8346,26.4418]]},"properties":{"name":"trafo_132/66kV","loading_pct":49.2,"p_mw":73.7}},{"type":"Feature","geometry":{"type":"LineString","coordinates":[[127.7592,26.2358],[127.7581,26.2337],[127.758,26.2332],[127.758,26.2329],[127.7579,26.232],[127.7583,26.2302],[127.7581,26.2285],[127.7583,26.227],[127.7582,26.2258],[127.7581,26.2241],[127.757,26.2223],[127.7556,26.2205],[127.7529,26.2171],[127.7543,26.2146],[127.755,26.213],[127.7539,26.2113],[127.753,26.2095],[127.7517,26.2072],[127.7482,26.2043],[127.7476,26.204]]},"properties":{"name":"trafo_132/66kV","loading_pct":82.7,"p_mw":191.7}},{"type":"Feature","geometry":{"type":"LineString","coordinates":[[127.7193,26.2687],[127.7186,26.2683],[127.7175,26.2684],[127.7172,26.2684],[127.7166,26.2684],[127.7146,26.2689],[127.7138,26.2679],[127.7126,26.2673],[127.7117,26.2661],[127.7097,26.2647],[127.7089,26.2635],[127.7091,26.2593]]},"properties":{"name":"trafo_132/66kV","loading_pct":86.1,"p_mw":180.5}},{"type":"Feature","geometry":{"type":"LineString","coordinates":[[127.756,26.2859],[127.7567,26.2864],[127.7575,26.2864],[127.7596,26.2873],[127.7605,26.2895],[127.7625,26.2906],[127.7645,26.2917],[127.7655,26.2933],[127.7633,26.2951],[127.7629,26.2973],[127.763,26.2998],[127.7637,26.3022],[127.7679,26.3034],[127.77,26.3048],[127.7748,26.3055],[127.7771,26.3068],[127.7797,26.307],[127.78,26.3071],[127.7803,26.3071],[127.7808,26.3072],[127.7817,26.3072]]},"properties":{"name":"trafo_132/66kV","loading_pct":89.4,"p_mw":-185.9}},{"type":"Feature","geometry":{"type":"LineString","coordinates":[[127.756,26.2859],[127.7555,26.2839],[127.7554,26.2829],[127.7546,26.2823],[127.7532,26.2812],[127.7515,26.2798],[127.7501,26.2788],[127.7557,26.2857]]},"properties":{"name":"trafo_132/66kV","loading_pct":17.1,"p_mw":24.2}},{"type":"Feature","geometry":{"type":"LineString","coordinates":[[127.8263,26.3919],[127.828,26.3944],[127.8273,26.3966],[127.8241,26.3969],[127.8229,26.3987],[127.8225,26.4015],[127.8225,26.4017],[127.8225,26.4044],[127.8229,26.4119]]},"properties":{"name":"trafo_132/66kV","loading_pct":17.1,"p_mw":24.2}},{"type":"Feature","geometry":{"type":"LineString","coordinates":[[127.8387,26.4428],[127.8369,26.4406],[127.8346,26.4418]]},"properties":{"name":"trafo_132/66kV","loading_pct":49.2,"p_mw":73.7}},{"type":"Feature","geometry":{"type":"LineString","coordinates":[[127.7592,26.2358],[127.7579,26.2365],[127.7554,26.2379],[127.7527,26.2387],[127.7513,26.2393],[127.7508,26.2395],[127.7496,26.2403],[127.7494,26.2404],[127.7481,26.2411],[127.7463,26.2411],[127.7449,26.2416],[127.7428,26.243]]},"properties":{"name":"trafo_132/66kV","loading_pct":35.5,"p_mw":52.2}},{"type":"Feature","geometry":{"type":"LineString","coordinates":[[127.7592,26.2358],[127.7608,26.2341],[127.7618,26.2334],[127.7649,26.2332],[127.7673,26.233],[127.7702,26.232],[127.7719,26.2326],[127.7726,26.2318]]},"properties":{"name":"trafo_132/66kV","loading_pct":19.1,"p_mw":19.3}},{"type":"Feature","geometry":{"type":"LineString","coordinates":[[127.7192,26.1659],[127.7397,26.1655],[127.7419,26.1662],[127.7444,26.1657],[127.7474,26.1667],[127.7505,26.1668],[127.7533,26.1674],[127.7545,26.1674],[127.757,26.1677],[127.7604,26.1679],[127.7636,26.167],[127.7648,26.1657],[127.7662,26.1643],[127.7682,26.164],[127.771,26.1637],[127.7736,26.1633],[127.777,26.1637],[127.7776,26.1634],[127.7797,26.162],[127.7821,26.1614],[127.7842,26.1603],[127.7867,26.1595],[127.7876,26.1596]]},"properties":{"name":"trafo_132/66kV","loading_pct":33.2,"p_mw":19.3}},{"type":"Feature","geometry":{"type":"LineString","coordinates":[[127.7192,26.1659],[127.7381,26.1617],[127.7389,26.1587],[127.7398,26.1571],[127.7395,26.1544],[127.7394,26.1519],[127.7404,26.1505],[127.7406,26.1502],[127.7415,26.1486],[127.7423,26.146],[127.7438,26.1441],[127.7443,26.142],[127.7449,26.14],[127.7462,26.1382],[127.747,26.1357],[127.748,26.134],[127.749,26.1321],[127.7502,26.1302],[127.7509,26.1289],[127.7514,26.128]]},"properties":{"name":"trafo_132/66kV","loading_pct":31.8,"p_mw":14.4}},{"type":"Feature","geometry":{"type":"LineString","coordinates":[[127.8115,26.3045],[127.7957,26.2763],[127.7961,26.2787],[127.7957,26.2805],[127.7961,26.2823],[127.7955,26.2844],[127.7946,26.285],[127.7931,26.2862],[127.7907,26.2879],[127.7886,26.2894],[127.7873,26.2901],[127.7877,26.2915],[127.7817,26.3072]]},"properties":{"name":"trafo_132/66kV","loading_pct":26.3,"p_mw":39.0}},{"type":"Feature","geometry":{"type":"LineString","coordinates":[[127.8115,26.3045],[127.7957,26.2763],[127.7961,26.2787],[127.7957,26.2805],[127.7961,26.2823],[127.7955,26.2844],[127.7946,26.285],[127.7931,26.2862],[127.7907,26.2879],[127.7886,26.2894],[127.7873,26.2901],[127.7877,26.2915],[127.7817,26.3072]]},"properties":{"name":"trafo_132/66kV","loading_pct":26.3,"p_mw":39.0}},{"type":"Feature","geometry":{"type":"LineString","coordinates":[[127.8736,26.3812],[127.8517,26.3522],[127.8807,26.3318]]},"properties":{"name":"trafo_132/66kV","loading_pct":70.8,"p_mw":106.1}},{"type":"Feature","geometry":{"type":"LineString","coordinates":[[127.8736,26.3812],[127.874,26.3815],[127.872,26.3828],[127.8705,26.3855],[127.8701,26.3873],[127.8674,26.3884],[127.8661,26.3872],[127.862,26.3864],[127.8594,26.3862],[127.8586,26.3882],[127.8578,26.3899],[127.8556,26.3914],[127.8542,26.3927],[127.853,26.3931]]},"properties":{"name":"trafo_132/66kV","loading_pct":18.6,"p_mw":27.7}},{"type":"Feature","geometry":{"type":"LineString","coordinates":[[127.7192,26.1659],[127.7191,26.1652],[127.7183,26.1661],[127.7167,26.167],[127.7152,26.1673],[127.7135,26.1677],[127.7121,26.1684],[127.7098,26.1698],[127.7072,26.1715],[127.7049,26.1731],[127.6876,26.1754]]},"properties":{"name":"trafo_132/66kV","loading_pct":41.5,"p_mw":41.7}},{"type":"Feature","geometry":{"type":"LineString","coordinates":[[127.8263,26.3919],[127.8266,26.3859],[127.8258,26.3837],[127.8244,26.3818],[127.8222,26.3799],[127.8202,26.3786],[127.818,26.376],[127.8166,26.3745],[127.815,26.3717],[127.8143,26.3688],[127.8138,26.3663],[127.8113,26.3655],[127.8116,26.3631],[127.8102,26.3606],[127.8096,26.3588],[127.8083,26.3563],[127.8069,26.3543]]},"properties":{"name":"trafo_132/66kV","loading_pct":60.2,"p_mw":90.3}}]}