{"type":"FeatureCollection","features":[{"type":"Feature","geometry":{"type":"Point","coordinates":[133.1822,34.2996]},"properties":{"name":"\u56e0\u5cf6\u5909\u96fb\u6240","vm_pu":1.0,"va_deg":-2.76,"vn_kv":110.0}},{"type":"Feature","geometry":{"type":"Point","coordinates":[132.4925,34.3932]},"properties":{"name":"\u5e83\u5cf6\u88dc\u52a9\u304d\u96fb\u533a\u5206\u6240","vm_pu":1.0,"va_deg":-2.03,"vn_kv":110.0}},{"type":"Feature","geometry":{"type":"Point","coordinates":[134.0508,34.3241]},"properties":{"name":"\u6817\u6797\u5909\u96fb\u6240","vm_pu":1.0,"va_deg":-3.71,"vn_kv":66.0}},{"type":"Feature","geometry":{"type":"Point","coordinates":[134.0028,34.2258]},"properties":{"name":"\u9999\u5ddd\u5909\u96fb\u6240","vm_pu":1.0,"va_deg":-4.23,"vn_kv":187.0}},{"type":"Feature","geometry":{"type":"Point","coordinates":[133.9866,34.29]},"properties":{"name":"\u9ad8\u677e\u5909\u96fb\u6240","vm_pu":1.0,"va_deg":-1.14,"vn_kv":187.0}},{"type":"Feature","geometry":{"type":"Point","coordinates":[133.9535,34.165]},"properties":{"name":"\u8b83\u5c90\u5909\u96fb\u6240","vm_pu":1.0,"va_deg":0.0,"vn_kv":500.0}},{"type":"Feature","geometry":{"type":"Point","coordinates":[133.9431,34.2462]},"properties":{"name":"\u7dbe\u5357\u5909\u96fb\u6240","vm_pu":1.0,"va_deg":-4.13,"vn_kv":66.0}},{"type":"Feature","geometry":{"type":"Point","coordinates":[133.9806,34.3074]},"properties":{"name":"\u7aef\u5ca1\u5909\u96fb\u6240","vm_pu":1.0,"va_deg":-2.69,"vn_kv":66.0}},{"type":"Feature","geometry":{"type":"Point","coordinates":[134.0155,34.2403]},"properties":{"name":"\u7531\u4f50\u5909\u96fb\u6240","vm_pu":1.0,"va_deg":-4.72,"vn_kv":66.0}},{"type":"Feature","geometry":{"type":"Point","coordinates":[133.8612,34.3236]},"properties":{"name":"\u662d\u548c\u753a\u4e8c\u4e01\u76ee\u5909\u96fb\u6240","vm_pu":1.0,"va_deg":-0.19,"vn_kv":66.0}},{"type":"Feature","geometry":{"type":"Point","coordinates":[133.8014,34.2996]},"properties":{"name":"\u5bcc\u58eb\u898b\u5909\u96fb\u6240","vm_pu":1.0,"va_deg":-4.02,"vn_kv":66.0}},{"type":"Feature","geometry":{"type":"Point","coordinates":[133.821,34.3072]},"properties":{"name":"\u5b87\u591a\u6d25\u5909\u96fb\u6240","vm_pu":1.0,"va_deg":-3.82,"vn_kv":66.0}},{"type":"Feature","geometry":{"type":"Point","coordinates":[133.8632,34.2836]},"properties":{"name":"\u5742\u51fa\u5909\u96fb\u6240","vm_pu":1.0,"va_deg":-3.64,"vn_kv":66.0}},{"type":"Feature","geometry":{"type":"Point","coordinates":[133.881,34.3332]},"properties":{"name":"\u6797\u7530\u753a\u5909\u96fb\u6240","vm_pu":1.0,"va_deg":-0.32,"vn_kv":66.0}},{"type":"Feature","geometry":{"type":"Point","coordinates":[133.8588,34.3129]},"properties":{"name":"\u7b20\u5c71\u5909\u96fb\u6240","vm_pu":1.0,"va_deg":-3.9,"vn_kv":66.0}},{"type":"Feature","geometry":{"type":"Point","coordinates":[133.8623,34.3021]},"properties":{"name":"\u798f\u6c5f\u753a\u4e09\u4e01\u76ee\u5909\u96fb\u6240","vm_pu":1.0,"va_deg":0.11,"vn_kv":500.0}},{"type":"Feature","geometry":{"type":"Point","coordinates":[134.0386,34.3108]},"properties":{"name":"\u56db\u56fd\u96fb\u529b\u4e0a\u5929\u795e\u5909\u96fb\u6240","vm_pu":1.0,"va_deg":-3.07,"vn_kv":66.0}},{"type":"Feature","geometry":{"type":"Point","coordinates":[133.7616,34.1853]},"properties":{"name":"\u56db\u56fd\u96fb\u529b\u9ebb\u5909\u96fb\u6240","vm_pu":1.0,"va_deg":-0.47,"vn_kv":187.0}},{"type":"Feature","geometry":{"type":"Point","coordinates":[132.7768,33.8212]},"properties":{"name":"\u56db\u56fd\u96fb\u529b \u5929\u5c71\u5909\u96fb\u6240","vm_pu":1.0,"va_deg":-1.28,"vn_kv":66.0}},{"type":"Feature","geometry":{"type":"Point","coordinates":[132.8043,33.8346]},"properties":{"name":"\u677e\u5c71\u5909\u96fb\u6240","vm_pu":1.0,"va_deg":-0.57,"vn_kv":187.0}},{"type":"Feature","geometry":{"type":"Point","coordinates":[132.8796,33.8061]},"properties":{"name":"\u5fd7\u6d25\u5ddd\u5357\u4e09\u4e01\u76ee\u5909\u96fb\u6240","vm_pu":1.0,"va_deg":-0.41,"vn_kv":500.0}},{"type":"Feature","geometry":{"type":"Point","coordinates":[133.3948,33.944]},"properties":{"name":"\u6771\u4e88\u5909\u96fb\u6240","vm_pu":1.0,"va_deg":-0.35,"vn_kv":500.0}},{"type":"Feature","geometry":{"type":"Point","coordinates":[132.9288,33.7922]},"properties":{"name":"\u5ddd\u5185\u767a\u96fb\u6240","vm_pu":1.0,"va_deg":-0.41,"vn_kv":500.0}},{"type":"Feature","geometry":{"type":"Point","coordinates":[133.2234,33.9129]},"properties":{"name":"\u897f\u6761\u5909\u96fb\u6240","vm_pu":1.0,"va_deg":-0.81,"vn_kv":187.0}},{"type":"Feature","geometry":{"type":"Point","coordinates":[133.2849,33.9754]},"properties":{"name":"\u65b0\u9808\u8cc0\u5909\u96fb\u6240","vm_pu":1.0,"va_deg":-1.26,"vn_kv":187.0}},{"type":"Feature","geometry":{"type":"Point","coordinates":[133.2782,33.9794]},"properties":{"name":"\u83ca\u672c\u753a\u4e00\u4e01\u76ee\u5909\u96fb\u6240","vm_pu":1.0,"va_deg":-1.59,"vn_kv":110.0}},{"type":"Feature","geometry":{"type":"Point","coordinates":[132.6895,34.3799]},"properties":{"name":"\u5357\u897f\u6761\u5909\u96fb\u6240","vm_pu":1.0,"va_deg":-1.4,"vn_kv":220.0}},{"type":"Feature","geometry":{"type":"Point","coordinates":[133.5469,33.536]},"properties":{"name":"\u5b55\u5909\u96fb\u6240","vm_pu":1.0,"va_deg":-1.76,"vn_kv":66.0}},{"type":"Feature","geometry":{"type":"Point","coordinates":[133.5654,33.5615]},"properties":{"name":"\u77e5\u5bc4\u753a\u4e09\u4e01\u76ee\u5909\u96fb\u6240","vm_pu":1.0,"va_deg":-4.14,"vn_kv":66.0}},{"type":"Feature","geometry":{"type":"Point","coordinates":[134.1247,34.3426]},"properties":{"name":"\u725f\u793c\u753a\u725f\u793c\u5909\u96fb\u6240","vm_pu":1.0,"va_deg":-6.09,"vn_kv":66.0}},{"type":"Feature","geometry":{"type":"Point","coordinates":[134.2486,34.2908]},"properties":{"name":"\u6d25\u7530\u5909\u96fb\u6240","vm_pu":1.0,"va_deg":-15.27,"vn_kv":66.0}},{"type":"Feature","geometry":{"type":"Point","coordinates":[132.4763,34.3632]},"properties":{"name":"\u4e39\u90a3\u753a\u5909\u96fb\u6240","vm_pu":1.0,"va_deg":-2.35,"vn_kv":110.0}},{"type":"Feature","geometry":{"type":"Point","coordinates":[134.0004,34.2132]},"properties":{"name":"\u7dbe\u5ddd\u753a\u5909\u96fb\u6240","vm_pu":1.0,"va_deg":-4.25,"vn_kv":187.0}},{"type":"Feature","geometry":{"type":"Point","coordinates":[133.9997,34.2067]},"properties":{"name":"\u7dbe\u5ddd\u753a\u5909\u96fb\u6240_2","vm_pu":1.0,"va_deg":-4.25,"vn_kv":187.0}},{"type":"Feature","geometry":{"type":"Point","coordinates":[133.4844,33.5069]},"properties":{"name":"\u6625\u91ce\u5909\u96fb\u6240","vm_pu":1.0,"va_deg":-1.9,"vn_kv":66.0}},{"type":"Feature","geometry":{"type":"Point","coordinates":[133.6545,34.1229]},"properties":{"name":"\u89b3\u97f3\u5bfa\u5909\u96fb\u6240","vm_pu":1.0,"va_deg":-0.55,"vn_kv":187.0}},{"type":"Feature","geometry":{"type":"Point","coordinates":[134.4083,34.0008]},"properties":{"name":"\u963f\u6ce2\u5909\u96fb\u6240","vm_pu":1.0,"va_deg":0.43,"vn_kv":500.0}},{"type":"Feature","geometry":{"type":"Point","coordinates":[134.3423,34.2472]},"properties":{"name":"\u5927\u5185\u5909\u96fb\u6240","vm_pu":1.0,"va_deg":-12.01,"vn_kv":66.0}},{"type":"Feature","geometry":{"type":"Point","coordinates":[134.4689,34.0627]},"properties":{"name":"\u56fd\u5e9c\u5909\u96fb\u6240","vm_pu":1.0,"va_deg":0.7,"vn_kv":187.0}},{"type":"Feature","geometry":{"type":"Point","coordinates":[134.5908,34.004]},"properties":{"name":"\u5357\u5c0f\u677e\u5cf6\u753a\u5909\u96fb\u6240","vm_pu":1.0,"va_deg":1.77,"vn_kv":66.0}},{"type":"Feature","geometry":{"type":"Point","coordinates":[134.5166,34.117]},"properties":{"name":"\u5fdc\u795e\u5909\u96fb\u6240","vm_pu":1.0,"va_deg":-1.13,"vn_kv":66.0}},{"type":"Feature","geometry":{"type":"Point","coordinates":[133.6713,33.5724]},"properties":{"name":"\u7acb\u7530\u5909\u96fb\u6240","vm_pu":1.0,"va_deg":-1.53,"vn_kv":66.0}},{"type":"Feature","geometry":{"type":"Point","coordinates":[133.7477,33.5504]},"properties":{"name":"\u591c\u9808\u753a\u5909\u96fb\u6240","vm_pu":1.0,"va_deg":-1.99,"vn_kv":66.0}},{"type":"Feature","geometry":{"type":"Point","coordinates":[132.8744,34.257]},"properties":{"name":"\u5927\u5d0e\u4e0a\u5cf6\u753a\u5909\u96fb\u6240","vm_pu":1.0,"va_deg":-0.18,"vn_kv":220.0}},{"type":"Feature","geometry":{"type":"Point","coordinates":[132.5825,34.2559]},"properties":{"name":"\u4e0a\u5e73\u539f\u5909\u96fb\u6240","vm_pu":1.0,"va_deg":-3.55,"vn_kv":110.0}},{"type":"Feature","geometry":{"type":"Point","coordinates":[132.6175,34.2443]},"properties":{"name":"\u5449\u5909\u96fb\u6240","vm_pu":1.0,"va_deg":-2.38,"vn_kv":110.0}},{"type":"Feature","geometry":{"type":"Point","coordinates":[132.627,34.3198]},"properties":{"name":"\u9ed2\u702c\u5909\u96fb\u6240","vm_pu":1.0,"va_deg":-1.62,"vn_kv":110.0}},{"type":"Feature","geometry":{"type":"Point","coordinates":[132.9045,34.3516]},"properties":{"name":"\u672c\u753a\u56db\u4e01\u76ee\u5909\u96fb\u6240","vm_pu":1.0,"va_deg":-0.86,"vn_kv":220.0}},{"type":"Feature","geometry":{"type":"Point","coordinates":[133.3258,34.3993]},"properties":{"name":"\u6cbc\u9688\u753a\u5927\u5b57\u8349\u6df1\u5909\u96fb\u6240","vm_pu":1.0,"va_deg":-3.75,"vn_kv":110.0}},{"type":"Feature","geometry":{"type":"Point","coordinates":[133.1822,34.2996]},"properties":{"name":"\u56e0\u5cf6\u4e09\u5e84\u753a\u5909\u96fb\u6240","vm_pu":1.0,"va_deg":-2.48,"vn_kv":110.0}},{"type":"Feature","geometry":{"type":"Point","coordinates":[132.5517,34.2221]},"properties":{"name":"\u5bae\u539f\u5909\u96fb\u6240","vm_pu":1.0,"va_deg":-3.45,"vn_kv":110.0}},{"type":"Feature","geometry":{"type":"Point","coordinates":[132.5163,34.1526]},"properties":{"name":"\u5009\u6a4b\u5909\u96fb\u6240","vm_pu":1.0,"va_deg":-6.73,"vn_kv":66.0}},{"type":"Feature","geometry":{"type":"Point","coordinates":[132.4805,34.1681]},"properties":{"name":"\u5927\u67ff\u753a\u5927\u541b\u5909\u96fb\u6240","vm_pu":1.0,"va_deg":-8.58,"vn_kv":66.0}},{"type":"Feature","geometry":{"type":"Point","coordinates":[134.349,33.6021]},"properties":{"name":"\u591a\u826f\u5909\u96fb\u6240","vm_pu":1.0,"va_deg":-6.21,"vn_kv":66.0}},{"type":"Feature","geometry":{"type":"Point","coordinates":[134.5166,34.0724]},"properties":{"name":"\u5357\u5e84\u753a\u4e00\u4e01\u76ee\u5909\u96fb\u6240","vm_pu":1.0,"va_deg":0.08,"vn_kv":66.0}},{"type":"Feature","geometry":{"type":"Point","coordinates":[133.2735,33.5117]},"properties":{"name":"\u4f50\u5ddd\u5909\u96fb\u6240","vm_pu":1.0,"va_deg":-19.78,"vn_kv":66.0}},{"type":"Feature","geometry":{"type":"Point","coordinates":[133.3113,33.902]},"properties":{"name":"\u4f4f\u53cb\u5171\u540c\u96fb\u529b\u7aef\u51fa\u5834\u5909\u96fb\u6240","vm_pu":1.0,"va_deg":-1.29,"vn_kv":110.0}},{"type":"Feature","geometry":{"type":"Point","coordinates":[133.8282,34.3335]},"properties":{"name":"\u53d7\u96fb\u6240","vm_pu":1.0,"va_deg":0.19,"vn_kv":500.0}},{"type":"Feature","geometry":{"type":"Point","coordinates":[134.6162,33.8727]},"properties":{"name":"\u6851\u91ce\u5909\u96fb\u6240","vm_pu":1.0,"va_deg":2.75,"vn_kv":187.0}},{"type":"Feature","geometry":{"type":"Point","coordinates":[133.891,34.0327]},"properties":{"name":"\u4e95\u5ddd\u5909\u96fb\u6240","vm_pu":1.0,"va_deg":-0.07,"vn_kv":187.0}},{"type":"Feature","geometry":{"type":"Point","coordinates":[133.69,33.6356]},"properties":{"name":"\u571f\u4f50\u5c71\u7530\u753a\u65b0\u6539\u5909\u96fb\u6240","vm_pu":1.0,"va_deg":-1.05,"vn_kv":187.0}},{"type":"Feature","geometry":{"type":"Point","coordinates":[133.5322,33.5511]},"properties":{"name":"\u5927\u539f\u753a\u5909\u96fb\u6240","vm_pu":1.0,"va_deg":-1.99,"vn_kv":66.0}},{"type":"Feature","geometry":{"type":"Point","coordinates":[133.4763,33.5668]},"properties":{"name":"\u9ad8\u77e5\u5909\u96fb\u6240","vm_pu":1.0,"va_deg":-1.3,"vn_kv":187.0}},{"type":"Feature","geometry":{"type":"Point","coordinates":[132.7012,33.793]},"properties":{"name":"\u5927\u5b57\u6d5c\u5909\u96fb\u6240","vm_pu":1.0,"va_deg":-1.59,"vn_kv":66.0}},{"type":"Feature","geometry":{"type":"Point","coordinates":[132.5571,33.5563]},"properties":{"name":"\u5927\u6d32\u5909\u96fb\u6240","vm_pu":1.0,"va_deg":-0.34,"vn_kv":187.0}},{"type":"Feature","geometry":{"type":"Point","coordinates":[133.2553,33.9671]},"properties":{"name":"\u65b0\u5c45\u6d5c\u5e02\u5909\u96fb\u6240","vm_pu":1.0,"va_deg":-1.46,"vn_kv":110.0}},{"type":"Feature","geometry":{"type":"Point","coordinates":[133.2475,33.9512]},"properties":{"name":"\u5225\u5b50\u914d\u96fb\u30bb\u30f3\u30bf\u30fc","vm_pu":1.0,"va_deg":-1.04,"vn_kv":187.0}},{"type":"Feature","geometry":{"type":"Point","coordinates":[133.2486,33.9537]},"properties":{"name":"\u78ef\u6d66\u753a\u5909\u96fb\u6240","vm_pu":1.0,"va_deg":-1.35,"vn_kv":110.0}},{"type":"Feature","geometry":{"type":"Point","coordinates":[133.2486,33.9527]},"properties":{"name":"\u78ef\u6d66\u753a\u5909\u96fb\u6240_2","vm_pu":1.0,"va_deg":-1.04,"vn_kv":187.0}},{"type":"Feature","geometry":{"type":"Point","coordinates":[133.3043,33.9514]},"properties":{"name":"\u65b0\u5c45\u6d5c\u5909\u96fb\u6240","vm_pu":1.0,"va_deg":-3.47,"vn_kv":66.0}},{"type":"Feature","geometry":{"type":"Point","coordinates":[133.5579,33.977]},"properties":{"name":"\u4e09\u5cf6\u5909\u96fb\u6240","vm_pu":1.0,"va_deg":-0.77,"vn_kv":187.0}},{"type":"Feature","geometry":{"type":"Point","coordinates":[133.1684,33.9264]},"properties":{"name":"\u559c\u591a\u5ddd\u5909\u96fb\u6240","vm_pu":1.0,"va_deg":0.0,"vn_kv":66.0}},{"type":"Feature","geometry":{"type":"Point","coordinates":[133.1669,33.932]},"properties":{"name":"\u559c\u591a\u5ddd\u5909\u96fb\u6240_2","vm_pu":1.0,"va_deg":1.59,"vn_kv":187.0}},{"type":"Feature","geometry":{"type":"Point","coordinates":[132.7673,33.8942]},"properties":{"name":"\u5317\u677e\u5c71\u5909\u96fb\u6240","vm_pu":1.0,"va_deg":-0.59,"vn_kv":187.0}},{"type":"Feature","geometry":{"type":"Point","coordinates":[134.5776,34.1236]},"properties":{"name":"\u5fb3\u5cf6\u5e02\u5909\u96fb\u6240","vm_pu":1.0,"va_deg":-1.56,"vn_kv":66.0}},{"type":"Feature","geometry":{"type":"Point","coordinates":[133.5686,33.5786]},"properties":{"name":"\u4e00\u5bae\u5357\u753a\u4e00\u4e01\u76ee\u5909\u96fb\u6240","vm_pu":1.0,"va_deg":-3.9,"vn_kv":66.0}},{"type":"Feature","geometry":{"type":"Point","coordinates":[133.669,34.2196]},"properties":{"name":"\u8a6b\u9593\u753a\u8a6b\u9593\u5909\u96fb\u6240","vm_pu":1.0,"va_deg":-1.4,"vn_kv":66.0}},{"type":"Feature","geometry":{"type":"Point","coordinates":[133.6449,34.2066]},"properties":{"name":"\u4ec1\u5c3e\u753a\u4ec1\u5c3e\u5909\u96fb\u6240","vm_pu":1.0,"va_deg":-1.89,"vn_kv":66.0}},{"type":"Feature","geometry":{"type":"Point","coordinates":[133.6915,34.2077]},"properties":{"name":"\u4e09\u91ce\u753a\u5409\u6d25\u5909\u96fb\u6240","vm_pu":1.0,"va_deg":-1.58,"vn_kv":66.0}},{"type":"Feature","geometry":{"type":"Point","coordinates":[133.538,33.5715]},"properties":{"name":"\u4f0a\u52e2\u5d0e\u753a\u5909\u96fb\u6240","vm_pu":1.0,"va_deg":-3.15,"vn_kv":66.0}},{"type":"Feature","geometry":{"type":"Point","coordinates":[133.047,34.2557]},"properties":{"name":"\u4eca\u6cbb\u5e02\u5909\u96fb\u6240","vm_pu":1.0,"va_deg":-1.24,"vn_kv":110.0}},{"type":"Feature","geometry":{"type":"Point","coordinates":[133.1127,33.9314]},"properties":{"name":"\u5e83\u6c5f\u5909\u96fb\u6240","vm_pu":1.0,"va_deg":1.93,"vn_kv":187.0}},{"type":"Feature","geometry":{"type":"Point","coordinates":[133.1133,33.9356]},"properties":{"name":"\u5317\u6761\u5909\u96fb\u6240_2","vm_pu":1.0,"va_deg":2.0,"vn_kv":187.0}},{"type":"Feature","geometry":{"type":"Point","coordinates":[132.9868,34.0494]},"properties":{"name":"\u7247\u5c71\u56db\u4e01\u76ee\u5909\u96fb\u6240","vm_pu":1.0,"va_deg":-1.25,"vn_kv":66.0}},{"type":"Feature","geometry":{"type":"Point","coordinates":[133.0936,34.2116]},"properties":{"name":"\u4f2f\u65b9\u5909\u96fb\u6240","vm_pu":1.0,"va_deg":-1.49,"vn_kv":66.0}},{"type":"Feature","geometry":{"type":"Point","coordinates":[133.5415,33.5042]},"properties":{"name":"\u702c\u6238\u5357\u753a\u4e8c\u4e01\u76ee\u5909\u96fb\u6240","vm_pu":1.0,"va_deg":-2.04,"vn_kv":66.0}},{"type":"Feature","geometry":{"type":"Point","coordinates":[134.5564,34.165]},"properties":{"name":"\u9cf4\u9580\u5909\u96fb\u6240","vm_pu":1.0,"va_deg":0.07,"vn_kv":187.0}},{"type":"Feature","geometry":{"type":"Point","coordinates":[134.3487,34.0628]},"properties":{"name":"\u9d28\u5cf6\u753a\u98ef\u5c3e\u5909\u96fb\u6240","vm_pu":1.0,"va_deg":-1.51,"vn_kv":66.0}},{"type":"Feature","geometry":{"type":"Point","coordinates":[134.3514,33.9682]},"properties":{"name":"\u795e\u9818\u5909\u96fb\u6240","vm_pu":1.0,"va_deg":-2.03,"vn_kv":66.0}},{"type":"Feature","geometry":{"type":"Point","coordinates":[134.6367,33.8277]},"properties":{"name":"\u963f\u5357\u5468\u6ce2\u6570\u5909\u63db\u6240","vm_pu":1.0,"va_deg":1.22,"vn_kv":500.0}},{"type":"Feature","geometry":{"type":"Point","coordinates":[134.2892,33.5467]},"properties":{"name":"\u56db\u56fd\u96fb\u529b \u7532\u6d66\u5909\u96fb\u6240","vm_pu":1.0,"va_deg":-6.6,"vn_kv":66.0}},{"type":"Feature","geometry":{"type":"Point","coordinates":[134.737,34.3224]},"properties":{"name":"\u677e\u5e06\u897f\u8def\u5909\u96fb\u6240","vm_pu":1.0,"va_deg":0.06,"vn_kv":187.0}},{"type":"Feature","geometry":{"type":"Point","coordinates":[133.1774,34.2727]},"properties":{"name":"\u751f\u540d\u5909\u96fb\u6240","vm_pu":1.0,"va_deg":-2.95,"vn_kv":66.0}},{"type":"Feature","geometry":{"type":"Point","coordinates":[133.7557,34.2677]},"properties":{"name":"\u591a\u5ea6\u6d25\u5909\u96fb\u6240","vm_pu":1.0,"va_deg":-2.05,"vn_kv":66.0}},{"type":"Feature","geometry":{"type":"Point","coordinates":[133.6045,33.5661]},"properties":{"name":"\u4ecb\u826f\u5909\u96fb\u6240","vm_pu":1.0,"va_deg":-1.37,"vn_kv":66.0}},{"type":"Feature","geometry":{"type":"Point","coordinates":[133.6371,33.9506]},"properties":{"name":"\u56db\u56fd\u96fb\u529b\u3000\u65b0\u5bae\u5909\u96fb\u6240","vm_pu":1.0,"va_deg":-3.21,"vn_kv":66.0}},{"type":"Feature","geometry":{"type":"Point","coordinates":[133.5757,34.0025]},"properties":{"name":"\u56db\u56fd\u96fb\u529b\u3000\u5ddd\u4e4b\u6c5f\u5909\u96fb\u6240","vm_pu":1.0,"va_deg":-2.68,"vn_kv":66.0}},{"type":"Feature","geometry":{"type":"Point","coordinates":[134.0488,33.4644]},"properties":{"name":"\u5927\u5b57\u9577\u5c71\u5909\u96fb\u6240","vm_pu":1.0,"va_deg":-1.5,"vn_kv":187.0}},{"type":"Feature","geometry":{"type":"Point","coordinates":[134.0506,33.4624]},"properties":{"name":"\u5317\u5ddd\u6751\u5909\u96fb\u6240","vm_pu":1.0,"va_deg":-1.5,"vn_kv":187.0}},{"type":"Feature","geometry":{"type":"Point","coordinates":[133.2551,33.9519]},"properties":{"name":"\u78ef\u6d66\u5909\u96fb\u6240","vm_pu":1.0,"va_deg":-1.21,"vn_kv":110.0}},{"type":"Feature","geometry":{"type":"Point","coordinates":[133.2965,33.9687]},"properties":{"name":"\u90f7\u4e94\u4e01\u76ee\u5909\u96fb\u6240","vm_pu":1.0,"va_deg":-3.73,"vn_kv":66.0}},{"type":"Feature","geometry":{"type":"Point","coordinates":[133.3351,33.9765]},"properties":{"name":"\u591a\u559c\u6d5c\u4e00\u4e01\u76ee\u5909\u96fb\u6240","vm_pu":1.0,"va_deg":-3.74,"vn_kv":66.0}},{"type":"Feature","geometry":{"type":"Point","coordinates":[134.6026,34.1913]},"properties":{"name":"\u64ab\u990a\u5909\u96fb\u6240","vm_pu":1.0,"va_deg":0.37,"vn_kv":66.0}},{"type":"Feature","geometry":{"type":"Point","coordinates":[134.5961,34.1815]},"properties":{"name":"\u6589\u7530\u5909\u96fb\u6240","vm_pu":1.0,"va_deg":0.21,"vn_kv":66.0}},{"type":"Feature","geometry":{"type":"Point","coordinates":[132.7131,32.9348]},"properties":{"name":"\u897f\u7247\u5cf6\u5909\u96fb\u6240","vm_pu":1.0,"va_deg":-7.87,"vn_kv":66.0}},{"type":"Feature","geometry":{"type":"Point","coordinates":[132.8086,32.9568]},"properties":{"name":"\u5e73\u7530\u753a\u6771\u5e73\u4e8c\u4e01\u76ee\u5909\u96fb\u6240","vm_pu":1.0,"va_deg":-6.71,"vn_kv":66.0}},{"type":"Feature","geometry":{"type":"Point","coordinates":[133.0406,34.3985]},"properties":{"name":"\u6cbc\u7530\u4e00\u4e01\u76ee\u5909\u96fb\u6240","vm_pu":1.0,"va_deg":-2.08,"vn_kv":110.0}},{"type":"Feature","geometry":{"type":"Point","coordinates":[133.0546,34.3914]},"properties":{"name":"\u65b0\u5009\u4e00\u4e01\u76ee\u5909\u96fb\u6240","vm_pu":1.0,"va_deg":-2.3,"vn_kv":66.0}},{"type":"Feature","geometry":{"type":"Point","coordinates":[133.0922,34.3099]},"properties":{"name":"\u702c\u6238\u7530\u753a\u6ca2\u5909\u96fb\u6240","vm_pu":1.0,"va_deg":-1.79,"vn_kv":66.0}},{"type":"Feature","geometry":{"type":"Point","coordinates":[133.011,34.0393]},"properties":{"name":"\u8fbb\u5802\u4e00\u4e01\u76ee\u5909\u96fb\u6240","vm_pu":1.0,"va_deg":-0.73,"vn_kv":66.0}},{"type":"Feature","geometry":{"type":"Point","coordinates":[134.2287,34.0491]},"properties":{"name":"\u5c71\u5ddd\u753a\u5efa\u77f3\u5909\u96fb\u6240","vm_pu":1.0,"va_deg":-5.59,"vn_kv":66.0}},{"type":"Feature","geometry":{"type":"Point","coordinates":[133.7934,34.2745]},"properties":{"name":"\u56db\u56fd\u96fb\u529b\u9001\u914d\u96fb \u4e38\u4e80\u5909\u96fb\u6240","vm_pu":1.0,"va_deg":-2.81,"vn_kv":66.0}},{"type":"Feature","geometry":{"type":"Point","coordinates":[134.4645,34.0764]},"properties":{"name":"\u5fb3\u5cf6\u5e02\u5909\u96fb\u6240_2","vm_pu":1.0,"va_deg":-0.58,"vn_kv":66.0}},{"type":"Feature","geometry":{"type":"Point","coordinates":[134.6024,34.1914]},"properties":{"name":"\u702c\u6238\u753a\u660e\u795e\u5909\u96fb\u6240","vm_pu":1.0,"va_deg":0.37,"vn_kv":66.0}},{"type":"Feature","geometry":{"type":"Point","coordinates":[133.8014,33.9581]},"properties":{"name":"\u4e09\u597d\u5e02\u5909\u96fb\u6240","vm_pu":1.0,"va_deg":-15.16,"vn_kv":66.0}},{"type":"Feature","geometry":{"type":"Point","coordinates":[133.8882,34.0323]},"properties":{"name":"\u663c\u9593\u5909\u96fb\u6240","vm_pu":1.0,"va_deg":-15.2,"vn_kv":66.0}},{"type":"Feature","geometry":{"type":"Point","coordinates":[133.9916,34.0457]},"properties":{"name":"\u4e09\u91ce\u753a\u6e05\u6c34\u5909\u96fb\u6240","vm_pu":1.0,"va_deg":-14.53,"vn_kv":66.0}},{"type":"Feature","geometry":{"type":"Point","coordinates":[134.0632,33.9497]},"properties":{"name":"\u5207\u8d8a\u5909\u96fb\u6240","vm_pu":1.0,"va_deg":-13.93,"vn_kv":66.0}},{"type":"Feature","geometry":{"type":"Point","coordinates":[134.0678,34.0397]},"properties":{"name":"\u8c9e\u5149\u6c5f\u30ce\u8107\u5909\u96fb\u6240","vm_pu":1.0,"va_deg":-13.26,"vn_kv":66.0}},{"type":"Feature","geometry":{"type":"Point","coordinates":[134.2288,34.0494]},"properties":{"name":"\u5c71\u5ddd\u753a\u4f4f\u5409\u5909\u96fb\u6240","vm_pu":1.0,"va_deg":-5.59,"vn_kv":66.0}},{"type":"Feature","geometry":{"type":"Point","coordinates":[134.2076,34.0769]},"properties":{"name":"\u963f\u6ce2\u753a\u5584\u5730\u5909\u96fb\u6240","vm_pu":1.0,"va_deg":5.06,"vn_kv":66.0}},{"type":"Feature","geometry":{"type":"Point","coordinates":[134.309,34.0937]},"properties":{"name":"\u5e02\u5834\u753a\u516b\u5e61\u5909\u96fb\u6240","vm_pu":1.0,"va_deg":-0.28,"vn_kv":66.0}},{"type":"Feature","geometry":{"type":"Point","coordinates":[133.5628,34.008]},"properties":{"name":"\u5ddd\u4e4b\u6c5f\u753a\u5909\u96fb\u6240","vm_pu":1.0,"va_deg":-2.82,"vn_kv":66.0}},{"type":"Feature","geometry":{"type":"Point","coordinates":[133.574,34.0029]},"properties":{"name":"\u59bb\u9ce5\u753a\u5909\u96fb\u6240","vm_pu":1.0,"va_deg":-2.69,"vn_kv":66.0}},{"type":"Feature","geometry":{"type":"Point","coordinates":[133.5548,33.9841]},"properties":{"name":"\u4e09\u5cf6\u671d\u65e5\u4e00\u4e01\u76ee\u5909\u96fb\u6240","vm_pu":1.0,"va_deg":-2.45,"vn_kv":66.0}},{"type":"Feature","geometry":{"type":"Point","coordinates":[133.5956,33.9802]},"properties":{"name":"\u91d1\u7530\u753a\u91d1\u5ddd\u5909\u96fb\u6240","vm_pu":1.0,"va_deg":-2.58,"vn_kv":66.0}},{"type":"Feature","geometry":{"type":"Point","coordinates":[133.5185,33.9651]},"properties":{"name":"\u5bd2\u5ddd\u753a\u5909\u96fb\u6240","vm_pu":1.0,"va_deg":-1.38,"vn_kv":66.0}},{"type":"Feature","geometry":{"type":"Point","coordinates":[133.1715,33.873]},"properties":{"name":"\u514e\u4e4b\u5c71\u7532\u5909\u96fb\u6240","vm_pu":1.0,"va_deg":-1.1,"vn_kv":110.0}},{"type":"Feature","geometry":{"type":"Point","coordinates":[133.9075,33.7046]},"properties":{"name":"\u7269\u90e8\u753a\u62bc\u8c37\u5909\u96fb\u6240","vm_pu":1.0,"va_deg":-1.08,"vn_kv":110.0}},{"type":"Feature","geometry":{"type":"Point","coordinates":[133.282,33.9754]},"properties":{"name":"\u83ca\u672c\u753a\u4e00\u4e01\u76ee\u5909\u96fb\u6240_2","vm_pu":1.0,"va_deg":-1.53,"vn_kv":110.0}},{"type":"Feature","geometry":{"type":"Point","coordinates":[133.274,33.9706]},"properties":{"name":"\u4e2d\u9808\u8cc0\u753a\u4e8c\u4e01\u76ee\u5909\u96fb\u6240","vm_pu":1.0,"va_deg":-1.53,"vn_kv":110.0}},{"type":"Feature","geometry":{"type":"Point","coordinates":[133.4296,33.956]},"properties":{"name":"\u571f\u5c45\u753a\u4e2d\u6751\u5909\u96fb\u6240","vm_pu":1.0,"va_deg":-4.08,"vn_kv":66.0}},{"type":"Feature","geometry":{"type":"Point","coordinates":[133.0734,33.9354]},"properties":{"name":"\u559c\u591a\u53f0\u5909\u96fb\u6240","vm_pu":1.0,"va_deg":-0.21,"vn_kv":66.0}},{"type":"Feature","geometry":{"type":"Point","coordinates":[133.1911,33.939]},"properties":{"name":"\u3072\u3046\u3061\u5909\u96fb\u6240","vm_pu":1.0,"va_deg":-0.19,"vn_kv":66.0}},{"type":"Feature","geometry":{"type":"Point","coordinates":[133.1934,33.9391]},"properties":{"name":"\u3072\u3046\u3061\u5909\u96fb\u6240_2","vm_pu":1.0,"va_deg":-0.21,"vn_kv":66.0}},{"type":"Feature","geometry":{"type":"Point","coordinates":[133.1918,33.9389]},"properties":{"name":"\u3072\u3046\u3061\u5909\u96fb\u6240_3","vm_pu":1.0,"va_deg":-0.19,"vn_kv":66.0}},{"type":"Feature","geometry":{"type":"Point","coordinates":[133.1764,33.9345]},"properties":{"name":"\u3072\u3046\u3061\u5909\u96fb\u6240_4","vm_pu":1.0,"va_deg":0.98,"vn_kv":66.0}},{"type":"Feature","geometry":{"type":"Point","coordinates":[133.1692,33.908]},"properties":{"name":"\u4e2d\u897f\u65b0\u958b\u5909\u96fb\u6240","vm_pu":1.0,"va_deg":-0.23,"vn_kv":66.0}},{"type":"Feature","geometry":{"type":"Point","coordinates":[132.6866,33.2469]},"properties":{"name":"\u5e83\u898b\u5909\u96fb\u6240","vm_pu":1.0,"va_deg":-4.96,"vn_kv":187.0}},{"type":"Feature","geometry":{"type":"Point","coordinates":[132.3119,33.4889]},"properties":{"name":"\u4e5d\u753a\u5909\u96fb\u6240","vm_pu":1.0,"va_deg":-0.02,"vn_kv":500.0}},{"type":"Feature","geometry":{"type":"Point","coordinates":[134.3055,33.8135]},"properties":{"name":"\u6728\u982d\u5909\u96fb\u6240","vm_pu":1.0,"va_deg":0.46,"vn_kv":66.0}},{"type":"Feature","geometry":{"type":"Point","coordinates":[134.2961,33.8036]},"properties":{"name":"\u5927\u6bbf\u5909\u96fb\u6240","vm_pu":1.0,"va_deg":0.63,"vn_kv":187.0}},{"type":"Feature","geometry":{"type":"Point","coordinates":[134.652,33.8795]},"properties":{"name":"\u963f\u5357\u767a\u96fb\u6240 (Anan Power Station)","vm_pu":1.0,"va_deg":3.02,"vn_kv":187.0}},{"type":"Feature","geometry":{"type":"Point","coordinates":[134.1394,33.5172]},"properties":{"name":"\u5927\u5b57\u4e8c\u30bf\u53c8\u5909\u96fb\u6240","vm_pu":1.0,"va_deg":-1.47,"vn_kv":187.0}},{"type":"Feature","geometry":{"type":"Point","coordinates":[134.1134,33.5911]},"properties":{"name":"\u5317\u5ddd\u6751\u5909\u96fb\u6240_2","vm_pu":1.0,"va_deg":-1.48,"vn_kv":187.0}},{"type":"Feature","geometry":{"type":"Point","coordinates":[133.3419,33.7656]},"properties":{"name":"\u672c\u5ddd\u5909\u96fb\u6240","vm_pu":1.0,"va_deg":-0.75,"vn_kv":187.0}},{"type":"Feature","geometry":{"type":"Point","coordinates":[132.4269,33.3845]},"properties":{"name":"\u4e09\u74f6\u753a\u671d\u7acb\u5909\u96fb\u6240","vm_pu":1.0,"va_deg":-0.63,"vn_kv":66.0}},{"type":"Feature","geometry":{"type":"Point","coordinates":[132.5419,33.2799]},"properties":{"name":"\u5409\u7530\u753a\u6771\u5c0f\u8def\u5909\u96fb\u6240","vm_pu":1.0,"va_deg":-5.54,"vn_kv":66.0}},{"type":"Feature","geometry":{"type":"Point","coordinates":[132.5273,33.1288]},"properties":{"name":"\u5b87\u548c\u5cf6\u5e02\u5909\u96fb\u6240","vm_pu":1.0,"va_deg":-5.99,"vn_kv":66.0}},{"type":"Feature","geometry":{"type":"Point","coordinates":[133.7868,34.2894]},"properties":{"name":"\u5869\u5c4b\u5909\u96fb\u6240","vm_pu":1.0,"va_deg":-2.98,"vn_kv":66.0}},{"type":"Feature","geometry":{"type":"Point","coordinates":[132.7539,34.2857]},"properties":{"name":"1\u4e01\u76ee\u5909\u96fb\u6240","vm_pu":1.0,"va_deg":-1.57,"vn_kv":66.0}},{"type":"Feature","geometry":{"type":"Point","coordinates":[132.7033,34.2398]},"properties":{"name":"4\u4e01\u76ee\u5909\u96fb\u6240_2","vm_pu":1.0,"va_deg":-3.04,"vn_kv":66.0}},{"type":"Feature","geometry":{"type":"Point","coordinates":[132.8187,34.3274]},"properties":{"name":"\u6771\u5e83\u5cf6\u5e02\u5909\u96fb\u6240","vm_pu":1.0,"va_deg":-0.98,"vn_kv":110.0}},{"type":"Feature","geometry":{"type":"Point","coordinates":[133.7548,34.2682]},"properties":{"name":"\u56db\u56fd\u65c5\u5ba2\u9244\u9053 \u591a\u5ea6\u6d25\u5909\u96fb\u6240","vm_pu":1.0,"va_deg":-2.06,"vn_kv":66.0}},{"type":"Feature","geometry":{"type":"Point","coordinates":[134.1134,34.2851]},"properties":{"name":"\u4e80\u7530\u5909\u96fb\u6240","vm_pu":1.0,"va_deg":-17.64,"vn_kv":66.0}},{"type":"Feature","geometry":{"type":"Point","coordinates":[133.7691,34.2909]},"properties":{"name":"\u662d\u548c\u5909\u96fb\u6240","vm_pu":1.0,"va_deg":-2.99,"vn_kv":66.0}},{"type":"Feature","geometry":{"type":"Point","coordinates":[134.5993,34.164]},"properties":{"name":"\u5927\u6d25\u5909\u96fb\u6240","vm_pu":1.0,"va_deg":-0.55,"vn_kv":66.0}},{"type":"Feature","geometry":{"type":"Point","coordinates":[134.5401,34.087]},"properties":{"name":"\u7530\u5bae\u5909\u96fb\u6240","vm_pu":1.0,"va_deg":-1.53,"vn_kv":66.0}},{"type":"Feature","geometry":{"type":"Point","coordinates":[134.193,34.3247]},"properties":{"name":"\u5fd7\u5ea6\u5909\u96fb\u6240","vm_pu":1.0,"va_deg":-17.61,"vn_kv":66.0}},{"type":"Feature","geometry":{"type":"Point","coordinates":[133.5699,33.5278]},"properties":{"name":"\u4ec1\u4e95\u7530\u5909\u96fb\u6240","vm_pu":1.0,"va_deg":-1.72,"vn_kv":66.0}},{"type":"Feature","geometry":{"type":"Point","coordinates":[134.1763,34.2678]},"properties":{"name":"\u9577\u5c3e\u5909\u96fb\u6240","vm_pu":1.0,"va_deg":-16.78,"vn_kv":66.0}},{"type":"Feature","geometry":{"type":"Point","coordinates":[134.2288,34.2515]},"properties":{"name":"\u5927\u5ddd\u5909\u96fb\u6240","vm_pu":1.0,"va_deg":-14.79,"vn_kv":187.0}},{"type":"Feature","geometry":{"type":"Point","coordinates":[134.1417,34.2802]},"properties":{"name":"\u4e09\u6728\u5909\u96fb\u6240","vm_pu":1.0,"va_deg":-17.34,"vn_kv":66.0}},{"type":"Feature","geometry":{"type":"Point","coordinates":[133.8972,33.5047]},"properties":{"name":"\u56db\u56fd\u96fb\u529b\u9001\u914d\u96fb \u5b89\u82b8\u5909\u96fb\u6240","vm_pu":1.0,"va_deg":-1.98,"vn_kv":66.0}},{"type":"Feature","geometry":{"type":"Point","coordinates":[132.5641,34.3239]},"properties":{"name":"\u62bc\u8fbc\u753a\u5909\u96fb\u6240","vm_pu":1.0,"va_deg":-2.52,"vn_kv":110.0}},{"type":"Feature","geometry":{"type":"Point","coordinates":[134.0095,33.429]},"properties":{"name":"\u677e\u672c\u5909\u96fb\u6240","vm_pu":1.0,"va_deg":-2.46,"vn_kv":66.0}},{"type":"Feature","geometry":{"type":"Point","coordinates":[132.8169,33.5725]},"properties":{"name":"\u5c0f\u7530\u5909\u96fb\u6240","vm_pu":1.0,"va_deg":-0.7,"vn_kv":66.0}},{"type":"Feature","geometry":{"type":"Point","coordinates":[134.6609,33.9172]},"properties":{"name":"\u5bcc\u5ca1\u753a\u5909\u96fb\u6240","vm_pu":1.0,"va_deg":1.67,"vn_kv":500.0}},{"type":"Feature","geometry":{"type":"Point","coordinates":[134.1496,33.2911]},"properties":{"name":"\u6d6e\u6d25\u4e8c\u756a\u753a\u5909\u96fb\u6240","vm_pu":1.0,"va_deg":-3.54,"vn_kv":66.0}},{"type":"Feature","geometry":{"type":"Point","coordinates":[132.5829,33.2367]},"properties":{"name":"\u5b87\u548c\u5cf6\u5909\u96fb\u6240","vm_pu":1.0,"va_deg":-5.48,"vn_kv":66.0}},{"type":"Feature","geometry":{"type":"Point","coordinates":[132.5691,32.9662]},"properties":{"name":"\u5fa1\u8358\u5e73\u57ce\u5909\u96fb\u6240","vm_pu":1.0,"va_deg":-7.19,"vn_kv":66.0}},{"type":"Feature","geometry":{"type":"Point","coordinates":[133.1404,33.2078]},"properties":{"name":"\u53e4\u5e02\u753a\u5909\u96fb\u6240","vm_pu":1.0,"va_deg":-15.22,"vn_kv":66.0}},{"type":"Feature","geometry":{"type":"Point","coordinates":[132.6948,33.2506]},"properties":{"name":"\u51fa\u76ee\u5909\u96fb\u6240","vm_pu":1.0,"va_deg":-5.58,"vn_kv":66.0}},{"type":"Feature","geometry":{"type":"Point","coordinates":[132.5566,34.2464]},"properties":{"name":"\u516c\u5712\u901a\u5909\u96fb\u6240","vm_pu":1.0,"va_deg":-3.57,"vn_kv":110.0}},{"type":"Feature","geometry":{"type":"Point","coordinates":[132.5724,34.2813]},"properties":{"name":"1\u4e01\u76ee\u5909\u96fb\u6240_2","vm_pu":1.0,"va_deg":-3.48,"vn_kv":110.0}},{"type":"Feature","geometry":{"type":"Point","coordinates":[132.5121,34.3403]},"properties":{"name":"\u5742\u5909\u96fb\u6240","vm_pu":1.0,"va_deg":-2.39,"vn_kv":110.0}},{"type":"Feature","geometry":{"type":"Point","coordinates":[132.4411,34.2078]},"properties":{"name":"\u80fd\u7f8e\u5909\u96fb\u6240","vm_pu":1.0,"va_deg":-10.09,"vn_kv":66.0}},{"type":"Feature","geometry":{"type":"Point","coordinates":[132.4852,34.2497]},"properties":{"name":"\u6c5f\u7530\u5cf6\u5909\u96fb\u6240","vm_pu":1.0,"va_deg":-10.58,"vn_kv":66.0}},{"type":"Feature","geometry":{"type":"Point","coordinates":[132.4723,34.1857]},"properties":{"name":"\u5927\u67ff\u5909\u96fb\u6240","vm_pu":1.0,"va_deg":-9.71,"vn_kv":66.0}},{"type":"Feature","geometry":{"type":"Point","coordinates":[132.5336,34.2645]},"properties":{"name":"\u5409\u6d66\u5909\u96fb\u6240","vm_pu":1.0,"va_deg":-4.14,"vn_kv":22.0}},{"type":"Feature","geometry":{"type":"Point","coordinates":[132.9593,34.3379]},"properties":{"name":"\u5fe0\u6d77\u9577\u6d5c\u4e00\u4e01\u76ee\u5909\u96fb\u6240","vm_pu":1.0,"va_deg":-0.84,"vn_kv":220.0}},{"type":"Feature","geometry":{"type":"Point","coordinates":[133.2096,34.3948]},"properties":{"name":"\u5411\u5cf6\u5909\u96fb\u6240","vm_pu":1.0,"va_deg":-3.02,"vn_kv":110.0}},{"type":"Feature","geometry":{"type":"Point","coordinates":[132.5552,33.2315]},"properties":{"name":"\u4f4f\u5409\u753a\u4e8c\u4e01\u76ee\u5909\u96fb\u6240","vm_pu":1.0,"va_deg":-5.66,"vn_kv":66.0}},{"type":"Feature","geometry":{"type":"Point","coordinates":[132.7064,33.8428]},"properties":{"name":"\u5409\u7530\u6d5c\u5909\u96fb\u6240","vm_pu":1.0,"va_deg":-1.07,"vn_kv":66.0}},{"type":"Feature","geometry":{"type":"Point","coordinates":[132.7797,33.9773]},"properties":{"name":"\u5317\u6761\u5909\u96fb\u6240","vm_pu":1.0,"va_deg":-0.72,"vn_kv":66.0}},{"type":"Feature","geometry":{"type":"Point","coordinates":[133.1271,33.5442]},"properties":{"name":"\u5927\u6e21\u5909\u96fb\u6240","vm_pu":1.0,"va_deg":-19.61,"vn_kv":66.0}},{"type":"Feature","geometry":{"type":"Point","coordinates":[133.1227,33.4549]},"properties":{"name":"\u9ed2\u5ddd\u5909\u96fb\u6240","vm_pu":1.0,"va_deg":-17.36,"vn_kv":66.0}},{"type":"Feature","geometry":{"type":"Point","coordinates":[133.8605,34.3275]},"properties":{"name":"\u662d\u548c\u753a\u4e8c\u4e01\u76ee\u5909\u96fb\u6240_2","vm_pu":1.0,"va_deg":0.09,"vn_kv":187.0}},{"type":"Feature","geometry":{"type":"Point","coordinates":[132.4934,34.3904]},"properties":{"name":"\u5927\u5dde\u56db\u4e01\u76ee\u5909\u96fb\u6240","vm_pu":1.0,"va_deg":-1.95,"vn_kv":110.0}},{"type":"Feature","geometry":{"type":"Point","coordinates":[133.8349,34.223]},"properties":{"name":"\u5782\u6c34\u753a\u5909\u96fb\u6240","vm_pu":1.0,"va_deg":-3.09,"vn_kv":66.0}},{"type":"Feature","geometry":{"type":"Point","coordinates":[133.8407,34.1952]},"properties":{"name":"\u5409\u91ce\u4e0b\u5909\u96fb\u6240","vm_pu":1.0,"va_deg":-3.29,"vn_kv":66.0}},{"type":"Feature","geometry":{"type":"Point","coordinates":[133.8252,34.3226]},"properties":{"name":"\u5b87\u591a\u6d25\u753a\u5909\u96fb\u6240","vm_pu":1.0,"va_deg":-0.03,"vn_kv":66.0}},{"type":"Feature","geometry":{"type":"Point","coordinates":[132.519,33.358]},"properties":{"name":"\u536f\u4e4b\u753a\u5909\u96fb\u6240","vm_pu":1.0,"va_deg":-4.54,"vn_kv":66.0}},{"type":"Feature","geometry":{"type":"Point","coordinates":[132.4958,34.3605]},"properties":{"name":"\u4ec1\u4fdd\u56db\u4e01\u76ee\u5909\u96fb\u6240","vm_pu":1.0,"va_deg":-2.34,"vn_kv":110.0}},{"type":"Feature","geometry":{"type":"Point","coordinates":[132.6363,34.2785]},"properties":{"name":"\u5e83\u753a\u5909\u96fb\u6240","vm_pu":1.0,"va_deg":-2.45,"vn_kv":66.0}},{"type":"Feature","geometry":{"type":"Point","coordinates":[132.6012,34.2352]},"properties":{"name":"7\u4e01\u76ee\u5909\u96fb\u6240","vm_pu":1.0,"va_deg":-2.71,"vn_kv":66.0}},{"type":"Feature","geometry":{"type":"Point","coordinates":[134.4675,33.8008]},"properties":{"name":"\u9262\u5909\u96fb\u6240","vm_pu":1.0,"va_deg":0.9,"vn_kv":66.0}}]}