{"type":"FeatureCollection","features":[{"type":"Feature","geometry":{"type":"Point","coordinates":[127.66986,26.19928]},"properties":{"name":"okinawa junction 26.1993:127.6699:66","vn_kv":66.0,"vm_pu":0.9556,"va_deg":-11.44}},{"type":"Feature","geometry":{"type":"Point","coordinates":[127.69915,26.18341]},"properties":{"name":"okinawa junction 26.1834:127.6991:66","vn_kv":66.0,"vm_pu":0.9605,"va_deg":-10.95}},{"type":"Feature","geometry":{"type":"Point","coordinates":[127.70283,26.17495]},"properties":{"name":"okinawa junction 26.175:127.7028:66","vn_kv":66.0,"vm_pu":0.9629,"va_deg":-10.69}},{"type":"Feature","geometry":{"type":"Point","coordinates":[127.71969,26.21105]},"properties":{"name":"okinawa junction 26.2111:127.7197:66","vn_kv":66.0,"vm_pu":0.9597,"va_deg":-11.06}},{"type":"Feature","geometry":{"type":"Point","coordinates":[127.94273,26.5258]},"properties":{"name":"okinawa junction 26.5258:127.9427:66","vn_kv":66.0,"vm_pu":0.9676,"va_deg":-10.4}},{"type":"Feature","geometry":{"type":"Point","coordinates":[127.99368,26.58095]},"properties":{"name":"okinawa junction 26.5809:127.9937:66","vn_kv":66.0,"vm_pu":0.9672,"va_deg":-11.87}},{"type":"Feature","geometry":{"type":"Point","coordinates":[128.00007,26.59906]},"properties":{"name":"okinawa junction 26.5991:128.0001:66","vn_kv":66.0,"vm_pu":0.9691,"va_deg":-12.35}},{"type":"Feature","geometry":{"type":"Point","coordinates":[127.87889,26.46217]},"properties":{"name":"okinawa junction 26.4622:127.8789:132","vn_kv":132.0,"vm_pu":1.0,"va_deg":0.72}},{"type":"Feature","geometry":{"type":"Point","coordinates":[127.9988,26.60131]},"properties":{"name":"okinawa junction 26.6013:127.9988:66","vn_kv":66.0,"vm_pu":0.9692,"va_deg":-12.47}},{"type":"Feature","geometry":{"type":"Point","coordinates":[127.84266,26.45393]},"properties":{"name":"okinawa junction 26.4539:127.8427:66","vn_kv":66.0,"vm_pu":0.9906,"va_deg":-3.56}},{"type":"Feature","geometry":{"type":"Point","coordinates":[127.84008,26.43108]},"properties":{"name":"okinawa junction 26.4311:127.8401:66","vn_kv":66.0,"vm_pu":0.9947,"va_deg":-2.79}},{"type":"Feature","geometry":{"type":"Point","coordinates":[127.84008,26.43108]},"properties":{"name":"okinawa junction 26.4311:127.8401:132","vn_kv":132.0,"vm_pu":0.9999,"va_deg":-0.03}},{"type":"Feature","geometry":{"type":"Point","coordinates":[127.7958,26.27504]},"properties":{"name":"okinawa junction 26.275:127.7958:66","vn_kv":66.0,"vm_pu":0.9898,"va_deg":-6.5}},{"type":"Feature","geometry":{"type":"Point","coordinates":[127.74895,26.27756]},"properties":{"name":"okinawa junction 26.2776:127.749:66","vn_kv":66.0,"vm_pu":0.9845,"va_deg":-7.16}},{"type":"Feature","geometry":{"type":"Point","coordinates":[127.73789,26.16374]},"properties":{"name":"okinawa junction 26.1637:127.7379:66","vn_kv":66.0,"vm_pu":0.9676,"va_deg":-10.48}},{"type":"Feature","geometry":{"type":"Point","coordinates":[127.93166,26.67648]},"properties":{"name":"okinawa junction 26.6765:127.9317:66","vn_kv":66.0,"vm_pu":0.9927,"va_deg":-14.34}},{"type":"Feature","geometry":{"type":"Point","coordinates":[127.96456,26.63672]},"properties":{"name":"okinawa junction 26.6367:127.9646:66","vn_kv":66.0,"vm_pu":0.9757,"va_deg":-13.83}},{"type":"Feature","geometry":{"type":"Point","coordinates":[127.85189,26.35377]},"properties":{"name":"okinawa junction 26.3538:127.8519:132","vn_kv":132.0,"vm_pu":0.9997,"va_deg":-2.31}},{"type":"Feature","geometry":{"type":"Point","coordinates":[127.95486,26.66001]},"properties":{"name":"okinawa junction 26.66:127.9549:66","vn_kv":66.0,"vm_pu":0.983,"va_deg":-14.25}},{"type":"Feature","geometry":{"type":"Point","coordinates":[127.67372,26.20613]},"properties":{"name":"okinawa junction 26.2061:127.6737:66","vn_kv":66.0,"vm_pu":0.955,"va_deg":-11.43}},{"type":"Feature","geometry":{"type":"Point","coordinates":[128.26696,26.67147]},"properties":{"name":"okinawa junction 26.6715:128.267:0","vn_kv":66.0,"vm_pu":0.9667,"va_deg":-13.74}},{"type":"Feature","geometry":{"type":"Point","coordinates":[127.68063,26.21792]},"properties":{"name":"\u4e45\u8302\u5730\u4e8c\u4e01\u76ee\u5909\u96fb\u6240","vn_kv":66.0,"vm_pu":0.9558,"va_deg":-11.22}},{"type":"Feature","geometry":{"type":"Point","coordinates":[127.87175,26.46196]},"properties":{"name":"\u4f0a\u82b8\u5909\u96fb\u6240 132kV","vn_kv":132.0,"vm_pu":1.0,"va_deg":0.72}},{"type":"Feature","geometry":{"type":"Point","coordinates":[127.87175,26.46196]},"properties":{"name":"\u4f0a\u82b8\u5909\u96fb\u6240 66kV","vn_kv":66.0,"vm_pu":0.9865,"va_deg":-6.76}},{"type":"Feature","geometry":{"type":"Point","coordinates":[127.8826,26.6934]},"properties":{"name":"\u6d77\u6d0b\u535a\u5909\u96fb\u6240","vn_kv":66.0,"vm_pu":1.0,"va_deg":-14.48}},{"type":"Feature","geometry":{"type":"Point","coordinates":[127.67485,26.1906]},"properties":{"name":"\u5c0f\u7984\u5909\u96fb\u6240","vn_kv":66.0,"vm_pu":0.9565,"va_deg":-11.37}},{"type":"Feature","geometry":{"type":"Point","coordinates":[127.71348,26.19882]},"properties":{"name":"\u4e0a\u9593\u5909\u96fb\u6240","vn_kv":66.0,"vm_pu":0.9597,"va_deg":-11.06}},{"type":"Feature","geometry":{"type":"Point","coordinates":[127.73222,26.18261]},"properties":{"name":"\u5357\u98a8\u539f\u5909\u96fb\u6240 132kV","vn_kv":132.0,"vm_pu":0.9935,"va_deg":-4.66}},{"type":"Feature","geometry":{"type":"Point","coordinates":[127.73222,26.18261]},"properties":{"name":"\u5357\u98a8\u539f\u5909\u96fb\u6240 66kV","vn_kv":66.0,"vm_pu":0.9756,"va_deg":-9.0}},{"type":"Feature","geometry":{"type":"Point","coordinates":[127.7508,26.1291]},"properties":{"name":"\u9577\u6bdb\u5909\u96fb\u6240","vn_kv":66.0,"vm_pu":0.9693,"va_deg":-10.75}},{"type":"Feature","geometry":{"type":"Point","coordinates":[127.75447,26.28414]},"properties":{"name":"\u4f0a\u4f50\u4e00\u4e01\u76ee\u5909\u96fb\u6240 132kV","vn_kv":132.0,"vm_pu":0.9982,"va_deg":-3.74}},{"type":"Feature","geometry":{"type":"Point","coordinates":[127.75447,26.28414]},"properties":{"name":"\u4f0a\u4f50\u4e00\u4e01\u76ee\u5909\u96fb\u6240 66kV","vn_kv":66.0,"vm_pu":0.9845,"va_deg":-7.16}},{"type":"Feature","geometry":{"type":"Point","coordinates":[127.81568,26.43265]},"properties":{"name":"\u4ef2\u6cca\u5909\u96fb\u6240 132kV","vn_kv":132.0,"vm_pu":0.9995,"va_deg":-0.9}},{"type":"Feature","geometry":{"type":"Point","coordinates":[127.81568,26.43265]},"properties":{"name":"\u4ef2\u6cca\u5909\u96fb\u6240 66kV","vn_kv":66.0,"vm_pu":0.9946,"va_deg":-2.79}},{"type":"Feature","geometry":{"type":"Point","coordinates":[128.16963,26.73094]},"properties":{"name":"\u5965\u9593\u5909\u96fb\u6240","vn_kv":66.0,"vm_pu":1.0,"va_deg":0.0}},{"type":"Feature","geometry":{"type":"Point","coordinates":[127.75702,26.28634]},"properties":{"name":"\u4f0a\u4f50\u4e00\u4e01\u76ee\u5909\u96fb\u6240_2 132kV","vn_kv":132.0,"vm_pu":0.9982,"va_deg":-3.72}},{"type":"Feature","geometry":{"type":"Point","coordinates":[127.75702,26.28634]},"properties":{"name":"\u4f0a\u4f50\u4e00\u4e01\u76ee\u5909\u96fb\u6240_2 66kV","vn_kv":66.0,"vm_pu":0.9849,"va_deg":-7.11}},{"type":"Feature","geometry":{"type":"Point","coordinates":[127.68533,26.22572]},"properties":{"name":"\u6cca\u5909\u96fb\u6240","vn_kv":66.0,"vm_pu":0.9571,"va_deg":-11.0}},{"type":"Feature","geometry":{"type":"Point","coordinates":[127.68264,26.22063]},"properties":{"name":"\u4e45\u8302\u5730\u5909\u96fb\u6240","vn_kv":66.0,"vm_pu":0.9563,"va_deg":-11.13}},{"type":"Feature","geometry":{"type":"Point","coordinates":[128.03367,26.52565]},"properties":{"name":"Henoko Substation","vn_kv":66.0,"vm_pu":0.971,"va_deg":-11.25}},{"type":"Feature","geometry":{"type":"Point","coordinates":[127.68076,26.22157]},"properties":{"name":"\u897f\u90a3\u8987\u5909\u96fb\u6240","vn_kv":66.0,"vm_pu":0.9561,"va_deg":-11.16}},{"type":"Feature","geometry":{"type":"Point","coordinates":[127.66237,26.16423]},"properties":{"name":"\u6c96\u7e04\u96fb\u529b\u4e0e\u6839\u5909\u96fb\u6240","vn_kv":66.0,"vm_pu":0.957,"va_deg":-11.5}},{"type":"Feature","geometry":{"type":"Point","coordinates":[127.99792,26.51637]},"properties":{"name":"Kushi Water Purification Plant Substation","vn_kv":66.0,"vm_pu":0.9711,"va_deg":-10.71}},{"type":"Feature","geometry":{"type":"Point","coordinates":[127.99156,26.50943]},"properties":{"name":"\u677e\u7530\u5909\u96fb\u6240","vn_kv":66.0,"vm_pu":0.9714,"va_deg":-10.57}},{"type":"Feature","geometry":{"type":"Point","coordinates":[127.98775,26.61066]},"properties":{"name":"\u540d\u8b77\u96fb\u529b\u6240","vn_kv":66.0,"vm_pu":0.9702,"va_deg":-12.97}},{"type":"Feature","geometry":{"type":"Point","coordinates":[127.82675,26.39147]},"properties":{"name":"\u3046\u308b\u307e\u5e02\u5909\u96fb\u6240 132kV","vn_kv":132.0,"vm_pu":0.9987,"va_deg":-2.47}},{"type":"Feature","geometry":{"type":"Point","coordinates":[127.82675,26.39147]},"properties":{"name":"\u3046\u308b\u307e\u5e02\u5909\u96fb\u6240 66kV","vn_kv":66.0,"vm_pu":0.9954,"va_deg":-4.48}},{"type":"Feature","geometry":{"type":"Point","coordinates":[127.81164,26.30445]},"properties":{"name":"\u6e21\u53e3\u5909\u96fb\u6240 132kV","vn_kv":132.0,"vm_pu":1.0,"va_deg":-3.22}},{"type":"Feature","geometry":{"type":"Point","coordinates":[127.81164,26.30445]},"properties":{"name":"\u6e21\u53e3\u5909\u96fb\u6240 66kV","vn_kv":66.0,"vm_pu":0.9913,"va_deg":-6.26}},{"type":"Feature","geometry":{"type":"Point","coordinates":[127.74712,26.20392]},"properties":{"name":"\u4e0e\u90a3\u539f\u5909\u96fb\u6240 132kV","vn_kv":132.0,"vm_pu":0.9946,"va_deg":-4.5}},{"type":"Feature","geometry":{"type":"Point","coordinates":[127.74712,26.20392]},"properties":{"name":"\u4e0e\u90a3\u539f\u5909\u96fb\u6240 66kV","vn_kv":66.0,"vm_pu":0.982,"va_deg":-8.02}},{"type":"Feature","geometry":{"type":"Point","coordinates":[127.66559,26.20543]},"properties":{"name":"\u90a3\u8987\u5909\u96fb\u6240","vn_kv":66.0,"vm_pu":0.9552,"va_deg":-11.47}},{"type":"Feature","geometry":{"type":"Point","coordinates":[127.70948,26.26018]},"properties":{"name":"\u6e2f\u5ddd\u5909\u96fb\u6240","vn_kv":66.0,"vm_pu":0.9656,"va_deg":-9.83}},{"type":"Feature","geometry":{"type":"Point","coordinates":[127.71983,26.26795]},"properties":{"name":"\u7267\u6e2f\u4e94\u4e01\u76ee\u5909\u96fb\u6240 132kV","vn_kv":132.0,"vm_pu":0.9992,"va_deg":-3.9}},{"type":"Feature","geometry":{"type":"Point","coordinates":[127.71983,26.26795]},"properties":{"name":"\u7267\u6e2f\u4e94\u4e01\u76ee\u5909\u96fb\u6240 66kV","vn_kv":66.0,"vm_pu":0.9695,"va_deg":-9.33}},{"type":"Feature","geometry":{"type":"Point","coordinates":[127.78182,26.30799]},"properties":{"name":"\u745e\u6176\u89a7\u5909\u96fb\u6240 132kV","vn_kv":132.0,"vm_pu":0.9981,"va_deg":-3.44}},{"type":"Feature","geometry":{"type":"Point","coordinates":[127.78182,26.30799]},"properties":{"name":"\u745e\u6176\u89a7\u5909\u96fb\u6240 66kV","vn_kv":66.0,"vm_pu":0.9903,"va_deg":-6.23}},{"type":"Feature","geometry":{"type":"Point","coordinates":[127.80673,26.35455]},"properties":{"name":"\u7f8e\u91cc\u516d\u4e01\u76ee\u5909\u96fb\u6240 132kV","vn_kv":132.0,"vm_pu":0.9984,"va_deg":-2.83}},{"type":"Feature","geometry":{"type":"Point","coordinates":[127.80673,26.35455]},"properties":{"name":"\u7f8e\u91cc\u516d\u4e01\u76ee\u5909\u96fb\u6240 66kV","vn_kv":66.0,"vm_pu":0.9939,"va_deg":-5.01}},{"type":"Feature","geometry":{"type":"Point","coordinates":[127.83502,26.44333]},"properties":{"name":"\u77f3\u5ddd\u6771\u5c71\u4e00\u4e01\u76ee\u5909\u96fb\u6240 132kV","vn_kv":132.0,"vm_pu":0.9998,"va_deg":-0.14}},{"type":"Feature","geometry":{"type":"Point","coordinates":[127.83502,26.44333]},"properties":{"name":"\u77f3\u5ddd\u6771\u5c71\u4e00\u4e01\u76ee\u5909\u96fb\u6240 66kV","vn_kv":66.0,"vm_pu":0.9941,"va_deg":-2.88}},{"type":"Feature","geometry":{"type":"Point","coordinates":[127.83814,26.44228]},"properties":{"name":"\u77f3\u5ddd\u6771\u5c71\u4e8c\u4e01\u76ee\u5909\u96fb\u6240 132kV","vn_kv":132.0,"vm_pu":1.0,"va_deg":0.0}},{"type":"Feature","geometry":{"type":"Point","coordinates":[127.83814,26.44228]},"properties":{"name":"\u77f3\u5ddd\u6771\u5c71\u4e8c\u4e01\u76ee\u5909\u96fb\u6240 66kV","vn_kv":66.0,"vm_pu":0.994,"va_deg":-2.9}},{"type":"Feature","geometry":{"type":"Point","coordinates":[127.74191,26.24339]},"properties":{"name":"\u524d\u7530\u5909\u96fb\u6240 132kV","vn_kv":132.0,"vm_pu":0.9972,"va_deg":-4.12}},{"type":"Feature","geometry":{"type":"Point","coordinates":[127.74191,26.24339]},"properties":{"name":"\u524d\u7530\u5909\u96fb\u6240 66kV","vn_kv":66.0,"vm_pu":0.9869,"va_deg":-7.21}},{"type":"Feature","geometry":{"type":"Point","coordinates":[127.77158,26.23217]},"properties":{"name":"\u5c0f\u90a3\u8987\u5909\u96fb\u6240","vn_kv":66.0,"vm_pu":0.9871,"va_deg":-7.24}},{"type":"Feature","geometry":{"type":"Point","coordinates":[127.71949,26.16586]},"properties":{"name":"\u53cb\u5bc4\u5909\u96fb\u6240 132kV","vn_kv":132.0,"vm_pu":0.9931,"va_deg":-4.73}},{"type":"Feature","geometry":{"type":"Point","coordinates":[127.71949,26.16586]},"properties":{"name":"\u53cb\u5bc4\u5909\u96fb\u6240 66kV","vn_kv":66.0,"vm_pu":0.9673,"va_deg":-10.21}},{"type":"Feature","geometry":{"type":"Point","coordinates":[127.78619,26.15977]},"properties":{"name":"\u4f50\u6577\u5909\u96fb\u6240","vn_kv":66.0,"vm_pu":0.9666,"va_deg":-10.9}},{"type":"Feature","geometry":{"type":"Point","coordinates":[127.90821,26.6574]},"properties":{"name":"\u6771\u5909\u96fb\u6240","vn_kv":66.0,"vm_pu":1.0,"va_deg":-14.38}},{"type":"Feature","geometry":{"type":"Point","coordinates":[127.69172,26.13701]},"properties":{"name":"\u5927\u91cc\u5909\u96fb\u6240","vn_kv":66.0,"vm_pu":0.9605,"va_deg":-11.05}},{"type":"Feature","geometry":{"type":"Point","coordinates":[128.12969,26.65619]},"properties":{"name":"\u7530\u6e2f\u5909\u96fb\u6240 66kV","vn_kv":66.0,"vm_pu":0.9665,"va_deg":-13.74}},{"type":"Feature","geometry":{"type":"Point","coordinates":[127.88054,26.33242]},"properties":{"name":"\u5ddd\u7530\u5909\u96fb\u6240","vn_kv":66.0,"vm_pu":0.9907,"va_deg":-6.55}},{"type":"Feature","geometry":{"type":"Point","coordinates":[127.87334,26.38108]},"properties":{"name":"\u5b87\u5805\u5909\u96fb\u6240","vn_kv":132.0,"vm_pu":1.0,"va_deg":-1.99}},{"type":"Feature","geometry":{"type":"Point","coordinates":[127.85248,26.39337]},"properties":{"name":"\u77f3\u5ddd\u6771\u6069\u7d0d\u5909\u96fb\u6240 132kV","vn_kv":132.0,"vm_pu":0.9994,"va_deg":-2.2}},{"type":"Feature","geometry":{"type":"Point","coordinates":[127.85248,26.39337]},"properties":{"name":"\u77f3\u5ddd\u6771\u6069\u7d0d\u5909\u96fb\u6240 66kV","vn_kv":66.0,"vm_pu":0.9958,"va_deg":-4.34}},{"type":"Feature","geometry":{"type":"Point","coordinates":[127.97788,26.67315]},"properties":{"name":"\u4ef2\u5b97\u6839\u5909\u96fb\u6240","vn_kv":66.0,"vm_pu":0.981,"va_deg":-14.51}},{"type":"Feature","geometry":{"type":"Point","coordinates":[127.9383,26.61132]},"properties":{"name":"\u5c71\u5165\u7aef\u5909\u96fb\u6240","vn_kv":66.0,"vm_pu":0.972,"va_deg":-14.29}},{"type":"Feature","geometry":{"type":"Point","coordinates":[127.9927,26.58505]},"properties":{"name":"\u540d\u8b77\u5e02\u5909\u96fb\u6240","vn_kv":66.0,"vm_pu":0.9668,"va_deg":-11.92}},{"type":"Feature","geometry":{"type":"Point","coordinates":[127.93994,26.53501]},"properties":{"name":"\u559c\u702c\u5909\u96fb\u6240","vn_kv":66.0,"vm_pu":0.9668,"va_deg":-10.5}},{"type":"Feature","geometry":{"type":"Point","coordinates":[127.82714,26.45721]},"properties":{"name":"\u6069\u7d0d\u6751\u5909\u96fb\u6240","vn_kv":66.0,"vm_pu":0.9893,"va_deg":-3.72}},{"type":"Feature","geometry":{"type":"Point","coordinates":[127.82268,26.41119]},"properties":{"name":"\u77f3\u5ddd\u66d9\u4e09\u4e01\u76ee\u5909\u96fb\u6240","vn_kv":132.0,"vm_pu":0.9985,"va_deg":-2.5}},{"type":"Feature","geometry":{"type":"Point","coordinates":[127.75895,26.23526]},"properties":{"name":"\u897f\u539f\u5909\u96fb\u6240 132kV","vn_kv":132.0,"vm_pu":0.9967,"va_deg":-4.17}},{"type":"Feature","geometry":{"type":"Point","coordinates":[127.75895,26.23526]},"properties":{"name":"\u897f\u539f\u5909\u96fb\u6240 66kV","vn_kv":66.0,"vm_pu":0.9871,"va_deg":-7.21}},{"type":"Feature","geometry":{"type":"Point","coordinates":[127.68873,26.17607]},"properties":{"name":"\u4e0a\u7530\u5909\u96fb\u6240","vn_kv":66.0,"vm_pu":0.9623,"va_deg":-10.77}},{"type":"Feature","geometry":{"type":"Point","coordinates":[127.70317,26.23067]},"properties":{"name":"\u5317\u90a3\u8987\u5909\u96fb\u6240","vn_kv":66.0,"vm_pu":0.9826,"va_deg":-7.75}},{"type":"Feature","geometry":{"type":"Point","coordinates":[125.36296,24.74434]},"properties":{"name":"\u5bae\u53e4\u5cf6\u5e02\u5909\u96fb\u6240","vn_kv":66.0,"vm_pu":1.0,"va_deg":0.0}},{"type":"Feature","geometry":{"type":"Point","coordinates":[127.67995,26.20855]},"properties":{"name":"\u58f7\u5ddd\u5909\u96fb\u6240","vn_kv":66.0,"vm_pu":0.9544,"va_deg":-11.5}},{"type":"Feature","geometry":{"type":"Point","coordinates":[127.6919,26.24286]},"properties":{"name":"\u66d9\u5909\u96fb\u6240","vn_kv":66.0,"vm_pu":0.9613,"va_deg":-10.41}},{"type":"Feature","geometry":{"type":"Point","coordinates":[127.68986,26.20175]},"properties":{"name":"\u53e4\u6ce2\u8535\u4e00\u4e01\u76ee\u5909\u96fb\u6240","vn_kv":66.0,"vm_pu":0.9548,"va_deg":-11.57}},{"type":"Feature","geometry":{"type":"Point","coordinates":[124.08282,24.33091]},"properties":{"name":"\u6c96\u7e04\u96fb\u529b \u7af9\u5bcc\u914d\u96fb\u5854","vn_kv":66.0,"vm_pu":1.0,"va_deg":0.0}},{"type":"Feature","geometry":{"type":"Point","coordinates":[127.75312,26.23861]},"properties":{"name":"\u6d25\u82b1\u6ce2\u5909\u96fb\u6240 132kV","vn_kv":132.0,"vm_pu":0.9969,"va_deg":-4.15}},{"type":"Feature","geometry":{"type":"Point","coordinates":[127.75312,26.23861]},"properties":{"name":"\u6d25\u82b1\u6ce2\u5909\u96fb\u6240 66kV","vn_kv":66.0,"vm_pu":0.9873,"va_deg":-7.16}},{"type":"Feature","geometry":{"type":"Point","coordinates":[127.81938,26.1741]},"properties":{"name":"\u77e5\u5ff5\u4e45\u624b\u5805\u5909\u96fb\u6240","vn_kv":66.0,"vm_pu":1.0,"va_deg":0.0}},{"type":"Feature","geometry":{"type":"Point","coordinates":[127.65854,26.19442]},"properties":{"name":"\u8d64\u5dba\u5909\u96fb\u6240","vn_kv":66.0,"vm_pu":0.9546,"va_deg":-11.58}},{"type":"Feature","geometry":{"type":"Point","coordinates":[127.75687,26.32553]},"properties":{"name":"\u7f8e\u6d5c\u4e09\u4e01\u76ee\u5909\u96fb\u6240","vn_kv":66.0,"vm_pu":1.0,"va_deg":0.0}},{"type":"Feature","geometry":{"type":"Point","coordinates":[127.72366,26.23229]},"properties":{"name":"\u9996\u91cc\u5927\u540d\u753a\u4e09\u4e01\u76ee\u5909\u96fb\u6240","vn_kv":66.0,"vm_pu":0.9852,"va_deg":-7.43}},{"type":"Feature","geometry":{"type":"Point","coordinates":[127.68617,26.22853]},"properties":{"name":"\u4e0a\u4e4b\u5c4b\u4e00\u4e01\u76ee\u5909\u96fb\u6240","vn_kv":66.0,"vm_pu":0.9578,"va_deg":-10.89}}]}