{"type":"FeatureCollection","features":[{"type":"Feature","geometry":{"type":"Point","coordinates":[133.95095,34.16612]},"properties":{"name":"kansai junction 34.1661:133.951:187","vn_kv":187.0,"vm_pu":1.0023,"va_deg":-16.14}},{"type":"Feature","geometry":{"type":"Point","coordinates":[134.40777,34.00001]},"properties":{"name":"kansai junction 34.0:134.4078:500","vn_kv":500.0,"vm_pu":1.0019,"va_deg":-9.16}},{"type":"Feature","geometry":{"type":"Point","coordinates":[134.50482,34.09628]},"properties":{"name":"kansai junction 34.0963:134.5048:66","vn_kv":66.0,"vm_pu":0.9991,"va_deg":-24.06}},{"type":"Feature","geometry":{"type":"Point","coordinates":[134.47071,34.0628]},"properties":{"name":"kansai junction 34.0628:134.4707:66","vn_kv":66.0,"vm_pu":0.9984,"va_deg":-23.83}},{"type":"Feature","geometry":{"type":"Point","coordinates":[134.45994,34.06051]},"properties":{"name":"kansai junction 34.0605:134.4599:187","vn_kv":187.0,"vm_pu":1.0018,"va_deg":-14.45}},{"type":"Feature","geometry":{"type":"Point","coordinates":[134.34278,34.24631]},"properties":{"name":"kansai junction 34.2463:134.3428:66","vn_kv":66.0,"vm_pu":1.0003,"va_deg":-24.2}},{"type":"Feature","geometry":{"type":"Point","coordinates":[134.57664,34.13184]},"properties":{"name":"kansai junction 34.1318:134.5766:0","vn_kv":66.0,"vm_pu":0.9982,"va_deg":-24.47}},{"type":"Feature","geometry":{"type":"Point","coordinates":[134.60102,33.94894]},"properties":{"name":"kansai junction 33.9489:134.601:66","vn_kv":66.0,"vm_pu":0.9949,"va_deg":-22.93}},{"type":"Feature","geometry":{"type":"Point","coordinates":[134.69632,33.92172]},"properties":{"name":"kansai junction 33.9217:134.6963:66","vn_kv":66.0,"vm_pu":0.9928,"va_deg":-22.6}},{"type":"Feature","geometry":{"type":"Point","coordinates":[134.63629,33.88957]},"properties":{"name":"kansai junction 33.8896:134.6363:66","vn_kv":66.0,"vm_pu":0.9936,"va_deg":-22.28}},{"type":"Feature","geometry":{"type":"Point","coordinates":[134.52222,34.13607]},"properties":{"name":"kansai junction 34.1361:134.5222:66","vn_kv":66.0,"vm_pu":1.0002,"va_deg":-24.16}},{"type":"Feature","geometry":{"type":"Point","coordinates":[133.89195,34.03245]},"properties":{"name":"kansai junction 34.0324:133.892:187","vn_kv":187.0,"vm_pu":1.0055,"va_deg":-14.73}},{"type":"Feature","geometry":{"type":"Point","coordinates":[134.51666,33.83861]},"properties":{"name":"kansai junction 33.8386:134.5167:187","vn_kv":187.0,"vm_pu":1.0027,"va_deg":-14.71}},{"type":"Feature","geometry":{"type":"Point","coordinates":[134.53318,34.12256]},"properties":{"name":"kansai junction 34.1226:134.5332:66","vn_kv":66.0,"vm_pu":1.0,"va_deg":-24.2}},{"type":"Feature","geometry":{"type":"Point","coordinates":[134.60941,34.13817]},"properties":{"name":"kansai junction 34.1382:134.6094:66","vn_kv":66.0,"vm_pu":0.999,"va_deg":-24.3}},{"type":"Feature","geometry":{"type":"Point","coordinates":[134.55592,34.17542]},"properties":{"name":"kansai junction 34.1754:134.5559:187","vn_kv":187.0,"vm_pu":1.0001,"va_deg":-16.12}},{"type":"Feature","geometry":{"type":"Point","coordinates":[134.50353,34.0371]},"properties":{"name":"kansai junction 34.0371:134.5035:66","vn_kv":66.0,"vm_pu":0.999,"va_deg":-23.76}},{"type":"Feature","geometry":{"type":"Point","coordinates":[134.52136,33.82702]},"properties":{"name":"kansai junction 33.827:134.5214:66","vn_kv":66.0,"vm_pu":1.0028,"va_deg":-14.83}},{"type":"Feature","geometry":{"type":"Point","coordinates":[134.40964,33.79802]},"properties":{"name":"kansai junction 33.798:134.4096:66","vn_kv":66.0,"vm_pu":1.003,"va_deg":-14.83}},{"type":"Feature","geometry":{"type":"Point","coordinates":[134.50082,33.85117]},"properties":{"name":"kansai junction 33.8512:134.5008:0","vn_kv":66.0,"vm_pu":1.0027,"va_deg":-14.71}},{"type":"Feature","geometry":{"type":"Point","coordinates":[134.49129,33.74612]},"properties":{"name":"kansai junction 33.7461:134.4913:0","vn_kv":66.0,"vm_pu":0.9551,"va_deg":-39.96}},{"type":"Feature","geometry":{"type":"Point","coordinates":[134.62251,34.17006]},"properties":{"name":"kansai junction 34.1701:134.6225:66","vn_kv":66.0,"vm_pu":0.999,"va_deg":-24.3}},{"type":"Feature","geometry":{"type":"Point","coordinates":[134.52377,34.13585]},"properties":{"name":"kansai junction 34.1359:134.5238:66","vn_kv":66.0,"vm_pu":1.0002,"va_deg":-24.16}},{"type":"Feature","geometry":{"type":"Point","coordinates":[134.55471,34.06788]},"properties":{"name":"\u5e78\u753a\u5909\u96fb\u6240","vn_kv":66.0,"vm_pu":1.0,"va_deg":0.0}},{"type":"Feature","geometry":{"type":"Point","coordinates":[134.59004,34.00281]},"properties":{"name":"\u5357\u5c0f\u677e\u5cf6\u753a\u5909\u96fb\u6240","vn_kv":66.0,"vm_pu":0.9968,"va_deg":-23.57}},{"type":"Feature","geometry":{"type":"Point","coordinates":[134.51729,34.11705]},"properties":{"name":"\u5fdc\u795e\u5909\u96fb\u6240","vn_kv":66.0,"vm_pu":1.0,"va_deg":-24.2}},{"type":"Feature","geometry":{"type":"Point","coordinates":[134.57761,34.06564]},"properties":{"name":"\u672b\u5e83\u56db\u4e01\u76ee\u5909\u96fb\u6240","vn_kv":66.0,"vm_pu":1.0,"va_deg":0.0}},{"type":"Feature","geometry":{"type":"Point","coordinates":[134.51665,34.07241]},"properties":{"name":"\u5357\u5e84\u753a\u4e00\u4e01\u76ee\u5909\u96fb\u6240","vn_kv":187.0,"vm_pu":1.0,"va_deg":-14.6}},{"type":"Feature","geometry":{"type":"Point","coordinates":[134.61566,33.87277]},"properties":{"name":"\u6851\u91ce\u5909\u96fb\u6240","vn_kv":66.0,"vm_pu":0.9916,"va_deg":-22.48}},{"type":"Feature","geometry":{"type":"Point","coordinates":[134.57613,34.12408]},"properties":{"name":"\u5fb3\u5cf6\u5e02\u5909\u96fb\u6240 66kV","vn_kv":66.0,"vm_pu":0.9982,"va_deg":-24.47}},{"type":"Feature","geometry":{"type":"Point","coordinates":[134.55597,34.16479]},"properties":{"name":"\u9cf4\u9580\u5909\u96fb\u6240 187kV","vn_kv":187.0,"vm_pu":1.0,"va_deg":-16.11}},{"type":"Feature","geometry":{"type":"Point","coordinates":[134.55597,34.16479]},"properties":{"name":"\u9cf4\u9580\u5909\u96fb\u6240 66kV","vn_kv":66.0,"vm_pu":1.0005,"va_deg":-24.06}},{"type":"Feature","geometry":{"type":"Point","coordinates":[134.63471,33.82823]},"properties":{"name":"\u963f\u5357\u5468\u6ce2\u6570\u5909\u63db\u6240","vn_kv":500.0,"vm_pu":1.0011,"va_deg":-9.16}},{"type":"Feature","geometry":{"type":"Point","coordinates":[134.60252,34.19125]},"properties":{"name":"\u64ab\u990a\u5909\u96fb\u6240","vn_kv":66.0,"vm_pu":1.0,"va_deg":-24.82}},{"type":"Feature","geometry":{"type":"Point","coordinates":[134.59574,34.18157]},"properties":{"name":"\u6589\u7530\u5909\u96fb\u6240","vn_kv":66.0,"vm_pu":1.0,"va_deg":-24.71}},{"type":"Feature","geometry":{"type":"Point","coordinates":[134.60159,34.19048]},"properties":{"name":"\u702c\u6238\u753a\u660e\u795e\u5909\u96fb\u6240","vn_kv":66.0,"vm_pu":1.0,"va_deg":-24.81}},{"type":"Feature","geometry":{"type":"Point","coordinates":[134.65195,33.87963]},"properties":{"name":"\u963f\u5357\u767a\u96fb\u6240 (Anan Power Station) 500kV","vn_kv":500.0,"vm_pu":1.0,"va_deg":-8.93}},{"type":"Feature","geometry":{"type":"Point","coordinates":[134.65195,33.87963]},"properties":{"name":"\u963f\u5357\u767a\u96fb\u6240 (Anan Power Station) 187kV","vn_kv":187.0,"vm_pu":1.0016,"va_deg":-14.3}},{"type":"Feature","geometry":{"type":"Point","coordinates":[134.65195,33.87963]},"properties":{"name":"\u963f\u5357\u767a\u96fb\u6240 (Anan Power Station) 66kV","vn_kv":66.0,"vm_pu":0.9964,"va_deg":-21.45}},{"type":"Feature","geometry":{"type":"Point","coordinates":[134.59986,34.16207]},"properties":{"name":"\u5927\u6d25\u5909\u96fb\u6240","vn_kv":66.0,"vm_pu":0.999,"va_deg":-24.3}},{"type":"Feature","geometry":{"type":"Point","coordinates":[134.53987,34.08744]},"properties":{"name":"\u7530\u5bae\u5909\u96fb\u6240","vn_kv":66.0,"vm_pu":0.998,"va_deg":-24.23}},{"type":"Feature","geometry":{"type":"Point","coordinates":[134.52553,33.73659]},"properties":{"name":"\u7f8e\u6ce2\u753a\u5909\u96fb\u6240","vn_kv":66.0,"vm_pu":0.9501,"va_deg":-40.73}},{"type":"Feature","geometry":{"type":"Point","coordinates":[134.66129,33.91458]},"properties":{"name":"\u5bcc\u5ca1\u753a\u5909\u96fb\u6240","vn_kv":66.0,"vm_pu":0.9928,"va_deg":-22.6}},{"type":"Feature","geometry":{"type":"Point","coordinates":[134.00638,34.30884]},"properties":{"name":"chugoku junction 34.3088:134.0064:66","vn_kv":66.0,"vm_pu":1.0002,"va_deg":-22.17}},{"type":"Feature","geometry":{"type":"Point","coordinates":[134.04216,34.3138]},"properties":{"name":"chugoku junction 34.3138:134.0422:66","vn_kv":66.0,"vm_pu":1.0,"va_deg":-22.54}},{"type":"Feature","geometry":{"type":"Point","coordinates":[134.01832,34.32486]},"properties":{"name":"chugoku junction 34.3249:134.0183:66","vn_kv":66.0,"vm_pu":1.0001,"va_deg":-22.74}},{"type":"Feature","geometry":{"type":"Point","coordinates":[134.03324,34.32879]},"properties":{"name":"chugoku junction 34.3288:134.0332:66","vn_kv":66.0,"vm_pu":1.0001,"va_deg":-22.74}},{"type":"Feature","geometry":{"type":"Point","coordinates":[133.98033,34.22934]},"properties":{"name":"chugoku junction 34.2293:133.9803:187","vn_kv":187.0,"vm_pu":1.0001,"va_deg":-13.74}},{"type":"Feature","geometry":{"type":"Point","coordinates":[133.88789,34.27124]},"properties":{"name":"chugoku junction 34.2712:133.8879:187","vn_kv":187.0,"vm_pu":1.0,"va_deg":-12.39}},{"type":"Feature","geometry":{"type":"Point","coordinates":[134.0766,34.34157]},"properties":{"name":"chugoku junction 34.3416:134.0766:66","vn_kv":66.0,"vm_pu":1.0,"va_deg":-23.35}},{"type":"Feature","geometry":{"type":"Point","coordinates":[134.09072,34.29588]},"properties":{"name":"chugoku junction 34.2959:134.0907:66","vn_kv":66.0,"vm_pu":1.0,"va_deg":-23.35}},{"type":"Feature","geometry":{"type":"Point","coordinates":[134.07034,34.33951]},"properties":{"name":"chugoku junction 34.3395:134.0703:66","vn_kv":66.0,"vm_pu":1.0,"va_deg":-23.35}},{"type":"Feature","geometry":{"type":"Point","coordinates":[134.07014,34.34747]},"properties":{"name":"chugoku junction 34.3475:134.0701:66","vn_kv":66.0,"vm_pu":1.0,"va_deg":-23.35}},{"type":"Feature","geometry":{"type":"Point","coordinates":[133.888,34.13603]},"properties":{"name":"chugoku junction 34.136:133.888:187","vn_kv":187.0,"vm_pu":1.0001,"va_deg":-14.1}},{"type":"Feature","geometry":{"type":"Point","coordinates":[134.07866,34.29655]},"properties":{"name":"chugoku junction 34.2966:134.0787:66","vn_kv":66.0,"vm_pu":1.0,"va_deg":-23.35}},{"type":"Feature","geometry":{"type":"Point","coordinates":[134.05912,34.23242]},"properties":{"name":"chugoku junction 34.2324:134.0591:66","vn_kv":66.0,"vm_pu":0.9999,"va_deg":-23.35}},{"type":"Feature","geometry":{"type":"Point","coordinates":[133.85859,34.29378]},"properties":{"name":"chugoku junction 34.2938:133.8586:66","vn_kv":66.0,"vm_pu":1.0004,"va_deg":-21.38}},{"type":"Feature","geometry":{"type":"Point","coordinates":[133.99861,34.17469]},"properties":{"name":"chugoku junction 34.1747:133.9986:187","vn_kv":187.0,"vm_pu":1.0001,"va_deg":-13.88}},{"type":"Feature","geometry":{"type":"Point","coordinates":[134.21081,34.20817]},"properties":{"name":"chugoku junction 34.2082:134.2108:187","vn_kv":187.0,"vm_pu":0.9998,"va_deg":-15.21}},{"type":"Feature","geometry":{"type":"Point","coordinates":[134.54783,34.18405]},"properties":{"name":"chugoku junction 34.184:134.5478:187","vn_kv":187.0,"vm_pu":1.0005,"va_deg":-15.22}},{"type":"Feature","geometry":{"type":"Point","coordinates":[133.82877,34.34781]},"properties":{"name":"chugoku junction 34.3478:133.8288:187","vn_kv":187.0,"vm_pu":1.0,"va_deg":-10.57}},{"type":"Feature","geometry":{"type":"Point","coordinates":[133.8535,34.20148]},"properties":{"name":"chugoku junction 34.2015:133.8535:66","vn_kv":66.0,"vm_pu":1.0,"va_deg":-24.19}},{"type":"Feature","geometry":{"type":"Point","coordinates":[134.05364,34.40872]},"properties":{"name":"chugoku junction 34.4087:134.0536:0","vn_kv":66.0,"vm_pu":1.0,"va_deg":0.0}},{"type":"Feature","geometry":{"type":"Point","coordinates":[134.05453,34.41784]},"properties":{"name":"chugoku junction 34.4178:134.0545:0","vn_kv":66.0,"vm_pu":1.0,"va_deg":-0.0}},{"type":"Feature","geometry":{"type":"Point","coordinates":[132.81432,33.82129]},"properties":{"name":"chugoku junction 33.8213:132.8143:66","vn_kv":66.0,"vm_pu":1.0003,"va_deg":-14.84}},{"type":"Feature","geometry":{"type":"Point","coordinates":[133.22481,33.90841]},"properties":{"name":"chugoku junction 33.9084:133.2248:187","vn_kv":187.0,"vm_pu":1.0003,"va_deg":-11.24}},{"type":"Feature","geometry":{"type":"Point","coordinates":[132.94984,33.80844]},"properties":{"name":"chugoku junction 33.8084:132.9498:187","vn_kv":187.0,"vm_pu":1.0014,"va_deg":-11.04}},{"type":"Feature","geometry":{"type":"Point","coordinates":[132.78443,33.88173]},"properties":{"name":"chugoku junction 33.8817:132.7844:66","vn_kv":66.0,"vm_pu":1.0011,"va_deg":-14.84}},{"type":"Feature","geometry":{"type":"Point","coordinates":[133.32708,33.95308]},"properties":{"name":"chugoku junction 33.9531:133.3271:66","vn_kv":66.0,"vm_pu":0.9998,"va_deg":-14.11}},{"type":"Feature","geometry":{"type":"Point","coordinates":[133.56226,33.96689]},"properties":{"name":"chugoku junction 33.9669:133.5623:187","vn_kv":187.0,"vm_pu":1.0,"va_deg":-13.22}},{"type":"Feature","geometry":{"type":"Point","coordinates":[133.38159,33.92561]},"properties":{"name":"chugoku junction 33.9256:133.3816:187","vn_kv":187.0,"vm_pu":1.0007,"va_deg":-11.77}},{"type":"Feature","geometry":{"type":"Point","coordinates":[132.55773,33.56352]},"properties":{"name":"chugoku junction 33.5635:132.5577:187","vn_kv":187.0,"vm_pu":1.0028,"va_deg":-11.01}},{"type":"Feature","geometry":{"type":"Point","coordinates":[132.54216,33.5886]},"properties":{"name":"chugoku junction 33.5886:132.5422:500","vn_kv":500.0,"vm_pu":1.0013,"va_deg":-9.06}},{"type":"Feature","geometry":{"type":"Point","coordinates":[132.55576,33.56576]},"properties":{"name":"chugoku junction 33.5658:132.5558:187","vn_kv":187.0,"vm_pu":1.0029,"va_deg":-11.01}},{"type":"Feature","geometry":{"type":"Point","coordinates":[133.73286,34.23409]},"properties":{"name":"chugoku junction 34.2341:133.7329:66","vn_kv":66.0,"vm_pu":0.9988,"va_deg":-18.52}},{"type":"Feature","geometry":{"type":"Point","coordinates":[133.76339,34.27775]},"properties":{"name":"chugoku junction 34.2778:133.7634:66","vn_kv":66.0,"vm_pu":0.9997,"va_deg":-22.35}},{"type":"Feature","geometry":{"type":"Point","coordinates":[134.19304,34.3249]},"properties":{"name":"chugoku junction 34.3249:134.193:66","vn_kv":66.0,"vm_pu":1.0,"va_deg":-24.95}},{"type":"Feature","geometry":{"type":"Point","coordinates":[134.15492,34.27738]},"properties":{"name":"chugoku junction 34.2774:134.1549:66","vn_kv":66.0,"vm_pu":1.0,"va_deg":-24.94}},{"type":"Feature","geometry":{"type":"Point","coordinates":[134.23612,34.25481]},"properties":{"name":"chugoku junction 34.2548:134.2361:66","vn_kv":66.0,"vm_pu":1.001,"va_deg":-23.93}},{"type":"Feature","geometry":{"type":"Point","coordinates":[134.30867,34.24132]},"properties":{"name":"chugoku junction 34.2413:134.3087:66","vn_kv":66.0,"vm_pu":1.0004,"va_deg":-24.24}},{"type":"Feature","geometry":{"type":"Point","coordinates":[133.7683,34.19261]},"properties":{"name":"chugoku junction 34.1926:133.7683:0","vn_kv":66.0,"vm_pu":0.9999,"va_deg":-15.4}},{"type":"Feature","geometry":{"type":"Point","coordinates":[134.6343,33.82744]},"properties":{"name":"chugoku junction 33.8274:134.6343:500","vn_kv":500.0,"vm_pu":1.0049,"va_deg":-9.38}},{"type":"Feature","geometry":{"type":"Point","coordinates":[134.42181,34.13896]},"properties":{"name":"chugoku junction 34.139:134.4218:66","vn_kv":66.0,"vm_pu":1.0,"va_deg":-24.13}},{"type":"Feature","geometry":{"type":"Point","coordinates":[134.46705,34.15154]},"properties":{"name":"chugoku junction 34.1515:134.4671:66","vn_kv":66.0,"vm_pu":1.0,"va_deg":-24.13}},{"type":"Feature","geometry":{"type":"Point","coordinates":[134.59117,34.00357]},"properties":{"name":"chugoku junction 34.0036:134.5912:66","vn_kv":66.0,"vm_pu":0.9997,"va_deg":-23.7}},{"type":"Feature","geometry":{"type":"Point","coordinates":[134.55535,34.16611]},"properties":{"name":"chugoku junction 34.1661:134.5554:187","vn_kv":187.0,"vm_pu":1.0022,"va_deg":-14.45}},{"type":"Feature","geometry":{"type":"Point","coordinates":[134.40973,34.21086]},"properties":{"name":"chugoku junction 34.2109:134.4097:66","vn_kv":66.0,"vm_pu":1.0,"va_deg":-24.3}},{"type":"Feature","geometry":{"type":"Point","coordinates":[134.34905,33.6022]},"properties":{"name":"chugoku junction 33.6022:134.349:0","vn_kv":66.0,"vm_pu":0.9554,"va_deg":-39.97}},{"type":"Feature","geometry":{"type":"Point","coordinates":[133.04518,34.22507]},"properties":{"name":"chugoku junction 34.2251:133.0452:110","vn_kv":110.0,"vm_pu":1.0002,"va_deg":-12.92}},{"type":"Feature","geometry":{"type":"Point","coordinates":[134.62481,33.89952]},"properties":{"name":"chugoku junction 33.8995:134.6248:187","vn_kv":187.0,"vm_pu":1.0022,"va_deg":-14.47}},{"type":"Feature","geometry":{"type":"Point","coordinates":[134.27423,33.8788]},"properties":{"name":"chugoku junction 33.8788:134.2742:187","vn_kv":187.0,"vm_pu":1.0015,"va_deg":-14.47}},{"type":"Feature","geometry":{"type":"Point","coordinates":[134.65133,33.87987]},"properties":{"name":"chugoku junction 33.8799:134.6513:187","vn_kv":187.0,"vm_pu":1.0023,"va_deg":-14.47}},{"type":"Feature","geometry":{"type":"Point","coordinates":[133.23523,33.90254]},"properties":{"name":"chugoku junction 33.9025:133.2352:187","vn_kv":187.0,"vm_pu":1.0003,"va_deg":-11.28}},{"type":"Feature","geometry":{"type":"Point","coordinates":[133.75751,34.18399]},"properties":{"name":"chugoku junction 34.184:133.7575:187","vn_kv":187.0,"vm_pu":0.9999,"va_deg":-15.4}},{"type":"Feature","geometry":{"type":"Point","coordinates":[132.76785,33.91086]},"properties":{"name":"chugoku junction 33.9109:132.7678:66","vn_kv":66.0,"vm_pu":1.001,"va_deg":-14.94}},{"type":"Feature","geometry":{"type":"Point","coordinates":[132.74983,33.89983]},"properties":{"name":"chugoku junction 33.8998:132.7498:66","vn_kv":66.0,"vm_pu":1.001,"va_deg":-14.97}},{"type":"Feature","geometry":{"type":"Point","coordinates":[132.73399,33.85484]},"properties":{"name":"chugoku junction 33.8548:132.734:66","vn_kv":66.0,"vm_pu":1.0003,"va_deg":-15.32}},{"type":"Feature","geometry":{"type":"Point","coordinates":[132.72937,33.84815]},"properties":{"name":"chugoku junction 33.8481:132.7294:66","vn_kv":66.0,"vm_pu":1.0002,"va_deg":-15.36}},{"type":"Feature","geometry":{"type":"Point","coordinates":[132.70311,33.83969]},"properties":{"name":"chugoku junction 33.8397:132.7031:0","vn_kv":66.0,"vm_pu":1.0,"va_deg":-15.47}},{"type":"Feature","geometry":{"type":"Point","coordinates":[133.311,33.95336]},"properties":{"name":"chugoku junction 33.9534:133.311:66","vn_kv":66.0,"vm_pu":1.0,"va_deg":-14.03}},{"type":"Feature","geometry":{"type":"Point","coordinates":[133.26756,33.93469]},"properties":{"name":"chugoku junction 33.9347:133.2676:66","vn_kv":66.0,"vm_pu":1.0002,"va_deg":-13.9}},{"type":"Feature","geometry":{"type":"Point","coordinates":[133.84406,34.34354]},"properties":{"name":"chugoku junction 34.3435:133.8441:187","vn_kv":187.0,"vm_pu":1.0,"va_deg":-10.57}},{"type":"Feature","geometry":{"type":"Point","coordinates":[133.67908,34.09138]},"properties":{"name":"chugoku junction 34.0914:133.6791:187","vn_kv":187.0,"vm_pu":0.9999,"va_deg":-15.61}},{"type":"Feature","geometry":{"type":"Point","coordinates":[133.68489,34.08871]},"properties":{"name":"chugoku junction 34.0887:133.6849:187","vn_kv":187.0,"vm_pu":0.9999,"va_deg":-15.61}},{"type":"Feature","geometry":{"type":"Point","coordinates":[133.63678,34.11417]},"properties":{"name":"chugoku junction 34.1142:133.6368:0","vn_kv":66.0,"vm_pu":0.9995,"va_deg":-15.8}},{"type":"Feature","geometry":{"type":"Point","coordinates":[133.66736,34.21007]},"properties":{"name":"chugoku junction 34.2101:133.6674:0","vn_kv":66.0,"vm_pu":1.0,"va_deg":-16.61}},{"type":"Feature","geometry":{"type":"Point","coordinates":[134.07668,34.00262]},"properties":{"name":"chugoku junction 34.0026:134.0767:66","vn_kv":66.0,"vm_pu":0.9982,"va_deg":-28.62}},{"type":"Feature","geometry":{"type":"Point","coordinates":[134.07837,34.00284]},"properties":{"name":"chugoku junction 34.0028:134.0784:66","vn_kv":66.0,"vm_pu":0.9982,"va_deg":-28.62}},{"type":"Feature","geometry":{"type":"Point","coordinates":[133.05238,33.96688]},"properties":{"name":"chugoku junction 33.9669:133.0524:66","vn_kv":66.0,"vm_pu":1.0001,"va_deg":-13.1}},{"type":"Feature","geometry":{"type":"Point","coordinates":[133.09092,33.94316]},"properties":{"name":"chugoku junction 33.9432:133.0909:66","vn_kv":66.0,"vm_pu":1.0002,"va_deg":-13.01}},{"type":"Feature","geometry":{"type":"Point","coordinates":[133.12164,33.9218]},"properties":{"name":"chugoku junction 33.9218:133.1216:0","vn_kv":66.0,"vm_pu":1.0,"va_deg":-9.78}},{"type":"Feature","geometry":{"type":"Point","coordinates":[133.12045,33.93643]},"properties":{"name":"chugoku junction 33.9364:133.1205:0","vn_kv":66.0,"vm_pu":1.0,"va_deg":-9.73}},{"type":"Feature","geometry":{"type":"Point","coordinates":[133.02827,34.0084]},"properties":{"name":"chugoku junction 34.0084:133.0283:66","vn_kv":66.0,"vm_pu":0.9998,"va_deg":-13.22}},{"type":"Feature","geometry":{"type":"Point","coordinates":[133.00462,34.03664]},"properties":{"name":"chugoku junction 34.0366:133.0046:66","vn_kv":66.0,"vm_pu":0.9996,"va_deg":-13.31}},{"type":"Feature","geometry":{"type":"Point","coordinates":[133.03615,34.0115]},"properties":{"name":"chugoku junction 34.0115:133.0361:66","vn_kv":66.0,"vm_pu":0.9998,"va_deg":-13.22}},{"type":"Feature","geometry":{"type":"Point","coordinates":[134.35197,34.04583]},"properties":{"name":"chugoku junction 34.0458:134.352:66","vn_kv":66.0,"vm_pu":0.9996,"va_deg":-27.56}},{"type":"Feature","geometry":{"type":"Point","coordinates":[134.61605,33.87246]},"properties":{"name":"chugoku junction 33.8725:134.6161:0","vn_kv":66.0,"vm_pu":1.0033,"va_deg":-14.84}},{"type":"Feature","geometry":{"type":"Point","coordinates":[133.69579,34.22785]},"properties":{"name":"chugoku junction 34.2278:133.6958:66","vn_kv":66.0,"vm_pu":0.9995,"va_deg":-16.87}},{"type":"Feature","geometry":{"type":"Point","coordinates":[133.69232,34.23106]},"properties":{"name":"chugoku junction 34.2311:133.6923:66","vn_kv":66.0,"vm_pu":0.9996,"va_deg":-16.86}},{"type":"Feature","geometry":{"type":"Point","coordinates":[133.68581,34.23058]},"properties":{"name":"chugoku junction 34.2306:133.6858:66","vn_kv":66.0,"vm_pu":0.9996,"va_deg":-16.86}},{"type":"Feature","geometry":{"type":"Point","coordinates":[133.57517,33.99479]},"properties":{"name":"chugoku junction 33.9948:133.5752:66","vn_kv":66.0,"vm_pu":0.9998,"va_deg":-23.65}},{"type":"Feature","geometry":{"type":"Point","coordinates":[133.5798,33.98059]},"properties":{"name":"chugoku junction 33.9806:133.5798:66","vn_kv":66.0,"vm_pu":0.999,"va_deg":-23.6}},{"type":"Feature","geometry":{"type":"Point","coordinates":[133.84476,33.99792]},"properties":{"name":"chugoku junction 33.9979:133.8448:66","vn_kv":66.0,"vm_pu":0.9998,"va_deg":-25.96}},{"type":"Feature","geometry":{"type":"Point","coordinates":[133.89725,33.97861]},"properties":{"name":"chugoku junction 33.9786:133.8973:66","vn_kv":66.0,"vm_pu":1.0,"va_deg":-24.97}},{"type":"Feature","geometry":{"type":"Point","coordinates":[133.99359,34.0304]},"properties":{"name":"chugoku junction 34.0304:133.9936:66","vn_kv":66.0,"vm_pu":0.9966,"va_deg":-27.19}},{"type":"Feature","geometry":{"type":"Point","coordinates":[133.53764,33.74077]},"properties":{"name":"chugoku junction 33.7408:133.5376:187","vn_kv":187.0,"vm_pu":1.001,"va_deg":-12.9}},{"type":"Feature","geometry":{"type":"Point","coordinates":[134.06342,34.34818]},"properties":{"name":"chugoku junction 34.3482:134.0634:0","vn_kv":66.0,"vm_pu":1.0,"va_deg":0.0}},{"type":"Feature","geometry":{"type":"Point","coordinates":[134.06342,34.349]},"properties":{"name":"chugoku junction 34.349:134.0634:0","vn_kv":66.0,"vm_pu":1.0,"va_deg":-0.0}},{"type":"Feature","geometry":{"type":"Point","coordinates":[133.15454,34.23408]},"properties":{"name":"chugoku junction 34.2341:133.1545:0","vn_kv":66.0,"vm_pu":1.0,"va_deg":0.0}},{"type":"Feature","geometry":{"type":"Point","coordinates":[133.15453,34.22885]},"properties":{"name":"chugoku junction 34.2288:133.1545:0","vn_kv":66.0,"vm_pu":1.0,"va_deg":-0.0}},{"type":"Feature","geometry":{"type":"Point","coordinates":[132.99391,34.12043]},"properties":{"name":"chugoku junction 34.1204:132.9939:0","vn_kv":66.0,"vm_pu":1.0,"va_deg":0.0}},{"type":"Feature","geometry":{"type":"Point","coordinates":[132.98058,34.12538]},"properties":{"name":"chugoku junction 34.1254:132.9806:0","vn_kv":66.0,"vm_pu":1.0,"va_deg":-0.0}},{"type":"Feature","geometry":{"type":"Point","coordinates":[132.96482,34.11578]},"properties":{"name":"chugoku junction 34.1158:132.9648:0","vn_kv":66.0,"vm_pu":1.0,"va_deg":0.0}},{"type":"Feature","geometry":{"type":"Point","coordinates":[132.97546,34.12361]},"properties":{"name":"chugoku junction 34.1236:132.9755:0","vn_kv":66.0,"vm_pu":1.0,"va_deg":-0.0}},{"type":"Feature","geometry":{"type":"Point","coordinates":[132.93225,34.1862]},"properties":{"name":"chugoku junction 34.1862:132.9322:0","vn_kv":66.0,"vm_pu":1.0,"va_deg":0.0}},{"type":"Feature","geometry":{"type":"Point","coordinates":[132.9501,34.19407]},"properties":{"name":"chugoku junction 34.1941:132.9501:0","vn_kv":66.0,"vm_pu":1.0,"va_deg":-0.0}},{"type":"Feature","geometry":{"type":"Point","coordinates":[132.64073,33.96328]},"properties":{"name":"chugoku junction 33.9633:132.6407:0","vn_kv":66.0,"vm_pu":1.0,"va_deg":0.0}},{"type":"Feature","geometry":{"type":"Point","coordinates":[132.64963,33.96213]},"properties":{"name":"chugoku junction 33.9621:132.6496:0","vn_kv":66.0,"vm_pu":1.0,"va_deg":-0.0}},{"type":"Feature","geometry":{"type":"Point","coordinates":[133.08594,34.19739]},"properties":{"name":"chugoku junction 34.1974:133.0859:0","vn_kv":66.0,"vm_pu":1.0,"va_deg":0.0}},{"type":"Feature","geometry":{"type":"Point","coordinates":[133.08823,34.19391]},"properties":{"name":"chugoku junction 34.1939:133.0882:0","vn_kv":66.0,"vm_pu":1.0,"va_deg":-0.0}},{"type":"Feature","geometry":{"type":"Point","coordinates":[133.01609,34.1408]},"properties":{"name":"chugoku junction 34.1408:133.0161:0","vn_kv":66.0,"vm_pu":1.0,"va_deg":-0.0}},{"type":"Feature","geometry":{"type":"Point","coordinates":[133.00727,34.14773]},"properties":{"name":"chugoku junction 34.1477:133.0073:0","vn_kv":66.0,"vm_pu":1.0,"va_deg":0.0}},{"type":"Feature","geometry":{"type":"Point","coordinates":[133.16411,34.25772]},"properties":{"name":"chugoku junction 34.2577:133.1641:0","vn_kv":66.0,"vm_pu":1.0,"va_deg":0.0}},{"type":"Feature","geometry":{"type":"Point","coordinates":[133.17329,34.26022]},"properties":{"name":"chugoku junction 34.2602:133.1733:0","vn_kv":66.0,"vm_pu":1.0,"va_deg":-0.0}},{"type":"Feature","geometry":{"type":"Point","coordinates":[133.77329,34.27704]},"properties":{"name":"chugoku junction 34.277:133.7733:66","vn_kv":66.0,"vm_pu":0.9999,"va_deg":-22.55}},{"type":"Feature","geometry":{"type":"Point","coordinates":[133.35693,33.76501]},"properties":{"name":"chugoku junction 33.765:133.3569:187","vn_kv":187.0,"vm_pu":1.0001,"va_deg":-11.99}},{"type":"Feature","geometry":{"type":"Point","coordinates":[133.45437,33.57349]},"properties":{"name":"chugoku junction 33.5735:133.4544:187","vn_kv":187.0,"vm_pu":1.0005,"va_deg":-12.0}},{"type":"Feature","geometry":{"type":"Point","coordinates":[133.97739,34.47194]},"properties":{"name":"chugoku junction 34.4719:133.9774:0","vn_kv":66.0,"vm_pu":0.9805,"va_deg":-21.48}},{"type":"Feature","geometry":{"type":"Point","coordinates":[132.77924,33.78811]},"properties":{"name":"chugoku junction 33.7881:132.7792:66","vn_kv":66.0,"vm_pu":1.0001,"va_deg":-14.54}},{"type":"Feature","geometry":{"type":"Point","coordinates":[132.81685,33.57262]},"properties":{"name":"chugoku junction 33.5726:132.8169:66","vn_kv":66.0,"vm_pu":1.0005,"va_deg":-14.54}},{"type":"Feature","geometry":{"type":"Point","coordinates":[132.7724,33.78923]},"properties":{"name":"chugoku junction 33.7892:132.7724:66","vn_kv":66.0,"vm_pu":1.0001,"va_deg":-14.54}},{"type":"Feature","geometry":{"type":"Point","coordinates":[134.13696,34.05109]},"properties":{"name":"chugoku junction 34.0511:134.137:66","vn_kv":66.0,"vm_pu":0.9992,"va_deg":-29.16}},{"type":"Feature","geometry":{"type":"Point","coordinates":[133.79084,33.79217]},"properties":{"name":"chugoku junction 33.7922:133.7908:66","vn_kv":66.0,"vm_pu":1.0012,"va_deg":-18.72}},{"type":"Feature","geometry":{"type":"Point","coordinates":[133.68962,33.63537]},"properties":{"name":"chugoku junction 33.6354:133.6896:66","vn_kv":66.0,"vm_pu":1.0014,"va_deg":-18.73}},{"type":"Feature","geometry":{"type":"Point","coordinates":[133.7788,33.9662]},"properties":{"name":"chugoku junction 33.9662:133.7788:66","vn_kv":66.0,"vm_pu":1.0,"va_deg":-25.89}},{"type":"Feature","geometry":{"type":"Point","coordinates":[133.77593,33.96459]},"properties":{"name":"chugoku junction 33.9646:133.7759:66","vn_kv":66.0,"vm_pu":1.0,"va_deg":-25.89}},{"type":"Feature","geometry":{"type":"Point","coordinates":[133.7553,33.96694]},"properties":{"name":"chugoku junction 33.9669:133.7553:66","vn_kv":66.0,"vm_pu":1.0,"va_deg":-25.89}},{"type":"Feature","geometry":{"type":"Point","coordinates":[133.81512,33.90028]},"properties":{"name":"chugoku junction 33.9003:133.8151:66","vn_kv":66.0,"vm_pu":1.0,"va_deg":-25.89}},{"type":"Feature","geometry":{"type":"Point","coordinates":[133.81519,33.90043]},"properties":{"name":"chugoku junction 33.9004:133.8152:0","vn_kv":66.0,"vm_pu":1.0,"va_deg":-0.0}},{"type":"Feature","geometry":{"type":"Point","coordinates":[133.89988,33.86052]},"properties":{"name":"chugoku junction 33.8605:133.8999:0","vn_kv":66.0,"vm_pu":1.0002,"va_deg":-0.0}},{"type":"Feature","geometry":{"type":"Point","coordinates":[133.89927,33.85953]},"properties":{"name":"chugoku junction 33.8595:133.8993:0","vn_kv":66.0,"vm_pu":1.0002,"va_deg":-0.0}},{"type":"Feature","geometry":{"type":"Point","coordinates":[134.02375,33.85046]},"properties":{"name":"chugoku junction 33.8505:134.0238:0","vn_kv":66.0,"vm_pu":1.0003,"va_deg":-0.01}},{"type":"Feature","geometry":{"type":"Point","coordinates":[134.52675,33.73701]},"properties":{"name":"chugoku junction 33.737:134.5268:0","vn_kv":66.0,"vm_pu":0.9551,"va_deg":-39.96}},{"type":"Feature","geometry":{"type":"Point","coordinates":[133.55953,34.0049]},"properties":{"name":"chugoku junction 34.0049:133.5595:66","vn_kv":66.0,"vm_pu":1.0,"va_deg":-23.69}},{"type":"Feature","geometry":{"type":"Point","coordinates":[133.05426,33.90654]},"properties":{"name":"chugoku junction 33.9065:133.0543:66","vn_kv":66.0,"vm_pu":1.0,"va_deg":-13.09}},{"type":"Feature","geometry":{"type":"Point","coordinates":[133.0905,33.94391]},"properties":{"name":"chugoku junction 33.9439:133.0905:66","vn_kv":66.0,"vm_pu":1.0002,"va_deg":-13.02}},{"type":"Feature","geometry":{"type":"Point","coordinates":[133.09316,33.94406]},"properties":{"name":"chugoku junction 33.9441:133.0932:66","vn_kv":66.0,"vm_pu":1.0002,"va_deg":-13.02}},{"type":"Feature","geometry":{"type":"Point","coordinates":[134.41089,34.21269]},"properties":{"name":"chugoku junction 34.2127:134.4109:66","vn_kv":66.0,"vm_pu":1.0,"va_deg":-24.3}},{"type":"Feature","geometry":{"type":"Point","coordinates":[134.0448,34.23885]},"properties":{"name":"chugoku junction 34.2388:134.0448:0","vn_kv":66.0,"vm_pu":1.0,"va_deg":-0.0}},{"type":"Feature","geometry":{"type":"Point","coordinates":[134.04225,34.23962]},"properties":{"name":"chugoku junction 34.2396:134.0423:0","vn_kv":66.0,"vm_pu":1.0,"va_deg":0.0}},{"type":"Feature","geometry":{"type":"Point","coordinates":[134.04208,34.24044]},"properties":{"name":"chugoku junction 34.2404:134.0421:0","vn_kv":66.0,"vm_pu":1.0,"va_deg":-0.0}},{"type":"Feature","geometry":{"type":"Point","coordinates":[134.04333,34.23924]},"properties":{"name":"chugoku junction 34.2392:134.0433:0","vn_kv":66.0,"vm_pu":1.0,"va_deg":-0.0}},{"type":"Feature","geometry":{"type":"Point","coordinates":[134.04505,34.23959]},"properties":{"name":"chugoku junction 34.2396:134.0451:0","vn_kv":66.0,"vm_pu":1.0,"va_deg":0.0}},{"type":"Feature","geometry":{"type":"Point","coordinates":[134.04232,34.24043]},"properties":{"name":"chugoku junction 34.2404:134.0423:0","vn_kv":66.0,"vm_pu":1.0,"va_deg":-0.0}},{"type":"Feature","geometry":{"type":"Point","coordinates":[134.04456,34.24093]},"properties":{"name":"chugoku junction 34.2409:134.0446:0","vn_kv":66.0,"vm_pu":1.0,"va_deg":-0.0}},{"type":"Feature","geometry":{"type":"Point","coordinates":[134.04511,34.24046]},"properties":{"name":"chugoku junction 34.2405:134.0451:0","vn_kv":66.0,"vm_pu":1.0,"va_deg":0.0}},{"type":"Feature","geometry":{"type":"Point","coordinates":[133.76398,34.29727]},"properties":{"name":"chugoku junction 34.2973:133.764:0","vn_kv":66.0,"vm_pu":1.0,"va_deg":-22.72}},{"type":"Feature","geometry":{"type":"Point","coordinates":[133.77885,34.30531]},"properties":{"name":"chugoku junction 34.3053:133.7789:0","vn_kv":66.0,"vm_pu":1.0,"va_deg":-22.89}},{"type":"Feature","geometry":{"type":"Point","coordinates":[134.31082,34.24282]},"properties":{"name":"chugoku junction 34.2428:134.3108:66","vn_kv":66.0,"vm_pu":1.0004,"va_deg":-24.24}},{"type":"Feature","geometry":{"type":"Point","coordinates":[132.75017,33.85216]},"properties":{"name":"chugoku junction 33.8522:132.7502:66","vn_kv":66.0,"vm_pu":1.0003,"va_deg":-15.32}},{"type":"Feature","geometry":{"type":"Point","coordinates":[132.73859,33.8353]},"properties":{"name":"chugoku junction 33.8353:132.7386:66","vn_kv":66.0,"vm_pu":1.0002,"va_deg":-15.36}},{"type":"Feature","geometry":{"type":"Point","coordinates":[132.7537,33.8832]},"properties":{"name":"chugoku junction 33.8832:132.7537:66","vn_kv":66.0,"vm_pu":1.0011,"va_deg":-14.89}},{"type":"Feature","geometry":{"type":"Point","coordinates":[132.77229,33.85429]},"properties":{"name":"chugoku junction 33.8543:132.7723:66","vn_kv":66.0,"vm_pu":1.0011,"va_deg":-14.84}},{"type":"Feature","geometry":{"type":"Point","coordinates":[132.98588,34.07337]},"properties":{"name":"chugoku junction 34.0734:132.9859:66","vn_kv":66.0,"vm_pu":1.0,"va_deg":-13.26}},{"type":"Feature","geometry":{"type":"Point","coordinates":[132.99408,34.07879]},"properties":{"name":"chugoku junction 34.0788:132.9941:66","vn_kv":66.0,"vm_pu":1.0,"va_deg":-13.26}},{"type":"Feature","geometry":{"type":"Point","coordinates":[132.9747,34.09636]},"properties":{"name":"chugoku junction 34.0964:132.9747:66","vn_kv":66.0,"vm_pu":1.0,"va_deg":-13.26}},{"type":"Feature","geometry":{"type":"Point","coordinates":[132.86069,34.03552]},"properties":{"name":"chugoku junction 34.0355:132.8607:66","vn_kv":66.0,"vm_pu":1.0001,"va_deg":-15.75}},{"type":"Feature","geometry":{"type":"Point","coordinates":[132.88852,34.0578]},"properties":{"name":"chugoku junction 34.0578:132.8885:66","vn_kv":66.0,"vm_pu":1.0001,"va_deg":-15.75}},{"type":"Feature","geometry":{"type":"Point","coordinates":[132.85928,34.04808]},"properties":{"name":"chugoku junction 34.0481:132.8593:66","vn_kv":66.0,"vm_pu":1.0001,"va_deg":-15.75}},{"type":"Feature","geometry":{"type":"Point","coordinates":[133.33273,33.66907]},"properties":{"name":"chugoku junction 33.6691:133.3327:0","vn_kv":66.0,"vm_pu":1.0,"va_deg":0.0}},{"type":"Feature","geometry":{"type":"Point","coordinates":[133.26915,33.71768]},"properties":{"name":"chugoku junction 33.7177:133.2691:0","vn_kv":66.0,"vm_pu":1.0001,"va_deg":-0.0}},{"type":"Feature","geometry":{"type":"Point","coordinates":[134.48307,33.92151]},"properties":{"name":"chugoku junction 33.9215:134.4831:0","vn_kv":66.0,"vm_pu":1.0,"va_deg":0.0}},{"type":"Feature","geometry":{"type":"Point","coordinates":[134.49912,33.99319]},"properties":{"name":"chugoku junction 33.9932:134.4991:0","vn_kv":66.0,"vm_pu":1.0,"va_deg":-0.0}},{"type":"Feature","geometry":{"type":"Point","coordinates":[133.21161,34.282]},"properties":{"name":"chugoku junction 34.282:133.2116:0","vn_kv":66.0,"vm_pu":1.0,"va_deg":-0.0}},{"type":"Feature","geometry":{"type":"Point","coordinates":[134.03225,34.28838]},"properties":{"name":"\u5909\u96fb\u6240","vn_kv":66.0,"vm_pu":1.0,"va_deg":-22.89}},{"type":"Feature","geometry":{"type":"Point","coordinates":[134.05117,34.32331]},"properties":{"name":"\u6817\u6797\u5909\u96fb\u6240","vn_kv":66.0,"vm_pu":1.0,"va_deg":-23.02}},{"type":"Feature","geometry":{"type":"Point","coordinates":[134.00285,34.22558]},"properties":{"name":"\u9999\u5ddd\u5909\u96fb\u6240 187kV","vn_kv":187.0,"vm_pu":1.0,"va_deg":-13.92}},{"type":"Feature","geometry":{"type":"Point","coordinates":[134.00285,34.22558]},"properties":{"name":"\u9999\u5ddd\u5909\u96fb\u6240 66kV","vn_kv":66.0,"vm_pu":1.0005,"va_deg":-22.19}},{"type":"Feature","geometry":{"type":"Point","coordinates":[133.98667,34.29022]},"properties":{"name":"\u9ad8\u677e\u5909\u96fb\u6240 187kV","vn_kv":187.0,"vm_pu":1.0,"va_deg":-14.01}},{"type":"Feature","geometry":{"type":"Point","coordinates":[133.98667,34.29022]},"properties":{"name":"\u9ad8\u677e\u5909\u96fb\u6240 66kV","vn_kv":66.0,"vm_pu":1.0003,"va_deg":-21.97}},{"type":"Feature","geometry":{"type":"Point","coordinates":[133.95325,34.165]},"properties":{"name":"\u8b83\u5c90\u5909\u96fb\u6240 500kV","vn_kv":500.0,"vm_pu":1.004,"va_deg":-9.11}},{"type":"Feature","geometry":{"type":"Point","coordinates":[133.95325,34.165]},"properties":{"name":"\u8b83\u5c90\u5909\u96fb\u6240 187kV","vn_kv":187.0,"vm_pu":1.0003,"va_deg":-13.57}},{"type":"Feature","geometry":{"type":"Point","coordinates":[133.94239,34.24409]},"properties":{"name":"\u7dbe\u5357\u5909\u96fb\u6240","vn_kv":66.0,"vm_pu":1.0,"va_deg":-21.98}},{"type":"Feature","geometry":{"type":"Point","coordinates":[133.9791,34.30595]},"properties":{"name":"\u7aef\u5ca1\u5909\u96fb\u6240","vn_kv":66.0,"vm_pu":1.0,"va_deg":-22.01}},{"type":"Feature","geometry":{"type":"Point","coordinates":[134.01535,34.24078]},"properties":{"name":"\u7531\u4f50\u5909\u96fb\u6240","vn_kv":66.0,"vm_pu":1.0,"va_deg":-22.39}},{"type":"Feature","geometry":{"type":"Point","coordinates":[133.8638,34.32378]},"properties":{"name":"\u662d\u548c\u753a\u4e8c\u4e01\u76ee\u5909\u96fb\u6240","vn_kv":66.0,"vm_pu":1.0007,"va_deg":-19.38}},{"type":"Feature","geometry":{"type":"Point","coordinates":[133.80264,34.29971]},"properties":{"name":"\u5bcc\u58eb\u898b\u5909\u96fb\u6240","vn_kv":66.0,"vm_pu":1.0,"va_deg":-22.16}},{"type":"Feature","geometry":{"type":"Point","coordinates":[133.8219,34.30548]},"properties":{"name":"\u5b87\u591a\u6d25\u5909\u96fb\u6240","vn_kv":66.0,"vm_pu":1.0,"va_deg":-21.93}},{"type":"Feature","geometry":{"type":"Point","coordinates":[133.86432,34.28389]},"properties":{"name":"\u5742\u51fa\u5909\u96fb\u6240 187kV","vn_kv":187.0,"vm_pu":1.0,"va_deg":-12.03}},{"type":"Feature","geometry":{"type":"Point","coordinates":[133.86432,34.28389]},"properties":{"name":"\u5742\u51fa\u5909\u96fb\u6240 66kV","vn_kv":66.0,"vm_pu":1.0007,"va_deg":-21.57}},{"type":"Feature","geometry":{"type":"Point","coordinates":[133.87978,34.33244]},"properties":{"name":"\u6797\u7530\u753a\u5909\u96fb\u6240","vn_kv":66.0,"vm_pu":1.0,"va_deg":-19.52}},{"type":"Feature","geometry":{"type":"Point","coordinates":[133.85986,34.31169]},"properties":{"name":"\u7b20\u5c71\u5909\u96fb\u6240","vn_kv":66.0,"vm_pu":1.0,"va_deg":-21.7}},{"type":"Feature","geometry":{"type":"Point","coordinates":[133.86249,34.30181]},"properties":{"name":"\u798f\u6c5f\u753a\u4e09\u4e01\u76ee\u5909\u96fb\u6240","vn_kv":500.0,"vm_pu":1.003,"va_deg":-8.74}},{"type":"Feature","geometry":{"type":"Point","coordinates":[133.92743,34.28654]},"properties":{"name":"\u5e9c\u4e2d\u5909\u96fb\u6240","vn_kv":66.0,"vm_pu":1.0,"va_deg":-21.97}},{"type":"Feature","geometry":{"type":"Point","coordinates":[134.03185,34.2885]},"properties":{"name":"\u5909\u96fb\u6240","vn_kv":66.0,"vm_pu":1.0,"va_deg":-22.89}},{"type":"Feature","geometry":{"type":"Point","coordinates":[134.0401,34.31191]},"properties":{"name":"\u56db\u56fd\u96fb\u529b\u4e0a\u5929\u795e\u5909\u96fb\u6240","vn_kv":66.0,"vm_pu":1.0,"va_deg":-22.54}},{"type":"Feature","geometry":{"type":"Point","coordinates":[133.76089,34.18518]},"properties":{"name":"\u56db\u56fd\u96fb\u529b\u9ebb\u5909\u96fb\u6240 187kV","vn_kv":187.0,"vm_pu":0.9999,"va_deg":-15.4}},{"type":"Feature","geometry":{"type":"Point","coordinates":[133.76089,34.18518]},"properties":{"name":"\u56db\u56fd\u96fb\u529b\u9ebb\u5909\u96fb\u6240 66kV","vn_kv":66.0,"vm_pu":0.9993,"va_deg":-18.02}},{"type":"Feature","geometry":{"type":"Point","coordinates":[132.7766,33.82009]},"properties":{"name":"\u56db\u56fd\u96fb\u529b \u5929\u5c71\u5909\u96fb\u6240","vn_kv":66.0,"vm_pu":1.0,"va_deg":-14.87}},{"type":"Feature","geometry":{"type":"Point","coordinates":[132.80441,33.83421]},"properties":{"name":"\u677e\u5c71\u5909\u96fb\u6240 187kV","vn_kv":187.0,"vm_pu":1.0,"va_deg":-11.33}},{"type":"Feature","geometry":{"type":"Point","coordinates":[132.80441,33.83421]},"properties":{"name":"\u677e\u5c71\u5909\u96fb\u6240 66kV","vn_kv":66.0,"vm_pu":1.0008,"va_deg":-14.63}},{"type":"Feature","geometry":{"type":"Point","coordinates":[132.87863,33.80695]},"properties":{"name":"\u5fd7\u6d25\u5ddd\u5357\u4e09\u4e01\u76ee\u5909\u96fb\u6240","vn_kv":66.0,"vm_pu":1.0,"va_deg":-15.57}},{"type":"Feature","geometry":{"type":"Point","coordinates":[133.39498,33.94363]},"properties":{"name":"\u6771\u4e88\u5909\u96fb\u6240 500kV","vn_kv":500.0,"vm_pu":1.0034,"va_deg":-9.25}},{"type":"Feature","geometry":{"type":"Point","coordinates":[133.39498,33.94363]},"properties":{"name":"\u6771\u4e88\u5909\u96fb\u6240 187kV","vn_kv":187.0,"vm_pu":1.0008,"va_deg":-11.79}},{"type":"Feature","geometry":{"type":"Point","coordinates":[133.39498,33.94363]},"properties":{"name":"\u6771\u4e88\u5909\u96fb\u6240 66kV","vn_kv":66.0,"vm_pu":0.9988,"va_deg":-14.14}},{"type":"Feature","geometry":{"type":"Point","coordinates":[132.92859,33.7916]},"properties":{"name":"\u5ddd\u5185\u767a\u96fb\u6240 500kV","vn_kv":500.0,"vm_pu":1.0,"va_deg":-9.05}},{"type":"Feature","geometry":{"type":"Point","coordinates":[132.92859,33.7916]},"properties":{"name":"\u5ddd\u5185\u767a\u96fb\u6240 187kV","vn_kv":187.0,"vm_pu":1.0015,"va_deg":-11.0}},{"type":"Feature","geometry":{"type":"Point","coordinates":[133.22353,33.91204]},"properties":{"name":"\u897f\u6761\u5909\u96fb\u6240 187kV","vn_kv":187.0,"vm_pu":1.0003,"va_deg":-11.24}},{"type":"Feature","geometry":{"type":"Point","coordinates":[133.22353,33.91204]},"properties":{"name":"\u897f\u6761\u5909\u96fb\u6240 66kV","vn_kv":66.0,"vm_pu":1.0004,"va_deg":-13.63}},{"type":"Feature","geometry":{"type":"Point","coordinates":[133.28485,33.97534]},"properties":{"name":"\u65b0\u9808\u8cc0\u5909\u96fb\u6240 187kV","vn_kv":187.0,"vm_pu":0.9999,"va_deg":-11.54}},{"type":"Feature","geometry":{"type":"Point","coordinates":[133.28485,33.97534]},"properties":{"name":"\u65b0\u9808\u8cc0\u5909\u96fb\u6240 110kV","vn_kv":110.0,"vm_pu":1.0,"va_deg":-11.64}},{"type":"Feature","geometry":{"type":"Point","coordinates":[133.27843,33.97929]},"properties":{"name":"\u83ca\u672c\u753a\u4e00\u4e01\u76ee\u5909\u96fb\u6240","vn_kv":110.0,"vm_pu":0.9999,"va_deg":-11.64}},{"type":"Feature","geometry":{"type":"Point","coordinates":[134.1254,34.34129]},"properties":{"name":"\u725f\u793c\u753a\u725f\u793c\u5909\u96fb\u6240","vn_kv":66.0,"vm_pu":1.0,"va_deg":-26.0}},{"type":"Feature","geometry":{"type":"Point","coordinates":[134.24795,34.29044]},"properties":{"name":"\u6d25\u7530\u5909\u96fb\u6240","vn_kv":66.0,"vm_pu":1.0,"va_deg":-24.2}},{"type":"Feature","geometry":{"type":"Point","coordinates":[134.00066,34.21348]},"properties":{"name":"\u7dbe\u5ddd\u753a\u5909\u96fb\u6240","vn_kv":187.0,"vm_pu":1.0,"va_deg":-13.92}},{"type":"Feature","geometry":{"type":"Point","coordinates":[134.01817,34.34251]},"properties":{"name":"\u90f7\u6771\u753a\u5909\u96fb\u6240","vn_kv":66.0,"vm_pu":1.0,"va_deg":-23.26}},{"type":"Feature","geometry":{"type":"Point","coordinates":[133.99981,34.20656]},"properties":{"name":"\u7dbe\u5ddd\u753a\u5909\u96fb\u6240_2","vn_kv":187.0,"vm_pu":1.0,"va_deg":-13.91}},{"type":"Feature","geometry":{"type":"Point","coordinates":[134.00208,34.33393]},"properties":{"name":"JR\u56db\u56fd \u9b3c\u7121\u5909\u96fb\u6240","vn_kv":66.0,"vm_pu":1.0,"va_deg":-23.49}},{"type":"Feature","geometry":{"type":"Point","coordinates":[133.65149,34.11762]},"properties":{"name":"\u89b3\u97f3\u5bfa\u5909\u96fb\u6240 187kV","vn_kv":187.0,"vm_pu":0.9995,"va_deg":-15.8}},{"type":"Feature","geometry":{"type":"Point","coordinates":[133.65149,34.11762]},"properties":{"name":"\u89b3\u97f3\u5bfa\u5909\u96fb\u6240 (untyped)","vn_kv":66.0,"vm_pu":0.9961,"va_deg":-17.41}},{"type":"Feature","geometry":{"type":"Point","coordinates":[134.40823,34.0007]},"properties":{"name":"\u963f\u6ce2\u5909\u96fb\u6240 500kV","vn_kv":500.0,"vm_pu":1.0041,"va_deg":-9.37}},{"type":"Feature","geometry":{"type":"Point","coordinates":[134.40823,34.0007]},"properties":{"name":"\u963f\u6ce2\u5909\u96fb\u6240 187kV","vn_kv":187.0,"vm_pu":1.0022,"va_deg":-13.97}},{"type":"Feature","geometry":{"type":"Point","coordinates":[134.34232,34.24673]},"properties":{"name":"\u5927\u5185\u5909\u96fb\u6240","vn_kv":66.0,"vm_pu":1.0,"va_deg":-24.45}},{"type":"Feature","geometry":{"type":"Point","coordinates":[134.46875,34.06234]},"properties":{"name":"\u56fd\u5e9c\u5909\u96fb\u6240 187kV","vn_kv":187.0,"vm_pu":1.0018,"va_deg":-14.47}},{"type":"Feature","geometry":{"type":"Point","coordinates":[134.46875,34.06234]},"properties":{"name":"\u56fd\u5e9c\u5909\u96fb\u6240 66kV","vn_kv":66.0,"vm_pu":0.9996,"va_deg":-23.7}},{"type":"Feature","geometry":{"type":"Point","coordinates":[134.18007,34.48451]},"properties":{"name":"\u571f\u5e84\u5909\u96fb\u6240","vn_kv":66.0,"vm_pu":1.0,"va_deg":-32.0}},{"type":"Feature","geometry":{"type":"Point","coordinates":[134.3064,34.4814]},"properties":{"name":"\u8349\u58c1\u5909\u96fb\u6240","vn_kv":66.0,"vm_pu":0.9885,"va_deg":-33.71}},{"type":"Feature","geometry":{"type":"Point","coordinates":[133.31052,33.90183]},"properties":{"name":"\u4f4f\u53cb\u5171\u540c\u96fb\u529b\u7aef\u51fa\u5834\u5909\u96fb\u6240","vn_kv":110.0,"vm_pu":1.0,"va_deg":-11.47}},{"type":"Feature","geometry":{"type":"Point","coordinates":[133.54103,33.97948]},"properties":{"name":"JR\u4f0a\u4e88\u4e09\u5cf6\u5909\u96fb\u6240","vn_kv":66.0,"vm_pu":0.9983,"va_deg":-23.6}},{"type":"Feature","geometry":{"type":"Point","coordinates":[133.82743,34.33494]},"properties":{"name":"\u53d7\u96fb\u6240","vn_kv":187.0,"vm_pu":1.0,"va_deg":-10.57}},{"type":"Feature","geometry":{"type":"Point","coordinates":[133.89103,34.03198]},"properties":{"name":"\u4e95\u5ddd\u5909\u96fb\u6240 187kV","vn_kv":187.0,"vm_pu":1.0,"va_deg":-14.03}},{"type":"Feature","geometry":{"type":"Point","coordinates":[133.89103,34.03198]},"properties":{"name":"\u4e95\u5ddd\u5909\u96fb\u6240 66kV","vn_kv":66.0,"vm_pu":1.0001,"va_deg":-24.93}},{"type":"Feature","geometry":{"type":"Point","coordinates":[132.70215,33.7937]},"properties":{"name":"\u5927\u5b57\u6d5c\u5909\u96fb\u6240","vn_kv":66.0,"vm_pu":1.0,"va_deg":-15.66}},{"type":"Feature","geometry":{"type":"Point","coordinates":[133.25572,33.96691]},"properties":{"name":"\u65b0\u5c45\u6d5c\u5e02\u5909\u96fb\u6240","vn_kv":110.0,"vm_pu":1.0,"va_deg":-11.55}},{"type":"Feature","geometry":{"type":"Point","coordinates":[133.24753,33.9509]},"properties":{"name":"\u5225\u5b50\u914d\u96fb\u30bb\u30f3\u30bf\u30fc 187kV","vn_kv":187.0,"vm_pu":1.0001,"va_deg":-11.4}},{"type":"Feature","geometry":{"type":"Point","coordinates":[133.24753,33.9509]},"properties":{"name":"\u5225\u5b50\u914d\u96fb\u30bb\u30f3\u30bf\u30fc 110kV","vn_kv":110.0,"vm_pu":1.0,"va_deg":-11.46}},{"type":"Feature","geometry":{"type":"Point","coordinates":[133.24877,33.95371]},"properties":{"name":"\u78ef\u6d66\u753a\u5909\u96fb\u6240","vn_kv":110.0,"vm_pu":1.0,"va_deg":-11.46}},{"type":"Feature","geometry":{"type":"Point","coordinates":[133.24886,33.9529]},"properties":{"name":"\u78ef\u6d66\u753a\u5909\u96fb\u6240_2 187kV","vn_kv":187.0,"vm_pu":1.0001,"va_deg":-11.4}},{"type":"Feature","geometry":{"type":"Point","coordinates":[133.24886,33.9529]},"properties":{"name":"\u78ef\u6d66\u753a\u5909\u96fb\u6240_2 110kV","vn_kv":110.0,"vm_pu":1.0,"va_deg":-11.46}},{"type":"Feature","geometry":{"type":"Point","coordinates":[133.30439,33.95145]},"properties":{"name":"\u65b0\u5c45\u6d5c\u5909\u96fb\u6240","vn_kv":66.0,"vm_pu":1.0,"va_deg":-14.02}},{"type":"Feature","geometry":{"type":"Point","coordinates":[133.55835,33.97711]},"properties":{"name":"\u4e09\u5cf6\u5909\u96fb\u6240 187kV","vn_kv":187.0,"vm_pu":1.0,"va_deg":-13.24}},{"type":"Feature","geometry":{"type":"Point","coordinates":[133.55835,33.97711]},"properties":{"name":"\u4e09\u5cf6\u5909\u96fb\u6240 66kV","vn_kv":66.0,"vm_pu":0.9994,"va_deg":-23.38}},{"type":"Feature","geometry":{"type":"Point","coordinates":[133.16844,33.92624]},"properties":{"name":"\u559c\u591a\u5ddd\u5909\u96fb\u6240 187kV","vn_kv":187.0,"vm_pu":1.0,"va_deg":-10.37}},{"type":"Feature","geometry":{"type":"Point","coordinates":[133.16844,33.92624]},"properties":{"name":"\u559c\u591a\u5ddd\u5909\u96fb\u6240 66kV","vn_kv":66.0,"vm_pu":1.0005,"va_deg":-13.85}},{"type":"Feature","geometry":{"type":"Point","coordinates":[133.16709,33.93152]},"properties":{"name":"\u559c\u591a\u5ddd\u5909\u96fb\u6240_2 187kV","vn_kv":187.0,"vm_pu":1.0,"va_deg":-10.33}},{"type":"Feature","geometry":{"type":"Point","coordinates":[133.16709,33.93152]},"properties":{"name":"\u559c\u591a\u5ddd\u5909\u96fb\u6240_2 66kV","vn_kv":66.0,"vm_pu":1.0001,"va_deg":-14.03}},{"type":"Feature","geometry":{"type":"Point","coordinates":[132.76765,33.8936]},"properties":{"name":"\u5317\u677e\u5c71\u5909\u96fb\u6240 187kV","vn_kv":187.0,"vm_pu":1.0,"va_deg":-11.5}},{"type":"Feature","geometry":{"type":"Point","coordinates":[132.76765,33.8936]},"properties":{"name":"\u5317\u677e\u5c71\u5909\u96fb\u6240 66kV","vn_kv":66.0,"vm_pu":1.0011,"va_deg":-14.89}},{"type":"Feature","geometry":{"type":"Point","coordinates":[133.64287,34.08319]},"properties":{"name":"\u8c4a\u6d5c\u753a\u59eb\u6d5c\u5909\u96fb\u6240","vn_kv":187.0,"vm_pu":1.0,"va_deg":-15.64}},{"type":"Feature","geometry":{"type":"Point","coordinates":[133.68356,34.13459]},"properties":{"name":"\u6d41\u5ca1\u753a\u5909\u96fb\u6240","vn_kv":187.0,"vm_pu":0.9997,"va_deg":-15.74}},{"type":"Feature","geometry":{"type":"Point","coordinates":[133.69859,34.14891]},"properties":{"name":"\u8c4a\u4e2d\u753a\u672c\u5c71\u7532\u5909\u96fb\u6240","vn_kv":187.0,"vm_pu":1.0,"va_deg":-15.65}},{"type":"Feature","geometry":{"type":"Point","coordinates":[133.70204,34.12032]},"properties":{"name":"\u4e2d\u7530\u4e95\u753a\u5909\u96fb\u6240","vn_kv":187.0,"vm_pu":0.9998,"va_deg":-15.58}},{"type":"Feature","geometry":{"type":"Point","coordinates":[133.72436,34.11929]},"properties":{"name":"\u5c71\u672c\u753a\u8ca1\u7530\u897f\u5909\u96fb\u6240","vn_kv":187.0,"vm_pu":0.9998,"va_deg":-15.59}},{"type":"Feature","geometry":{"type":"Point","coordinates":[133.66974,34.21874]},"properties":{"name":"\u8a6b\u9593\u753a\u8a6b\u9593\u5909\u96fb\u6240 66kV","vn_kv":66.0,"vm_pu":1.0,"va_deg":-16.76}},{"type":"Feature","geometry":{"type":"Point","coordinates":[133.64714,34.20692]},"properties":{"name":"\u4ec1\u5c3e\u753a\u4ec1\u5c3e\u5909\u96fb\u6240","vn_kv":66.0,"vm_pu":1.0,"va_deg":-16.84}},{"type":"Feature","geometry":{"type":"Point","coordinates":[133.69147,34.20761]},"properties":{"name":"\u4e09\u91ce\u753a\u5409\u6d25\u5909\u96fb\u6240 66kV","vn_kv":66.0,"vm_pu":1.0,"va_deg":-15.99}},{"type":"Feature","geometry":{"type":"Point","coordinates":[133.04679,34.25536]},"properties":{"name":"\u4eca\u6cbb\u5e02\u5909\u96fb\u6240","vn_kv":110.0,"vm_pu":1.0,"va_deg":-13.01}},{"type":"Feature","geometry":{"type":"Point","coordinates":[133.11238,33.93122]},"properties":{"name":"\u5e83\u6c5f\u5909\u96fb\u6240 187kV","vn_kv":187.0,"vm_pu":1.0,"va_deg":-9.78}},{"type":"Feature","geometry":{"type":"Point","coordinates":[133.11238,33.93122]},"properties":{"name":"\u5e83\u6c5f\u5909\u96fb\u6240 66kV","vn_kv":66.0,"vm_pu":1.0004,"va_deg":-12.95}},{"type":"Feature","geometry":{"type":"Point","coordinates":[133.11342,33.93541]},"properties":{"name":"\u5317\u6761\u5909\u96fb\u6240_2 187kV","vn_kv":187.0,"vm_pu":1.0,"va_deg":-9.73}},{"type":"Feature","geometry":{"type":"Point","coordinates":[132.98676,34.04851]},"properties":{"name":"\u7247\u5c71\u56db\u4e01\u76ee\u5909\u96fb\u6240","vn_kv":66.0,"vm_pu":1.0,"va_deg":-13.26}},{"type":"Feature","geometry":{"type":"Point","coordinates":[133.09338,34.21107]},"properties":{"name":"\u4f2f\u65b9\u5909\u96fb\u6240","vn_kv":110.0,"vm_pu":1.0,"va_deg":-12.77}},{"type":"Feature","geometry":{"type":"Point","coordinates":[134.34837,34.0624]},"properties":{"name":"\u9d28\u5cf6\u753a\u98ef\u5c3e\u5909\u96fb\u6240","vn_kv":66.0,"vm_pu":1.0,"va_deg":-27.8}},{"type":"Feature","geometry":{"type":"Point","coordinates":[134.35196,33.96846]},"properties":{"name":"\u795e\u9818\u5909\u96fb\u6240","vn_kv":66.0,"vm_pu":0.9966,"va_deg":-28.01}},{"type":"Feature","geometry":{"type":"Point","coordinates":[133.17634,34.27284]},"properties":{"name":"\u751f\u540d\u5909\u96fb\u6240","vn_kv":110.0,"vm_pu":0.9999,"va_deg":-12.12}},{"type":"Feature","geometry":{"type":"Point","coordinates":[133.75655,34.26914]},"properties":{"name":"\u591a\u5ea6\u6d25\u5909\u96fb\u6240","vn_kv":66.0,"vm_pu":1.0,"va_deg":-22.64}},{"type":"Feature","geometry":{"type":"Point","coordinates":[133.63689,33.95137]},"properties":{"name":"\u56db\u56fd\u96fb\u529b\u3000\u65b0\u5bae\u5909\u96fb\u6240","vn_kv":66.0,"vm_pu":0.9951,"va_deg":-24.2}},{"type":"Feature","geometry":{"type":"Point","coordinates":[133.81218,34.02529]},"properties":{"name":"\u6c60\u7530\u753a\u30cf\u30e4\u30b7\u5909\u96fb\u6240","vn_kv":66.0,"vm_pu":1.0,"va_deg":-27.5}},{"type":"Feature","geometry":{"type":"Point","coordinates":[133.81193,34.02534]},"properties":{"name":"\u6c60\u7530\u753a\u30cf\u30e4\u30b7\u5909\u96fb\u6240","vn_kv":66.0,"vm_pu":1.0,"va_deg":-27.5}},{"type":"Feature","geometry":{"type":"Point","coordinates":[133.81331,34.02298]},"properties":{"name":"\u6c60\u7530\u753a\u30cf\u30e4\u30b7\u5909\u96fb\u6240","vn_kv":66.0,"vm_pu":0.9998,"va_deg":-27.43}},{"type":"Feature","geometry":{"type":"Point","coordinates":[133.57561,34.00233]},"properties":{"name":"\u56db\u56fd\u96fb\u529b\u3000\u5ddd\u4e4b\u6c5f\u5909\u96fb\u6240","vn_kv":66.0,"vm_pu":1.0,"va_deg":-23.68}},{"type":"Feature","geometry":{"type":"Point","coordinates":[133.25462,33.95014]},"properties":{"name":"\u78ef\u6d66\u5909\u96fb\u6240 110kV","vn_kv":110.0,"vm_pu":1.0,"va_deg":-11.46}},{"type":"Feature","geometry":{"type":"Point","coordinates":[133.25462,33.95014]},"properties":{"name":"\u78ef\u6d66\u5909\u96fb\u6240 (untyped)","vn_kv":66.0,"vm_pu":0.9974,"va_deg":-12.72}},{"type":"Feature","geometry":{"type":"Point","coordinates":[133.29586,33.9681]},"properties":{"name":"\u90f7\u4e94\u4e01\u76ee\u5909\u96fb\u6240 187kV","vn_kv":187.0,"vm_pu":1.0,"va_deg":-11.53}},{"type":"Feature","geometry":{"type":"Point","coordinates":[133.29586,33.9681]},"properties":{"name":"\u90f7\u4e94\u4e01\u76ee\u5909\u96fb\u6240 66kV","vn_kv":66.0,"vm_pu":1.0001,"va_deg":-13.94}},{"type":"Feature","geometry":{"type":"Point","coordinates":[133.33462,33.97595]},"properties":{"name":"\u591a\u559c\u6d5c\u4e00\u4e01\u76ee\u5909\u96fb\u6240","vn_kv":66.0,"vm_pu":1.0,"va_deg":-14.25}},{"type":"Feature","geometry":{"type":"Point","coordinates":[133.01102,34.03932]},"properties":{"name":"\u8fbb\u5802\u4e00\u4e01\u76ee\u5909\u96fb\u6240","vn_kv":66.0,"vm_pu":0.9992,"va_deg":-13.37}},{"type":"Feature","geometry":{"type":"Point","coordinates":[134.23053,34.04841]},"properties":{"name":"\u5c71\u5ddd\u753a\u5efa\u77f3\u5909\u96fb\u6240","vn_kv":66.0,"vm_pu":0.9999,"va_deg":-29.24}},{"type":"Feature","geometry":{"type":"Point","coordinates":[133.79279,34.27496]},"properties":{"name":"\u56db\u56fd\u96fb\u529b\u9001\u914d\u96fb \u4e38\u4e80\u5909\u96fb\u6240","vn_kv":66.0,"vm_pu":1.0,"va_deg":-22.69}},{"type":"Feature","geometry":{"type":"Point","coordinates":[134.46428,34.07575]},"properties":{"name":"\u5fb3\u5cf6\u5e02\u5909\u96fb\u6240","vn_kv":66.0,"vm_pu":0.9989,"va_deg":-23.8}},{"type":"Feature","geometry":{"type":"Point","coordinates":[133.80113,33.9579]},"properties":{"name":"\u4e09\u597d\u5e02\u5909\u96fb\u6240","vn_kv":66.0,"vm_pu":1.0,"va_deg":-25.89}},{"type":"Feature","geometry":{"type":"Point","coordinates":[133.88807,34.03201]},"properties":{"name":"\u663c\u9593\u5909\u96fb\u6240","vn_kv":66.0,"vm_pu":1.0,"va_deg":-24.97}},{"type":"Feature","geometry":{"type":"Point","coordinates":[133.99142,34.04554]},"properties":{"name":"\u4e09\u91ce\u753a\u6e05\u6c34\u5909\u96fb\u6240","vn_kv":66.0,"vm_pu":0.996,"va_deg":-27.28}},{"type":"Feature","geometry":{"type":"Point","coordinates":[134.06368,33.94956]},"properties":{"name":"\u5207\u8d8a\u5909\u96fb\u6240","vn_kv":66.0,"vm_pu":1.0,"va_deg":-28.88}},{"type":"Feature","geometry":{"type":"Point","coordinates":[134.06787,34.03945]},"properties":{"name":"\u8c9e\u5149\u6c5f\u30ce\u8107\u5909\u96fb\u6240","vn_kv":66.0,"vm_pu":0.9972,"va_deg":-28.47}},{"type":"Feature","geometry":{"type":"Point","coordinates":[134.13325,34.06769]},"properties":{"name":"\u8107\u753a\u65b0\u753a\u5909\u96fb\u6240","vn_kv":66.0,"vm_pu":1.0,"va_deg":-29.27}},{"type":"Feature","geometry":{"type":"Point","coordinates":[134.16418,34.04462]},"properties":{"name":"\u7f8e\u99ac\u5e02\u5909\u96fb\u6240","vn_kv":66.0,"vm_pu":0.9988,"va_deg":-29.27}},{"type":"Feature","geometry":{"type":"Point","coordinates":[134.22891,34.04933]},"properties":{"name":"\u5c71\u5ddd\u753a\u5efa\u77f3\u5909\u96fb\u6240","vn_kv":66.0,"vm_pu":1.0,"va_deg":-29.23}},{"type":"Feature","geometry":{"type":"Point","coordinates":[134.20832,34.07686]},"properties":{"name":"\u963f\u6ce2\u753a\u5584\u5730\u5909\u96fb\u6240","vn_kv":66.0,"vm_pu":1.0,"va_deg":-28.79}},{"type":"Feature","geometry":{"type":"Point","coordinates":[134.30823,34.09337]},"properties":{"name":"\u5e02\u5834\u753a\u516b\u5e61\u5909\u96fb\u6240","vn_kv":66.0,"vm_pu":1.0,"va_deg":-28.33}},{"type":"Feature","geometry":{"type":"Point","coordinates":[133.5625,34.00775]},"properties":{"name":"\u5ddd\u4e4b\u6c5f\u753a\u5909\u96fb\u6240","vn_kv":66.0,"vm_pu":1.0,"va_deg":-23.69}},{"type":"Feature","geometry":{"type":"Point","coordinates":[133.57262,34.00323]},"properties":{"name":"\u59bb\u9ce5\u753a\u5909\u96fb\u6240","vn_kv":66.0,"vm_pu":1.0,"va_deg":-23.69}},{"type":"Feature","geometry":{"type":"Point","coordinates":[133.55524,33.98436]},"properties":{"name":"\u4e09\u5cf6\u671d\u65e5\u4e00\u4e01\u76ee\u5909\u96fb\u6240","vn_kv":66.0,"vm_pu":0.9992,"va_deg":-23.46}},{"type":"Feature","geometry":{"type":"Point","coordinates":[133.59548,33.98049]},"properties":{"name":"\u91d1\u7530\u753a\u91d1\u5ddd\u5909\u96fb\u6240","vn_kv":66.0,"vm_pu":0.9983,"va_deg":-23.72}},{"type":"Feature","geometry":{"type":"Point","coordinates":[133.51843,33.9646]},"properties":{"name":"\u5bd2\u5ddd\u753a\u5909\u96fb\u6240","vn_kv":66.0,"vm_pu":0.9979,"va_deg":-23.6}},{"type":"Feature","geometry":{"type":"Point","coordinates":[133.17228,33.87336]},"properties":{"name":"\u514e\u4e4b\u5c71\u7532\u5909\u96fb\u6240 110kV","vn_kv":110.0,"vm_pu":1.0,"va_deg":-11.74}},{"type":"Feature","geometry":{"type":"Point","coordinates":[133.17228,33.87336]},"properties":{"name":"\u514e\u4e4b\u5c71\u7532\u5909\u96fb\u6240 66kV","vn_kv":66.0,"vm_pu":0.9994,"va_deg":-13.26}},{"type":"Feature","geometry":{"type":"Point","coordinates":[133.90701,33.70462]},"properties":{"name":"chugoku_sub_388","vn_kv":110.0,"vm_pu":1.0,"va_deg":-6.72}},{"type":"Feature","geometry":{"type":"Point","coordinates":[133.28189,33.97519]},"properties":{"name":"\u83ca\u672c\u753a\u4e00\u4e01\u76ee\u5909\u96fb\u6240_2","vn_kv":110.0,"vm_pu":1.0,"va_deg":-11.64}},{"type":"Feature","geometry":{"type":"Point","coordinates":[133.27444,33.97038]},"properties":{"name":"\u4e2d\u9808\u8cc0\u753a\u4e8c\u4e01\u76ee\u5909\u96fb\u6240","vn_kv":110.0,"vm_pu":1.0,"va_deg":-11.63}},{"type":"Feature","geometry":{"type":"Point","coordinates":[133.42941,33.95516]},"properties":{"name":"\u571f\u5c45\u753a\u4e2d\u6751\u5909\u96fb\u6240","vn_kv":66.0,"vm_pu":0.9976,"va_deg":-14.32}},{"type":"Feature","geometry":{"type":"Point","coordinates":[133.07372,33.93527]},"properties":{"name":"\u559c\u591a\u53f0\u5909\u96fb\u6240","vn_kv":66.0,"vm_pu":1.0,"va_deg":-13.09}},{"type":"Feature","geometry":{"type":"Point","coordinates":[133.18443,33.94001]},"properties":{"name":"\u897f\u6761\u5e02\u5909\u96fb\u6240","vn_kv":66.0,"vm_pu":0.9997,"va_deg":-14.26}},{"type":"Feature","geometry":{"type":"Point","coordinates":[133.19104,33.93927]},"properties":{"name":"\u3072\u3046\u3061\u5909\u96fb\u6240","vn_kv":66.0,"vm_pu":0.9998,"va_deg":-14.36}},{"type":"Feature","geometry":{"type":"Point","coordinates":[133.19331,33.93908]},"properties":{"name":"\u3072\u3046\u3061\u5909\u96fb\u6240_2","vn_kv":66.0,"vm_pu":1.0,"va_deg":-14.39}},{"type":"Feature","geometry":{"type":"Point","coordinates":[133.19183,33.93879]},"properties":{"name":"\u3072\u3046\u3061\u5909\u96fb\u6240_3","vn_kv":66.0,"vm_pu":0.9998,"va_deg":-14.37}},{"type":"Feature","geometry":{"type":"Point","coordinates":[133.17622,33.93484]},"properties":{"name":"\u3072\u3046\u3061\u5909\u96fb\u6240_4","vn_kv":66.0,"vm_pu":0.9998,"va_deg":-14.15}},{"type":"Feature","geometry":{"type":"Point","coordinates":[133.16913,33.90808]},"properties":{"name":"\u4e2d\u897f\u65b0\u958b\u5909\u96fb\u6240 187kV","vn_kv":187.0,"vm_pu":1.0,"va_deg":-10.6}},{"type":"Feature","geometry":{"type":"Point","coordinates":[133.16913,33.90808]},"properties":{"name":"\u4e2d\u897f\u65b0\u958b\u5909\u96fb\u6240 66kV","vn_kv":66.0,"vm_pu":1.0007,"va_deg":-13.73}},{"type":"Feature","geometry":{"type":"Point","coordinates":[134.30509,33.81412]},"properties":{"name":"\u6728\u982d\u5909\u96fb\u6240","vn_kv":66.0,"vm_pu":1.0,"va_deg":-14.68}},{"type":"Feature","geometry":{"type":"Point","coordinates":[134.29567,33.8037]},"properties":{"name":"\u5927\u6bbf\u5909\u96fb\u6240 187kV","vn_kv":187.0,"vm_pu":1.0,"va_deg":-14.45}},{"type":"Feature","geometry":{"type":"Point","coordinates":[134.29567,33.8037]},"properties":{"name":"\u5927\u6bbf\u5909\u96fb\u6240 66kV","vn_kv":66.0,"vm_pu":0.999,"va_deg":-14.84}},{"type":"Feature","geometry":{"type":"Point","coordinates":[133.55121,33.75551]},"properties":{"name":"\u672c\u5c71\u753a\u5909\u96fb\u6240","vn_kv":187.0,"vm_pu":1.001,"va_deg":-12.91}},{"type":"Feature","geometry":{"type":"Point","coordinates":[133.34197,33.76495]},"properties":{"name":"\u672c\u5ddd\u5909\u96fb\u6240","vn_kv":187.0,"vm_pu":1.0,"va_deg":-11.97}},{"type":"Feature","geometry":{"type":"Point","coordinates":[133.78713,34.29074]},"properties":{"name":"\u5869\u5c4b\u5909\u96fb\u6240 66kV","vn_kv":66.0,"vm_pu":1.0,"va_deg":-22.89}},{"type":"Feature","geometry":{"type":"Point","coordinates":[133.75513,34.26811]},"properties":{"name":"\u56db\u56fd\u65c5\u5ba2\u9244\u9053 \u591a\u5ea6\u6d25\u5909\u96fb\u6240","vn_kv":66.0,"vm_pu":1.0,"va_deg":-22.67}},{"type":"Feature","geometry":{"type":"Point","coordinates":[134.11354,34.28483]},"properties":{"name":"\u4e80\u7530\u5909\u96fb\u6240","vn_kv":66.0,"vm_pu":0.9993,"va_deg":-25.08}},{"type":"Feature","geometry":{"type":"Point","coordinates":[133.7686,34.29049]},"properties":{"name":"\u662d\u548c\u5909\u96fb\u6240 66kV","vn_kv":66.0,"vm_pu":1.0,"va_deg":-22.72}},{"type":"Feature","geometry":{"type":"Point","coordinates":[134.17746,34.27143]},"properties":{"name":"\u9577\u5c3e\u5909\u96fb\u6240","vn_kv":66.0,"vm_pu":1.0,"va_deg":-24.74}},{"type":"Feature","geometry":{"type":"Point","coordinates":[134.23006,34.25189]},"properties":{"name":"\u5927\u5ddd\u5909\u96fb\u6240 187kV","vn_kv":187.0,"vm_pu":0.9989,"va_deg":-15.6}},{"type":"Feature","geometry":{"type":"Point","coordinates":[134.23006,34.25189]},"properties":{"name":"\u5927\u5ddd\u5909\u96fb\u6240 66kV","vn_kv":66.0,"vm_pu":1.0012,"va_deg":-23.86}},{"type":"Feature","geometry":{"type":"Point","coordinates":[134.14164,34.28024]},"properties":{"name":"\u4e09\u6728\u5909\u96fb\u6240","vn_kv":66.0,"vm_pu":1.0,"va_deg":-25.04}},{"type":"Feature","geometry":{"type":"Point","coordinates":[132.70596,33.84121]},"properties":{"name":"\u5409\u7530\u6d5c\u5909\u96fb\u6240 66kV","vn_kv":66.0,"vm_pu":1.0,"va_deg":-15.47}},{"type":"Feature","geometry":{"type":"Point","coordinates":[132.7311,33.86872]},"properties":{"name":"\u4e09\u6d25\u5909\u96fb\u6240","vn_kv":66.0,"vm_pu":1.0,"va_deg":0.0}},{"type":"Feature","geometry":{"type":"Point","coordinates":[132.78027,33.97698]},"properties":{"name":"\u5317\u6761\u5909\u96fb\u6240","vn_kv":66.0,"vm_pu":1.0,"va_deg":-15.74}},{"type":"Feature","geometry":{"type":"Point","coordinates":[133.86222,34.32691]},"properties":{"name":"\u662d\u548c\u753a\u4e8c\u4e01\u76ee\u5909\u96fb\u6240_2 500kV","vn_kv":500.0,"vm_pu":1.0025,"va_deg":-8.62}},{"type":"Feature","geometry":{"type":"Point","coordinates":[133.86222,34.32691]},"properties":{"name":"\u662d\u548c\u753a\u4e8c\u4e01\u76ee\u5909\u96fb\u6240_2 66kV","vn_kv":66.0,"vm_pu":1.0013,"va_deg":-19.11}},{"type":"Feature","geometry":{"type":"Point","coordinates":[133.83503,34.2226]},"properties":{"name":"\u5782\u6c34\u753a\u5909\u96fb\u6240","vn_kv":66.0,"vm_pu":1.0,"va_deg":-24.64}},{"type":"Feature","geometry":{"type":"Point","coordinates":[133.84231,34.19572]},"properties":{"name":"\u5409\u91ce\u4e0b\u5909\u96fb\u6240","vn_kv":66.0,"vm_pu":1.0,"va_deg":-24.31}},{"type":"Feature","geometry":{"type":"Point","coordinates":[133.83015,34.32462]},"properties":{"name":"\u5b87\u591a\u6d25\u753a\u5909\u96fb\u6240","vn_kv":187.0,"vm_pu":1.0,"va_deg":-10.58}},{"type":"Feature","geometry":{"type":"Point","coordinates":[133.28652,33.72901]},"properties":{"name":"\u9577\u6ca2\u5909\u96fb\u6240","vn_kv":66.0,"vm_pu":1.0,"va_deg":0.0}},{"type":"Feature","geometry":{"type":"Point","coordinates":[134.46749,33.80187]},"properties":{"name":"\u9262\u5909\u96fb\u6240","vn_kv":66.0,"vm_pu":0.9949,"va_deg":-35.6}},{"type":"Feature","geometry":{"type":"Point","coordinates":[133.85065,33.89103]},"properties":{"name":"chugoku_sub_558","vn_kv":66.0,"vm_pu":1.0,"va_deg":0.0}},{"type":"Feature","geometry":{"type":"Point","coordinates":[132.72081,33.81721]},"properties":{"name":"\u56db\u56fd\u96fb\u529b\u9001\u914d\u96fb \u677e\u5c71\u5909\u96fb\u30bb\u30f3\u30bf\u30fc","vn_kv":66.0,"vm_pu":1.0,"va_deg":0.0}},{"type":"Feature","geometry":{"type":"Point","coordinates":[133.4955,33.56959]},"properties":{"name":"shikoku junction 33.5696:133.4955:66","vn_kv":66.0,"vm_pu":0.9962,"va_deg":-19.84}},{"type":"Feature","geometry":{"type":"Point","coordinates":[133.53095,33.57179]},"properties":{"name":"shikoku junction 33.5718:133.531:66","vn_kv":66.0,"vm_pu":0.9918,"va_deg":-20.43}},{"type":"Feature","geometry":{"type":"Point","coordinates":[133.48901,33.52037]},"properties":{"name":"shikoku junction 33.5204:133.489:0","vn_kv":66.0,"vm_pu":1.0,"va_deg":-20.63}},{"type":"Feature","geometry":{"type":"Point","coordinates":[133.5421,33.53049]},"properties":{"name":"shikoku junction 33.5305:133.5421:0","vn_kv":66.0,"vm_pu":1.0,"va_deg":-20.13}},{"type":"Feature","geometry":{"type":"Point","coordinates":[133.48258,33.5235]},"properties":{"name":"shikoku junction 33.5235:133.4826:0","vn_kv":66.0,"vm_pu":1.0,"va_deg":-20.63}},{"type":"Feature","geometry":{"type":"Point","coordinates":[132.55551,33.56546]},"properties":{"name":"shikoku junction 33.5655:132.5555:187","vn_kv":187.0,"vm_pu":1.0001,"va_deg":-11.14}},{"type":"Feature","geometry":{"type":"Point","coordinates":[133.51742,33.5446]},"properties":{"name":"shikoku junction 33.5446:133.5174:66","vn_kv":66.0,"vm_pu":0.9972,"va_deg":-19.99}},{"type":"Feature","geometry":{"type":"Point","coordinates":[133.55522,33.54332]},"properties":{"name":"shikoku junction 33.5433:133.5552:0","vn_kv":66.0,"vm_pu":1.0,"va_deg":-19.95}},{"type":"Feature","geometry":{"type":"Point","coordinates":[133.68185,33.57583]},"properties":{"name":"shikoku junction 33.5758:133.6818:66","vn_kv":66.0,"vm_pu":1.0,"va_deg":-18.64}},{"type":"Feature","geometry":{"type":"Point","coordinates":[133.73378,33.55942]},"properties":{"name":"shikoku junction 33.5594:133.7338:66","vn_kv":66.0,"vm_pu":0.9999,"va_deg":-18.06}},{"type":"Feature","geometry":{"type":"Point","coordinates":[134.33645,33.61147]},"properties":{"name":"shikoku junction 33.6115:134.3364:66","vn_kv":66.0,"vm_pu":0.8911,"va_deg":-48.34}},{"type":"Feature","geometry":{"type":"Point","coordinates":[133.49362,33.52499]},"properties":{"name":"shikoku junction 33.525:133.4936:0","vn_kv":66.0,"vm_pu":1.0,"va_deg":0.0}},{"type":"Feature","geometry":{"type":"Point","coordinates":[133.49349,33.525]},"properties":{"name":"shikoku junction 33.525:133.4935:0","vn_kv":66.0,"vm_pu":1.0,"va_deg":-0.0}},{"type":"Feature","geometry":{"type":"Point","coordinates":[132.43682,33.45615]},"properties":{"name":"shikoku junction 33.4561:132.4368:66","vn_kv":66.0,"vm_pu":0.9989,"va_deg":-12.27}},{"type":"Feature","geometry":{"type":"Point","coordinates":[132.39961,33.5111]},"properties":{"name":"shikoku junction 33.5111:132.3996:187","vn_kv":187.0,"vm_pu":1.0007,"va_deg":-11.16}},{"type":"Feature","geometry":{"type":"Point","coordinates":[132.62571,33.53587]},"properties":{"name":"shikoku junction 33.5359:132.6257:66","vn_kv":66.0,"vm_pu":0.9995,"va_deg":-12.35}},{"type":"Feature","geometry":{"type":"Point","coordinates":[132.59201,33.52688]},"properties":{"name":"shikoku junction 33.5269:132.592:66","vn_kv":66.0,"vm_pu":0.9995,"va_deg":-12.35}},{"type":"Feature","geometry":{"type":"Point","coordinates":[132.54887,33.51664]},"properties":{"name":"shikoku junction 33.5166:132.5489:66","vn_kv":66.0,"vm_pu":0.9995,"va_deg":-12.35}},{"type":"Feature","geometry":{"type":"Point","coordinates":[133.4879,33.56824]},"properties":{"name":"shikoku junction 33.5682:133.4879:66","vn_kv":66.0,"vm_pu":0.9964,"va_deg":-19.79}},{"type":"Feature","geometry":{"type":"Point","coordinates":[133.48679,33.56842]},"properties":{"name":"shikoku junction 33.5684:133.4868:66","vn_kv":66.0,"vm_pu":0.9964,"va_deg":-19.78}},{"type":"Feature","geometry":{"type":"Point","coordinates":[133.58947,33.61077]},"properties":{"name":"shikoku junction 33.6108:133.5895:66","vn_kv":66.0,"vm_pu":0.996,"va_deg":-19.63}},{"type":"Feature","geometry":{"type":"Point","coordinates":[132.65314,33.52588]},"properties":{"name":"shikoku junction 33.5259:132.6531:0","vn_kv":66.0,"vm_pu":1.0,"va_deg":0.0}},{"type":"Feature","geometry":{"type":"Point","coordinates":[132.6848,33.45018]},"properties":{"name":"shikoku junction 33.4502:132.6848:0","vn_kv":66.0,"vm_pu":1.0001,"va_deg":-0.0}},{"type":"Feature","geometry":{"type":"Point","coordinates":[132.55611,33.33141]},"properties":{"name":"shikoku junction 33.3314:132.5561:66","vn_kv":66.0,"vm_pu":0.9975,"va_deg":-16.45}},{"type":"Feature","geometry":{"type":"Point","coordinates":[132.51385,33.35534]},"properties":{"name":"shikoku junction 33.3553:132.5139:66","vn_kv":66.0,"vm_pu":0.9957,"va_deg":-15.64}},{"type":"Feature","geometry":{"type":"Point","coordinates":[132.47881,33.40691]},"properties":{"name":"shikoku junction 33.4069:132.4788:66","vn_kv":66.0,"vm_pu":0.9958,"va_deg":-14.11}},{"type":"Feature","geometry":{"type":"Point","coordinates":[132.36411,33.2257]},"properties":{"name":"shikoku junction 33.2257:132.3641:0","vn_kv":66.0,"vm_pu":1.0,"va_deg":0.0}},{"type":"Feature","geometry":{"type":"Point","coordinates":[132.3957,33.20504]},"properties":{"name":"shikoku junction 33.205:132.3957:0","vn_kv":66.0,"vm_pu":1.0,"va_deg":-0.0}},{"type":"Feature","geometry":{"type":"Point","coordinates":[133.66816,33.67932]},"properties":{"name":"shikoku junction 33.6793:133.6682:66","vn_kv":66.0,"vm_pu":1.0003,"va_deg":-18.71}},{"type":"Feature","geometry":{"type":"Point","coordinates":[133.46699,33.5697]},"properties":{"name":"shikoku junction 33.5697:133.467:187","vn_kv":187.0,"vm_pu":0.9999,"va_deg":-12.58}},{"type":"Feature","geometry":{"type":"Point","coordinates":[133.94858,33.52006]},"properties":{"name":"shikoku junction 33.5201:133.9486:187","vn_kv":187.0,"vm_pu":1.0002,"va_deg":-13.08}},{"type":"Feature","geometry":{"type":"Point","coordinates":[133.81053,33.66309]},"properties":{"name":"shikoku junction 33.6631:133.8105:66","vn_kv":66.0,"vm_pu":1.0004,"va_deg":-18.71}},{"type":"Feature","geometry":{"type":"Point","coordinates":[133.83721,33.67744]},"properties":{"name":"shikoku junction 33.6774:133.8372:66","vn_kv":66.0,"vm_pu":1.0004,"va_deg":-18.71}},{"type":"Feature","geometry":{"type":"Point","coordinates":[133.72722,33.63934]},"properties":{"name":"shikoku junction 33.6393:133.7272:66","vn_kv":66.0,"vm_pu":1.0004,"va_deg":-18.71}},{"type":"Feature","geometry":{"type":"Point","coordinates":[133.81333,33.66053]},"properties":{"name":"shikoku junction 33.6605:133.8133:66","vn_kv":66.0,"vm_pu":1.0004,"va_deg":-18.71}},{"type":"Feature","geometry":{"type":"Point","coordinates":[133.72972,33.63755]},"properties":{"name":"shikoku junction 33.6375:133.7297:66","vn_kv":66.0,"vm_pu":1.0004,"va_deg":-18.71}},{"type":"Feature","geometry":{"type":"Point","coordinates":[132.87911,33.03993]},"properties":{"name":"shikoku junction 33.0399:132.8791:66","vn_kv":66.0,"vm_pu":1.0008,"va_deg":-17.0}},{"type":"Feature","geometry":{"type":"Point","coordinates":[132.57248,33.29388]},"properties":{"name":"shikoku junction 33.2939:132.5725:66","vn_kv":66.0,"vm_pu":0.9992,"va_deg":-17.22}},{"type":"Feature","geometry":{"type":"Point","coordinates":[133.43029,33.50074]},"properties":{"name":"shikoku junction 33.5007:133.4303:0","vn_kv":66.0,"vm_pu":1.0,"va_deg":0.0}},{"type":"Feature","geometry":{"type":"Point","coordinates":[133.43145,33.49815]},"properties":{"name":"shikoku junction 33.4981:133.4314:0","vn_kv":66.0,"vm_pu":1.0,"va_deg":-0.0}},{"type":"Feature","geometry":{"type":"Point","coordinates":[133.4128,33.57316]},"properties":{"name":"shikoku junction 33.5732:133.4128:110","vn_kv":110.0,"vm_pu":0.9964,"va_deg":-15.56}},{"type":"Feature","geometry":{"type":"Point","coordinates":[132.09182,33.39376]},"properties":{"name":"shikoku junction 33.3938:132.0918:0","vn_kv":66.0,"vm_pu":1.0001,"va_deg":-0.0}},{"type":"Feature","geometry":{"type":"Point","coordinates":[132.18694,33.41443]},"properties":{"name":"shikoku junction 33.4144:132.1869:0","vn_kv":66.0,"vm_pu":1.0,"va_deg":0.0}},{"type":"Feature","geometry":{"type":"Point","coordinates":[132.18703,33.41442]},"properties":{"name":"shikoku junction 33.4144:132.187:66","vn_kv":66.0,"vm_pu":0.9986,"va_deg":-12.2}},{"type":"Feature","geometry":{"type":"Point","coordinates":[132.2172,33.42865]},"properties":{"name":"shikoku junction 33.4287:132.2172:66","vn_kv":66.0,"vm_pu":0.9986,"va_deg":-12.2}},{"type":"Feature","geometry":{"type":"Point","coordinates":[132.21707,33.42878]},"properties":{"name":"shikoku junction 33.4288:132.2171:66","vn_kv":66.0,"vm_pu":0.9986,"va_deg":-12.2}},{"type":"Feature","geometry":{"type":"Point","coordinates":[132.50038,33.62219]},"properties":{"name":"shikoku junction 33.6222:132.5004:66","vn_kv":66.0,"vm_pu":0.9991,"va_deg":-12.34}},{"type":"Feature","geometry":{"type":"Point","coordinates":[132.64929,33.54429]},"properties":{"name":"shikoku junction 33.5443:132.6493:66","vn_kv":66.0,"vm_pu":0.9996,"va_deg":-12.35}},{"type":"Feature","geometry":{"type":"Point","coordinates":[132.64877,33.54423]},"properties":{"name":"shikoku junction 33.5442:132.6488:66","vn_kv":66.0,"vm_pu":0.9996,"va_deg":-12.35}},{"type":"Feature","geometry":{"type":"Point","coordinates":[132.41248,33.49847]},"properties":{"name":"shikoku junction 33.4985:132.4125:66","vn_kv":66.0,"vm_pu":1.0008,"va_deg":-11.27}},{"type":"Feature","geometry":{"type":"Point","coordinates":[132.40644,33.48637]},"properties":{"name":"shikoku junction 33.4864:132.4064:66","vn_kv":66.0,"vm_pu":1.0008,"va_deg":-11.27}},{"type":"Feature","geometry":{"type":"Point","coordinates":[132.63416,33.36568]},"properties":{"name":"shikoku junction 33.3657:132.6342:66","vn_kv":66.0,"vm_pu":0.9975,"va_deg":-16.45}},{"type":"Feature","geometry":{"type":"Point","coordinates":[132.57971,33.26326]},"properties":{"name":"shikoku junction 33.2633:132.5797:66","vn_kv":66.0,"vm_pu":0.9997,"va_deg":-17.6}},{"type":"Feature","geometry":{"type":"Point","coordinates":[132.95009,32.98832]},"properties":{"name":"shikoku junction 32.9883:132.9501:66","vn_kv":66.0,"vm_pu":1.0011,"va_deg":-16.78}},{"type":"Feature","geometry":{"type":"Point","coordinates":[132.94992,32.78233]},"properties":{"name":"shikoku junction 32.7823:132.9499:66","vn_kv":66.0,"vm_pu":1.0015,"va_deg":-16.79}},{"type":"Feature","geometry":{"type":"Point","coordinates":[133.11744,33.17054]},"properties":{"name":"shikoku junction 33.1705:133.1174:66","vn_kv":66.0,"vm_pu":1.0004,"va_deg":-16.19}},{"type":"Feature","geometry":{"type":"Point","coordinates":[132.56728,33.20598]},"properties":{"name":"shikoku junction 33.206:132.5673:66","vn_kv":66.0,"vm_pu":1.0,"va_deg":-18.25}},{"type":"Feature","geometry":{"type":"Point","coordinates":[132.53098,32.99599]},"properties":{"name":"shikoku junction 32.996:132.531:66","vn_kv":66.0,"vm_pu":1.0,"va_deg":-20.17}},{"type":"Feature","geometry":{"type":"Point","coordinates":[132.54436,33.01368]},"properties":{"name":"shikoku junction 33.0137:132.5444:66","vn_kv":66.0,"vm_pu":1.0,"va_deg":-20.17}},{"type":"Feature","geometry":{"type":"Point","coordinates":[132.92266,33.22481]},"properties":{"name":"shikoku junction 33.2248:132.9227:66","vn_kv":66.0,"vm_pu":1.0012,"va_deg":-16.2}},{"type":"Feature","geometry":{"type":"Point","coordinates":[132.9216,33.22755]},"properties":{"name":"shikoku junction 33.2276:132.9216:66","vn_kv":66.0,"vm_pu":1.0012,"va_deg":-16.2}},{"type":"Feature","geometry":{"type":"Point","coordinates":[132.93419,33.36366]},"properties":{"name":"shikoku junction 33.3637:132.9342:66","vn_kv":66.0,"vm_pu":1.0014,"va_deg":-16.2}},{"type":"Feature","geometry":{"type":"Point","coordinates":[134.06568,33.36806]},"properties":{"name":"shikoku junction 33.3681:134.0657:66","vn_kv":66.0,"vm_pu":1.0,"va_deg":-16.77}},{"type":"Feature","geometry":{"type":"Point","coordinates":[134.07773,33.37096]},"properties":{"name":"shikoku junction 33.371:134.0777:66","vn_kv":66.0,"vm_pu":1.0,"va_deg":-16.77}},{"type":"Feature","geometry":{"type":"Point","coordinates":[134.01313,33.43747]},"properties":{"name":"shikoku junction 33.4375:134.0131:66","vn_kv":66.0,"vm_pu":1.0002,"va_deg":-15.8}},{"type":"Feature","geometry":{"type":"Point","coordinates":[133.89129,33.5086]},"properties":{"name":"shikoku junction 33.5086:133.8913:66","vn_kv":66.0,"vm_pu":1.0,"va_deg":-16.26}},{"type":"Feature","geometry":{"type":"Point","coordinates":[133.73456,33.56091]},"properties":{"name":"shikoku junction 33.5609:133.7346:66","vn_kv":66.0,"vm_pu":0.9999,"va_deg":-18.06}},{"type":"Feature","geometry":{"type":"Point","coordinates":[133.48756,33.59369]},"properties":{"name":"shikoku junction 33.5937:133.4876:66","vn_kv":66.0,"vm_pu":0.9964,"va_deg":-19.77}},{"type":"Feature","geometry":{"type":"Point","coordinates":[133.48422,33.58961]},"properties":{"name":"shikoku junction 33.5896:133.4842:66","vn_kv":66.0,"vm_pu":0.9964,"va_deg":-19.77}},{"type":"Feature","geometry":{"type":"Point","coordinates":[133.48465,33.56798]},"properties":{"name":"shikoku junction 33.568:133.4847:66","vn_kv":66.0,"vm_pu":0.9964,"va_deg":-19.77}},{"type":"Feature","geometry":{"type":"Point","coordinates":[133.47381,33.60765]},"properties":{"name":"shikoku junction 33.6077:133.4738:66","vn_kv":66.0,"vm_pu":0.9965,"va_deg":-19.77}},{"type":"Feature","geometry":{"type":"Point","coordinates":[133.55662,33.53407]},"properties":{"name":"shikoku junction 33.5341:133.5566:66","vn_kv":66.0,"vm_pu":1.0,"va_deg":-19.95}},{"type":"Feature","geometry":{"type":"Point","coordinates":[133.55962,33.53364]},"properties":{"name":"shikoku junction 33.5336:133.5596:0","vn_kv":66.0,"vm_pu":1.0,"va_deg":-19.96}},{"type":"Feature","geometry":{"type":"Point","coordinates":[133.0438,33.54376]},"properties":{"name":"shikoku junction 33.5438:133.0438:66","vn_kv":66.0,"vm_pu":1.0001,"va_deg":-0.0}},{"type":"Feature","geometry":{"type":"Point","coordinates":[133.0175,33.55617]},"properties":{"name":"shikoku junction 33.5562:133.0175:66","vn_kv":66.0,"vm_pu":1.0001,"va_deg":-0.0}},{"type":"Feature","geometry":{"type":"Point","coordinates":[133.00433,33.56658]},"properties":{"name":"shikoku junction 33.5666:133.0043:66","vn_kv":66.0,"vm_pu":1.0001,"va_deg":-0.0}},{"type":"Feature","geometry":{"type":"Point","coordinates":[133.04235,33.54035]},"properties":{"name":"shikoku junction 33.5403:133.0424:66","vn_kv":66.0,"vm_pu":1.0001,"va_deg":-0.0}},{"type":"Feature","geometry":{"type":"Point","coordinates":[133.0007,33.53462]},"properties":{"name":"shikoku junction 33.5346:133.0007:66","vn_kv":66.0,"vm_pu":1.0001,"va_deg":-0.0}},{"type":"Feature","geometry":{"type":"Point","coordinates":[132.59034,33.53131]},"properties":{"name":"shikoku junction 33.5313:132.5903:66","vn_kv":66.0,"vm_pu":0.9995,"va_deg":-12.35}},{"type":"Feature","geometry":{"type":"Point","coordinates":[133.18841,33.56397]},"properties":{"name":"shikoku junction 33.564:133.1884:66","vn_kv":66.0,"vm_pu":1.0,"va_deg":0.56}},{"type":"Feature","geometry":{"type":"Point","coordinates":[133.21135,33.56142]},"properties":{"name":"shikoku junction 33.5614:133.2114:66","vn_kv":66.0,"vm_pu":1.0,"va_deg":0.56}},{"type":"Feature","geometry":{"type":"Point","coordinates":[132.56145,33.20967]},"properties":{"name":"shikoku junction 33.2097:132.5615:66","vn_kv":66.0,"vm_pu":1.0,"va_deg":-18.25}},{"type":"Feature","geometry":{"type":"Point","coordinates":[133.94882,33.52539]},"properties":{"name":"shikoku junction 33.5254:133.9488:187","vn_kv":187.0,"vm_pu":1.0002,"va_deg":-13.08}},{"type":"Feature","geometry":{"type":"Point","coordinates":[133.52252,33.56432]},"properties":{"name":"\u5c0f\u9ad8\u5742\u5909\u96fb\u6240","vn_kv":66.0,"vm_pu":0.9911,"va_deg":-20.53}},{"type":"Feature","geometry":{"type":"Point","coordinates":[133.54695,33.53524]},"properties":{"name":"\u5b55\u5909\u96fb\u6240 66kV","vn_kv":66.0,"vm_pu":1.0,"va_deg":-19.95}},{"type":"Feature","geometry":{"type":"Point","coordinates":[133.56649,33.56219]},"properties":{"name":"\u77e5\u5bc4\u753a\u4e09\u4e01\u76ee\u5909\u96fb\u6240","vn_kv":66.0,"vm_pu":0.9903,"va_deg":-20.61}},{"type":"Feature","geometry":{"type":"Point","coordinates":[133.48524,33.50785]},"properties":{"name":"\u6625\u91ce\u5909\u96fb\u6240","vn_kv":66.0,"vm_pu":1.0,"va_deg":-20.75}},{"type":"Feature","geometry":{"type":"Point","coordinates":[133.67109,33.57351]},"properties":{"name":"\u7acb\u7530\u5909\u96fb\u6240","vn_kv":66.0,"vm_pu":1.0,"va_deg":-18.69}},{"type":"Feature","geometry":{"type":"Point","coordinates":[133.74903,33.55286]},"properties":{"name":"\u591c\u9808\u753a\u5909\u96fb\u6240","vn_kv":66.0,"vm_pu":1.0,"va_deg":0.0}},{"type":"Feature","geometry":{"type":"Point","coordinates":[134.34902,33.60321]},"properties":{"name":"\u591a\u826f\u5909\u96fb\u6240","vn_kv":66.0,"vm_pu":0.8889,"va_deg":-48.69}},{"type":"Feature","geometry":{"type":"Point","coordinates":[134.51665,34.07241]},"properties":{"name":"\u5357\u5e84\u753a\u4e00\u4e01\u76ee\u5909\u96fb\u6240","vn_kv":66.0,"vm_pu":1.0038,"va_deg":-20.61}},{"type":"Feature","geometry":{"type":"Point","coordinates":[133.27332,33.51359]},"properties":{"name":"\u4f50\u5ddd\u5909\u96fb\u6240","vn_kv":66.0,"vm_pu":1.0,"va_deg":1.47}},{"type":"Feature","geometry":{"type":"Point","coordinates":[133.69002,33.63565]},"properties":{"name":"\u571f\u4f50\u5c71\u7530\u753a\u65b0\u6539\u5909\u96fb\u6240 187kV","vn_kv":187.0,"vm_pu":1.0,"va_deg":-13.06}},{"type":"Feature","geometry":{"type":"Point","coordinates":[133.69002,33.63565]},"properties":{"name":"\u571f\u4f50\u5c71\u7530\u753a\u65b0\u6539\u5909\u96fb\u6240 66kV","vn_kv":66.0,"vm_pu":1.0003,"va_deg":-18.71}},{"type":"Feature","geometry":{"type":"Point","coordinates":[133.5322,33.55113]},"properties":{"name":"\u5927\u539f\u753a\u5909\u96fb\u6240","vn_kv":66.0,"vm_pu":0.9963,"va_deg":-20.12}},{"type":"Feature","geometry":{"type":"Point","coordinates":[133.47654,33.56585]},"properties":{"name":"\u9ad8\u77e5\u5909\u96fb\u6240 187kV","vn_kv":187.0,"vm_pu":0.9998,"va_deg":-12.59}},{"type":"Feature","geometry":{"type":"Point","coordinates":[133.47654,33.56585]},"properties":{"name":"\u9ad8\u77e5\u5909\u96fb\u6240 110kV","vn_kv":110.0,"vm_pu":0.9964,"va_deg":-15.56}},{"type":"Feature","geometry":{"type":"Point","coordinates":[133.47654,33.56585]},"properties":{"name":"\u9ad8\u77e5\u5909\u96fb\u6240 66kV","vn_kv":66.0,"vm_pu":0.9965,"va_deg":-19.75}},{"type":"Feature","geometry":{"type":"Point","coordinates":[132.55709,33.55655]},"properties":{"name":"\u5927\u6d32\u5909\u96fb\u6240 187kV","vn_kv":187.0,"vm_pu":1.0,"va_deg":-11.14}},{"type":"Feature","geometry":{"type":"Point","coordinates":[132.55709,33.55655]},"properties":{"name":"\u5927\u6d32\u5909\u96fb\u6240 66kV","vn_kv":66.0,"vm_pu":0.9991,"va_deg":-12.34}},{"type":"Feature","geometry":{"type":"Point","coordinates":[133.56864,33.57862]},"properties":{"name":"\u4e00\u5bae\u5357\u753a\u4e00\u4e01\u76ee\u5909\u96fb\u6240","vn_kv":66.0,"vm_pu":0.9912,"va_deg":-20.48}},{"type":"Feature","geometry":{"type":"Point","coordinates":[133.53852,33.57303]},"properties":{"name":"\u4f0a\u52e2\u5d0e\u753a\u5909\u96fb\u6240","vn_kv":66.0,"vm_pu":0.9914,"va_deg":-20.47}},{"type":"Feature","geometry":{"type":"Point","coordinates":[133.53418,33.50857]},"properties":{"name":"\u9577\u6d5c\u5bae\u7530\u5909\u96fb\u6240","vn_kv":66.0,"vm_pu":0.9998,"va_deg":-20.62}},{"type":"Feature","geometry":{"type":"Point","coordinates":[133.54049,33.50422]},"properties":{"name":"\u702c\u6238\u5357\u753a\u4e8c\u4e01\u76ee\u5909\u96fb\u6240","vn_kv":66.0,"vm_pu":1.0,"va_deg":-20.66}},{"type":"Feature","geometry":{"type":"Point","coordinates":[134.28884,33.54758]},"properties":{"name":"\u56db\u56fd\u96fb\u529b \u7532\u6d66\u5909\u96fb\u6240","vn_kv":66.0,"vm_pu":0.8845,"va_deg":-49.39}},{"type":"Feature","geometry":{"type":"Point","coordinates":[133.60402,33.56584]},"properties":{"name":"\u4ecb\u826f\u5909\u96fb\u6240","vn_kv":66.0,"vm_pu":1.0,"va_deg":-19.73}},{"type":"Feature","geometry":{"type":"Point","coordinates":[134.04886,33.46434]},"properties":{"name":"\u5927\u5b57\u9577\u5c71\u5909\u96fb\u6240","vn_kv":187.0,"vm_pu":1.0,"va_deg":-13.08}},{"type":"Feature","geometry":{"type":"Point","coordinates":[134.05046,33.46232]},"properties":{"name":"\u5317\u5ddd\u6751\u5909\u96fb\u6240 187kV","vn_kv":187.0,"vm_pu":1.0,"va_deg":-13.08}},{"type":"Feature","geometry":{"type":"Point","coordinates":[134.05046,33.46232]},"properties":{"name":"\u5317\u5ddd\u6751\u5909\u96fb\u6240 66kV","vn_kv":66.0,"vm_pu":1.0006,"va_deg":-15.68}},{"type":"Feature","geometry":{"type":"Point","coordinates":[132.71294,32.93524]},"properties":{"name":"\u897f\u7247\u5cf6\u5909\u96fb\u6240","vn_kv":66.0,"vm_pu":1.0,"va_deg":-16.88}},{"type":"Feature","geometry":{"type":"Point","coordinates":[132.80889,32.95498]},"properties":{"name":"\u5e73\u7530\u753a\u6771\u5e73\u4e8c\u4e01\u76ee\u5909\u96fb\u6240","vn_kv":66.0,"vm_pu":1.0,"va_deg":-17.32}},{"type":"Feature","geometry":{"type":"Point","coordinates":[132.68699,33.24656]},"properties":{"name":"\u5e83\u898b\u5909\u96fb\u6240 187kV","vn_kv":187.0,"vm_pu":1.0003,"va_deg":-11.74}},{"type":"Feature","geometry":{"type":"Point","coordinates":[132.68699,33.24656]},"properties":{"name":"\u5e83\u898b\u5909\u96fb\u6240 66kV","vn_kv":66.0,"vm_pu":1.0009,"va_deg":-16.84}},{"type":"Feature","geometry":{"type":"Point","coordinates":[132.31264,33.48814]},"properties":{"name":"\u4e5d\u753a\u5909\u96fb\u6240 500kV","vn_kv":500.0,"vm_pu":1.0,"va_deg":-8.44}},{"type":"Feature","geometry":{"type":"Point","coordinates":[132.31264,33.48814]},"properties":{"name":"\u4e5d\u753a\u5909\u96fb\u6240 187kV","vn_kv":187.0,"vm_pu":1.0006,"va_deg":-10.93}},{"type":"Feature","geometry":{"type":"Point","coordinates":[132.31264,33.48814]},"properties":{"name":"\u4e5d\u753a\u5909\u96fb\u6240 66kV","vn_kv":66.0,"vm_pu":0.9985,"va_deg":-12.19}},{"type":"Feature","geometry":{"type":"Point","coordinates":[134.13849,33.5169]},"properties":{"name":"\u5927\u5b57\u4e8c\u30bf\u53c8\u5909\u96fb\u6240","vn_kv":187.0,"vm_pu":1.0,"va_deg":-12.86}},{"type":"Feature","geometry":{"type":"Point","coordinates":[134.11425,33.59171]},"properties":{"name":"\u5317\u5ddd\u6751\u5909\u96fb\u6240_2","vn_kv":187.0,"vm_pu":1.0,"va_deg":-12.82}},{"type":"Feature","geometry":{"type":"Point","coordinates":[132.42837,33.38457]},"properties":{"name":"\u4e09\u74f6\u753a\u671d\u7acb\u5909\u96fb\u6240","vn_kv":66.0,"vm_pu":0.9942,"va_deg":-14.36}},{"type":"Feature","geometry":{"type":"Point","coordinates":[132.54347,33.28087]},"properties":{"name":"\u5409\u7530\u753a\u6771\u5c0f\u8def\u5909\u96fb\u6240","vn_kv":66.0,"vm_pu":1.0,"va_deg":-17.39}},{"type":"Feature","geometry":{"type":"Point","coordinates":[132.52751,33.12877]},"properties":{"name":"\u5b87\u548c\u5cf6\u5e02\u5909\u96fb\u6240","vn_kv":66.0,"vm_pu":1.0,"va_deg":-19.34}},{"type":"Feature","geometry":{"type":"Point","coordinates":[133.56938,33.53096]},"properties":{"name":"\u4ec1\u4e95\u7530\u5909\u96fb\u6240 66kV","vn_kv":66.0,"vm_pu":1.0,"va_deg":-19.96}},{"type":"Feature","geometry":{"type":"Point","coordinates":[133.89658,33.50552]},"properties":{"name":"\u56db\u56fd\u96fb\u529b\u9001\u914d\u96fb \u5b89\u82b8\u5909\u96fb\u6240","vn_kv":66.0,"vm_pu":1.0,"va_deg":-16.24}},{"type":"Feature","geometry":{"type":"Point","coordinates":[134.00916,33.42981]},"properties":{"name":"\u677e\u672c\u5909\u96fb\u6240","vn_kv":66.0,"vm_pu":1.0,"va_deg":-15.75}},{"type":"Feature","geometry":{"type":"Point","coordinates":[134.42005,33.67362]},"properties":{"name":"\u725f\u5c90\u5909\u96fb\u6240","vn_kv":66.0,"vm_pu":0.9169,"va_deg":-44.65}},{"type":"Feature","geometry":{"type":"Point","coordinates":[132.8167,33.57275]},"properties":{"name":"\u5c0f\u7530\u5909\u96fb\u6240","vn_kv":66.0,"vm_pu":1.0,"va_deg":-12.38}},{"type":"Feature","geometry":{"type":"Point","coordinates":[134.1492,33.29241]},"properties":{"name":"\u6d6e\u6d25\u4e8c\u756a\u753a\u5909\u96fb\u6240","vn_kv":66.0,"vm_pu":1.0,"va_deg":-17.91}},{"type":"Feature","geometry":{"type":"Point","coordinates":[132.58361,33.2361]},"properties":{"name":"\u5b87\u548c\u5cf6\u5909\u96fb\u6240","vn_kv":66.0,"vm_pu":1.0,"va_deg":-17.8}},{"type":"Feature","geometry":{"type":"Point","coordinates":[132.56825,32.96653]},"properties":{"name":"\u5fa1\u8358\u5e73\u57ce\u5909\u96fb\u6240","vn_kv":66.0,"vm_pu":1.0,"va_deg":-20.42}},{"type":"Feature","geometry":{"type":"Point","coordinates":[133.14,33.20688]},"properties":{"name":"\u53e4\u5e02\u753a\u5909\u96fb\u6240","vn_kv":66.0,"vm_pu":1.0,"va_deg":-16.08}},{"type":"Feature","geometry":{"type":"Point","coordinates":[132.69378,33.25]},"properties":{"name":"\u51fa\u76ee\u5909\u96fb\u6240","vn_kv":66.0,"vm_pu":1.0007,"va_deg":-16.87}},{"type":"Feature","geometry":{"type":"Point","coordinates":[132.55625,33.23167]},"properties":{"name":"\u4f4f\u5409\u753a\u4e8c\u4e01\u76ee\u5909\u96fb\u6240","vn_kv":66.0,"vm_pu":1.0,"va_deg":-18.05}},{"type":"Feature","geometry":{"type":"Point","coordinates":[133.12784,33.54408]},"properties":{"name":"\u5927\u6e21\u5909\u96fb\u6240","vn_kv":66.0,"vm_pu":1.0,"va_deg":0.0}},{"type":"Feature","geometry":{"type":"Point","coordinates":[133.12264,33.45621]},"properties":{"name":"\u9ed2\u5ddd\u5909\u96fb\u6240","vn_kv":66.0,"vm_pu":1.0,"va_deg":-1.0}},{"type":"Feature","geometry":{"type":"Point","coordinates":[132.519,33.35802]},"properties":{"name":"\u536f\u4e4b\u753a\u5909\u96fb\u6240","vn_kv":66.0,"vm_pu":0.9954,"va_deg":-15.69}},{"type":"Feature","geometry":{"type":"Point","coordinates":[133.27175,33.38942]},"properties":{"name":"\u9808\u5d0e\u5909\u96fb\u6240","vn_kv":66.0,"vm_pu":1.0,"va_deg":0.0}},{"type":"Feature","geometry":{"type":"Point","coordinates":[133.21153,33.3372]},"properties":{"name":"\u4e45\u793c\u5909\u96fb\u6240","vn_kv":110.0,"vm_pu":0.9963,"va_deg":-0.56}},{"type":"Feature","geometry":{"type":"Point","coordinates":[133.32332,33.40492]},"properties":{"name":"\u62bc\u5ca1\u5909\u96fb\u6240","vn_kv":110.0,"vm_pu":1.0,"va_deg":-0.39}},{"type":"Feature","geometry":{"type":"Point","coordinates":[133.42781,33.54872]},"properties":{"name":"\u4f0a\u91ce\u5909\u96fb\u6240","vn_kv":66.0,"vm_pu":1.0,"va_deg":0.0}},{"type":"Feature","geometry":{"type":"Point","coordinates":[134.36436,33.61054]},"properties":{"name":"\u56db\u56fd\u96fb\u529b\u6d77\u5357\u5909\u96fb\u6240","vn_kv":66.0,"vm_pu":0.8876,"va_deg":-48.9}},{"type":"Feature","geometry":{"type":"Point","coordinates":[134.53848,33.72658]},"properties":{"name":"\u65e5\u548c\u4f50\u5909\u96fb\u6240","vn_kv":66.0,"vm_pu":0.9489,"va_deg":-40.91}},{"type":"Feature","geometry":{"type":"Point","coordinates":[134.46611,33.80839]},"properties":{"name":"\u5ddd\u53e3\u958b\u9589\u6240","vn_kv":66.0,"vm_pu":1.0,"va_deg":-35.08}}]}