{"type":"FeatureCollection","name":"chugoku_other_freq_reference","features":[{"type":"Feature","geometry":{"type":"LineString","coordinates":[[134.1774629,34.271432],[134.1770219,34.2690539],[134.1763436,34.2678685]]},"properties":{"name":"長尾線;大川長尾線","operator":"四国電力送配電","voltage":"66000","frequency":"50","note":"other synchronous system (region grid is 60 Hz); present geographically, not part of this AC solve"}},{"type":"Feature","geometry":{"type":"LineString","coordinates":[[133.5708739,34.5187964],[133.5707774,34.5189175],[133.570755,34.5189485],[133.570741,34.5189632]]},"properties":{"name":"西日本旅客鉄道 1.5kV線","operator":"西日本旅客鉄道","voltage":"1500","frequency":"0","note":"other synchronous system (region grid is 60 Hz); present geographically, not part of this AC solve"}},{"type":"Feature","geometry":{"type":"LineString","coordinates":[[133.891356,34.6566897],[133.8913762,34.6560587],[133.8916444,34.6551531],[133.8917195,34.6548993],[133.8919159,34.6545617]]},"properties":{"name":"西日本旅客鉄道 1.5kV線","operator":"西日本旅客鉄道","voltage":"1500","frequency":"0","note":"other synchronous system (region grid is 60 Hz); present geographically, not part of this AC solve"}}]}