{"type":"FeatureCollection","name":"hokkaido_other_freq_reference","features":[{"type":"Feature","geometry":{"type":"LineString","coordinates":[[140.8593889,41.7653571],[140.8569431,41.7659323],[140.8562481,41.768416],[140.8555909,41.7707145],[140.8549229,41.7744981],[140.853945,41.7776465],[140.8507787,41.7804364],[140.8508679,41.782513],[140.8509618,41.785131],[140.8516002,41.7880849],[140.852152,41.7897662],[140.8520105,41.7921206],[140.8518067,41.7954581],[140.8497542,41.7984543],[140.8466793,41.8016209],[140.8448441,41.8035264],[140.8430011,41.8054199],[140.8424447,41.8073673],[140.8416857,41.810069],[140.8404834,41.8117483],[140.8369373,41.8139941],[140.8338064,41.8162592],[140.8308613,41.8182922],[140.8284602,41.8200676],[140.8253249,41.8210688],[140.8218866,41.8216664],[140.8179921,41.8221325],[140.8137408,41.8226778],[140.8095323,41.8258518],[140.8079632,41.8269571],[140.8050345,41.8290052],[140.802652,41.8307919],[140.8007575,41.8319477],[140.7990262,41.8337442],[140.7976249,41.8352519],[140.7955265,41.837497],[140.7940569,41.8413586],[140.7930872,41.8437992],[140.7917557,41.8473084],[140.7896146,41.8497708],[140.7873371,41.8524931],[140.7853798,41.854876],[140.7793802,41.857799],[140.7748167,41.8600578],[140.7712438,41.8618426],[140.7671755,41.8638469],[140.7645705,41.8651435],[140.7613894,41.8666845],[140.75828,41.8682357],[140.7535121,41.8706262],[140.7469664,41.8738301],[140.7441374,41.8760099],[140.7402644,41.8777614],[140.7374515,41.8792641],[140.73538,41.8813958],[140.7336674,41.8827159],[140.7315201,41.8834123],[140.7285125,41.8843946],[140.7263018,41.8868615],[140.7250529,41.8883302],[140.7210133,41.8928927],[140.7184526,41.8957786],[140.7158334,41.8987325],[140.7139171,41.9009238],[140.7123424,41.9026864],[140.7094804,41.9058585],[140.7080241,41.9076032],[140.7050722,41.9109205],[140.7033636,41.9125233],[140.701753,41.9140085],[140.697381,41.918121],[140.6957193,41.9197139],[140.692945,41.923816],[140.6904211,41.9275179],[140.6871594,41.9292411],[140.6834828,41.9312025],[140.6789575,41.9319513],[140.6759268,41.9324467],[140.6685975,41.9336499],[140.6646476,41.9312636]]},"properties":{"name":"北本直流幹線","operator":null,"voltage":"250000","frequency":"0","note":"other synchronous system (region grid is 50 Hz); present geographically, not part of this AC solve"}},{"type":"Feature","geometry":{"type":"LineString","coordinates":[[140.8593889,41.7653571],[140.8593356,41.76512],[140.8593195,41.7650015],[140.8594486,41.7649859]]},"properties":{"name":"北本直流幹線","operator":null,"voltage":"250000","frequency":"0","note":"other synchronous system (region grid is 50 Hz); present geographically, not part of this AC solve"}},{"type":"Feature","geometry":{"type":"LineString","coordinates":[[140.8593889,41.7653571],[140.8594592,41.7651083],[140.8594486,41.7649859]]},"properties":{"name":"北本直流幹線","operator":null,"voltage":"250000","frequency":"0","note":"other synchronous system (region grid is 50 Hz); present geographically, not part of this AC solve"}},{"type":"Feature","geometry":{"type":"LineString","coordinates":[[141.1997155,40.8026973],[141.1994982,40.8063863],[141.1993211,40.8096711],[141.1992836,40.8126107],[141.1994499,40.814799],[141.1999219,40.8184447],[141.2001419,40.8206735],[141.2004369,40.8232959],[141.2007534,40.8258817],[141.2011128,40.8293238],[141.201424,40.8319703],[141.2017298,40.8344056],[141.2019336,40.8362198],[141.2021911,40.8385332],[141.2025398,40.8412401],[141.2028348,40.84374],[141.2030655,40.8456757],[141.2034356,40.8486299],[141.20372,40.8507481],[141.2040096,40.8534221],[141.2058174,40.8572685],[141.2067321,40.8591085],[141.2076264,40.8615533],[141.2084648,40.8638451],[141.2094545,40.8666809],[141.2101626,40.8687295],[141.2102109,40.8728347],[141.2100875,40.8761243],[141.2118685,40.8791948],[141.2134135,40.8819528],[141.2146186,40.8840552],[141.2168385,40.8880148],[141.219405,40.892574],[141.2210492,40.8954419],[141.2228924,40.8986566],[141.2240565,40.9006272],[141.2257248,40.9035384],[141.2275433,40.9066279],[141.2291366,40.9093442],[141.2300914,40.9109577],[141.2317973,40.9137914],[141.2333315,40.9163899],[141.2347795,40.9190479],[141.236742,40.9226486],[141.2376552,40.9242901],[141.2389642,40.9266865],[141.2403508,40.9292228],[141.2414693,40.9312426],[141.242573,40.9332694],[141.2443045,40.936396],[141.2459326,40.9393887],[141.2471277,40.9415328],[141.2487691,40.9446127],[141.2502167,40.947232],[141.2517142,40.9499648],[141.2528071,40.9519577],[141.254533,40.9550915],[141.2562336,40.958138],[141.257171,40.9598354],[141.2588944,40.9629598],[141.2601134,40.9651492],[141.2611809,40.9670884],[141.2628265,40.9700868],[141.2639785,40.9721647],[141.2654899,40.9749441],[141.2671367,40.9779279],[141.2682901,40.9799934],[141.2694971,40.9821539],[141.2710246,40.985014],[141.2724877,40.9877675],[141.2737136,40.9900514],[141.2748709,40.9922136],[141.2761302,40.9945518],[141.2772929,40.9967433],[141.2777704,40.9991968],[141.2783417,41.0021644],[141.279015,41.0055944],[141.2795151,41.0072793],[141.2801066,41.0093226],[141.2807315,41.0115167],[141.2809112,41.0137591],[141.2811955,41.0171793],[141.2816247,41.0194034],[141.2819251,41.0210001],[141.2826078,41.024514],[141.2830033,41.026574],[141.2836638,41.029987],[141.2843511,41.0335708],[141.2850445,41.0371296],[141.2857218,41.0406528],[141.2863293,41.0438107],[141.286847,41.04648],[141.2872909,41.0488092],[141.2879158,41.0520679],[141.2883383,41.0542513],[141.2887782,41.0565692],[141.2894688,41.0601794],[141.2899905,41.0624131],[141.2909427,41.0664759],[141.2918332,41.070314],[141.2924179,41.0726091],[141.2928739,41.0743926],[141.2933164,41.0761153],[141.2943813,41.0804007],[141.2949084,41.0824234],[141.2955481,41.0849404],[141.2965699,41.0889352],[141.2968033,41.0909506],[141.2970314,41.0927457],[141.297431,41.0960628],[141.2977287,41.0985631],[141.2980157,41.1007804],[141.2984181,41.1041254],[141.2991221,41.1069185],[141.2995606,41.1086969],[141.3005061,41.1124265],[141.3009795,41.1143018],[141.3021705,41.1171035],[141.303753,41.1207326],[141.3051946,41.1240695],[141.3063842,41.1268274],[141.3073793,41.1291478],[141.3087714,41.1323408],[141.3089821,41.1348073],[141.3092664,41.1380612],[141.3094367,41.1400918],[141.3098149,41.1444285],[141.3099604,41.1459242],[141.3102172,41.1489771],[141.3105257,41.1515481],[141.3109019,41.154999],[141.3111024,41.1568247],[141.3113873,41.1593389],[141.3115905,41.1611664],[141.311848,41.1635496],[141.3121321,41.1660365],[141.312505,41.1693741],[141.3128846,41.1728195],[141.3128564,41.1768371],[141.3128,41.1812694],[141.3127652,41.1847708],[141.3127263,41.1880146],[141.3126827,41.1898211],[141.3126807,41.1923391],[141.3114363,41.1965925],[141.3102508,41.2007025],[141.3090706,41.2047401],[141.3079546,41.208476],[141.3073774,41.2104362],[141.3064668,41.2129286],[141.3057192,41.2149731],[141.3045779,41.2180953],[141.3034956,41.2210641],[141.3024536,41.2239057],[141.3014826,41.2258817],[141.3000128,41.228836],[141.2967872,41.2318155],[141.2934541,41.2348577],[141.2918052,41.2363801],[141.2893035,41.2386901],[141.2891246,41.240911],[141.28875,41.2453939],[141.2884929,41.2484158],[141.2883061,41.2505472],[141.2868845,41.2535317],[141.2858653,41.2556731],[141.284213,41.2583348],[141.283403,41.2596696],[141.2812358,41.2630609],[141.2797445,41.2654077],[141.2778723,41.2684923],[141.2751257,41.2697583],[141.2735379,41.2727903],[141.2717837,41.2760519],[141.2705552,41.2783942],[141.2690693,41.2812121],[141.2673366,41.2838445],[141.2661403,41.2857028],[141.2639999,41.2889517],[141.2622887,41.2915474],[141.260497,41.2943164],[141.2587911,41.2969805],[141.2575948,41.2988948],[141.2540597,41.3001079],[141.2494463,41.3018126],[141.2453854,41.3032634],[141.2411582,41.3047988],[141.2371242,41.3062535],[141.2329829,41.3077283],[141.2293082,41.3090662],[141.2259018,41.3102911],[141.2239678,41.3120026],[141.2205267,41.3122293],[141.2161815,41.3134058],[141.213687,41.3133817],[141.2080705,41.3143205],[141.2056511,41.3157669],[141.2029318,41.3173983],[141.1996611,41.3193283],[141.1965801,41.3211482],[141.1928008,41.3233364],[141.1901957,41.3263229],[141.188514,41.3282546],[141.1869408,41.3301027],[141.1849478,41.3323554],[141.1830647,41.334553],[141.1804754,41.3381929],[141.1782117,41.3413957],[141.1762226,41.3442017],[141.1743133,41.3468809],[141.1712088,41.3484959],[141.1668455,41.3507563],[141.164372,41.3520531],[141.1622351,41.3542755],[141.1592692,41.3573484],[141.156472,41.3602622],[141.1536982,41.3631364],[141.1493516,41.3662282],[141.1464816,41.3683177],[141.1444646,41.3697509],[141.1390734,41.3719852],[141.1363384,41.3730506],[141.1324698,41.3745575],[141.1264992,41.3766869],[141.1228245,41.3777939],[141.118887,41.3789612],[141.1150448,41.3808217],[141.1098105,41.3833687],[141.107552,41.3844433],[141.10318,41.3865564],[141.1002403,41.3915951],[141.0981965,41.393889],[141.0955894,41.3968307],[141.093272,41.3994544],[141.0909867,41.4020136],[141.0893667,41.4038564],[141.087359,41.4060986],[141.0837662,41.4071075],[141.0790723,41.4083386],[141.0756767,41.4092721],[141.072104,41.4095738],[141.0683381,41.4098715],[141.0647815,41.4101773],[141.0620242,41.4103905],[141.058591,41.4106923],[141.0548252,41.41099],[141.0482377,41.4125952],[141.0447079,41.4134401],[141.0410522,41.4138406],[141.0342043,41.4145907],[141.0297841,41.4145987],[141.025632,41.414639],[141.0220969,41.4139309],[141.0155382,41.412649],[141.0117348,41.4122487],[141.0092645,41.4119812],[141.0025241,41.411249],[140.9989031,41.4111001],[140.992506,41.4108446],[140.989966,41.41074],[140.9872382,41.4106274],[140.9816431,41.4104001],[140.978175,41.410559],[140.9738647,41.410738],[140.9691869,41.4109432],[140.9628301,41.4112409],[140.9575193,41.4114843],[140.954931,41.4115849],[140.9516748,41.41178],[140.9489067,41.411947],[140.9443443,41.4121864],[140.9414904,41.4132364],[140.9368797,41.4149341],[140.9316092,41.4168752],[140.9279345,41.4182369],[140.9214463,41.4206204],[140.9193649,41.4219438],[140.915583,41.424315],[140.9113022,41.427006],[140.9059217,41.4304228],[140.9024589,41.4326127],[140.8992081,41.4346257],[140.8975961,41.4377123],[140.8956998,41.4413678],[140.8942111,41.4442189],[140.8933153,41.4459238],[140.89309,41.4483947],[140.8928298,41.4510826],[140.8924999,41.4544298],[140.8922478,41.4569064],[140.8918857,41.4605126],[140.8915692,41.4635598],[140.8905607,41.4649537]]},"properties":{"name":"HVDC Hokkaido-Honschu","operator":null,"voltage":"250000","frequency":"0","note":"other synchronous system (region grid is 50 Hz); present geographically, not part of this AC solve"}},{"type":"Feature","geometry":{"type":"LineString","coordinates":[[140.8901387,41.4652104],[140.886294,41.469525],[140.8594486,41.7649859]]},"properties":{"name":"HVDC Hokkaido-Honschu","operator":null,"voltage":"250000","frequency":"0","note":"other synchronous system (region grid is 50 Hz); present geographically, not part of this AC solve"}},{"type":"Feature","geometry":{"type":"LineString","coordinates":[[140.3467664,41.2525293],[140.3470906,41.2541765],[140.3478152,41.2578577],[140.3477855,41.2580686],[140.3476667,41.2594148],[140.3476203,41.2602644],[140.3475943,41.2615976],[140.3476088,41.2626998],[140.3476088,41.2634056],[140.3476377,41.2641092],[140.3483274,41.2819162],[140.3483129,41.2822624],[140.3481391,41.286426],[140.347829,41.2886448],[140.3475102,41.2909028],[140.3474088,41.2912751],[140.3468263,41.2936136],[140.3464003,41.2952922],[140.3449166,41.2995965],[140.3447573,41.2999274],[140.3429751,41.3038133],[140.341758,41.3059119],[140.3405524,41.3079711],[140.3403438,41.308265],[140.3377894,41.3119044],[140.3345567,41.3157586],[140.3232048,41.328608],[140.3119371,41.3413377],[140.3054666,41.348628],[140.3040037,41.3503301],[140.3031608,41.3513656],[140.3021769,41.3526528],[140.3020457,41.352833],[140.2555259,41.4191116],[140.2528899,41.4228443],[140.2514196,41.4249364],[140.248192,41.4295219],[140.2465082,41.4319103],[140.2458746,41.4327738],[140.245318,41.433569],[140.2424125,41.4376867],[140.2406621,41.4402139],[140.2392934,41.4422923],[140.2386546,41.4432572],[140.2362406,41.4429918],[140.2347024,41.4419101],[140.2346206,41.4418628]]},"properties":{"name":"北斗今別直流幹線","operator":"北海道電力","voltage":"250000","frequency":"0","note":"other synchronous system (region grid is 50 Hz); present geographically, not part of this AC solve"}},{"type":"Feature","geometry":{"type":"LineString","coordinates":[[140.8905607,41.4649537],[140.8901387,41.4652104]]},"properties":{"name":"北海道電力ネットワーク 250.0kV線","operator":"北海道電力ネットワーク","voltage":"250000","frequency":"0","note":"other synchronous system (region grid is 50 Hz); present geographically, not part of this AC solve"}},{"type":"Feature","geometry":{"type":"LineString","coordinates":[[140.5850458,41.9158846],[140.5847186,41.915663],[140.5846274,41.9157369],[140.5844745,41.9156391]]},"properties":{"name":"北海道電力ネットワーク 250.0kV線","operator":"北海道電力ネットワーク","voltage":"250000","frequency":"0","note":"other synchronous system (region grid is 50 Hz); present geographically, not part of this AC solve"}},{"type":"Feature","geometry":{"type":"LineString","coordinates":[[140.5844745,41.9156391],[140.5839112,41.9152558]]},"properties":{"name":"北斗今別直流幹線","operator":"北海道電力ネットワーク","voltage":"250000","frequency":"0","note":"other synchronous system (region grid is 50 Hz); present geographically, not part of this AC solve"}},{"type":"Feature","geometry":{"type":"LineString","coordinates":[[140.5839112,41.9152558],[140.5820873,41.9147848],[140.5780399,41.9132639],[140.5723965,41.9142359],[140.5670026,41.9159544],[140.5640978,41.9151421],[140.5613592,41.9143796],[140.5568933,41.9130543],[140.5532885,41.9094395],[140.552119,41.9048283],[140.5510247,41.9022571],[140.5496407,41.89844],[140.5450326,41.8939957],[140.5425167,41.8930374],[140.5382466,41.8913881],[140.536986,41.8892297],[140.5351326,41.8870173],[140.5386114,41.8836087],[140.5401564,41.881396],[140.5400652,41.8765672],[140.5396038,41.874538],[140.5390298,41.8721174],[140.5384022,41.8691574],[140.5399632,41.864747],[140.5407035,41.8620504],[140.5372167,41.8574757],[140.5356985,41.855442],[140.5327856,41.8523533],[140.5307257,41.8501157],[140.5267346,41.8469468],[140.5255061,41.8438138],[140.5263323,41.8405767],[140.5262732,41.8374474],[140.5284432,41.8344677],[140.5252165,41.8315439],[140.5227113,41.8288818],[140.5202544,41.82558],[140.5181944,41.8230136],[140.5149007,41.8200553],[140.5100191,41.8186161],[140.5066937,41.817129],[140.5026966,41.8171928],[140.4969567,41.8162813],[140.4927885,41.8156416],[140.4896343,41.8129389],[140.4841196,41.812611],[140.4786801,41.8124191],[140.4750806,41.8099321],[140.472731,41.8081928],[140.4700971,41.8064414],[140.4663634,41.8053018],[140.4630831,41.804502],[140.4573566,41.8039262],[140.45461,41.8041141],[140.4496425,41.8016868],[140.4468852,41.800947],[140.4432696,41.7998353],[140.4392463,41.7986596],[140.4349387,41.7968799],[140.4314893,41.7953042],[140.4275733,41.7938164],[140.4219031,41.7915287],[140.4192692,41.7887729],[140.4170966,41.787381],[140.414806,41.7841851],[140.412628,41.782461],[140.409978,41.7795929],[140.4071724,41.7767766],[140.4090393,41.7737541],[140.4088086,41.7712357],[140.4061425,41.7693112],[140.401808,41.7660144],[140.3983641,41.7635456],[140.3979135,41.7597482],[140.3955638,41.7563148],[140.3953385,41.7542579],[140.3952956,41.7503839],[140.3952956,41.7484388],[140.3916585,41.745309],[140.3879034,41.7423471],[140.3859937,41.7397533],[140.381906,41.7388967],[140.3769064,41.7388327],[140.3727543,41.7382803],[140.366435,41.7361107],[140.3629495,41.7340071],[140.3597403,41.7321656],[140.3570795,41.7294093],[140.3548989,41.725736],[140.3526485,41.7219044],[140.3471768,41.7202247],[140.343183,41.7160003],[140.3392965,41.7137659],[140.3373384,41.7116715],[140.3360993,41.7084438],[140.3372526,41.7049235],[140.3376013,41.7022922],[140.3378373,41.6987996],[140.3349566,41.6964004],[140.3306383,41.6946499],[140.327779,41.6934843],[140.3231496,41.6908966],[140.3213203,41.687796],[140.3222108,41.6845951],[140.3196627,41.6803884],[140.3172594,41.6771871],[140.3170395,41.6751236],[140.3167605,41.6712569],[140.3172111,41.6687685],[140.3153819,41.6662519],[140.3136384,41.6641841],[140.3120345,41.6617474],[140.3130162,41.6572427],[140.3102374,41.652954],[140.3045726,41.6497795],[140.3016543,41.6464203],[140.3001737,41.6436864],[140.295732,41.6395171],[140.2941227,41.6380338],[140.2931464,41.6349146],[140.2916443,41.6321561],[140.2902067,41.6301674],[140.2886081,41.6277776],[140.2868593,41.6259972],[140.2810764,41.6246078],[140.2747357,41.6240644],[140.272724,41.6204874],[140.2708089,41.6170225],[140.2703583,41.6139745],[140.2698111,41.6105814],[140.2720535,41.6079342],[140.2772677,41.6066025],[140.2823746,41.6063378],[140.2865052,41.606434],[140.2887154,41.6039311],[140.2867949,41.6003529],[140.2879321,41.5965178],[140.2873635,41.5930837],[140.2872777,41.5899222],[140.2857005,41.58721],[140.2831364,41.5824994],[140.2848637,41.5777884],[140.2835119,41.5749874],[140.2808404,41.5726276],[140.2766559,41.5691815],[140.2763019,41.5662115],[140.2773426,41.5637632],[140.2723859,41.5617001],[140.2681265,41.5611783],[140.2646611,41.5604718],[140.2608738,41.5596771],[140.2580629,41.5591633],[140.2529988,41.5585291],[140.2492652,41.5577824],[140.2453385,41.5569154],[140.2414975,41.5558637],[140.2371738,41.5559199],[140.2334295,41.556233],[140.2285586,41.5544506],[140.2241705,41.5523391],[140.2223466,41.5496654],[140.2181409,41.5471281],[140.2158771,41.5429044],[140.2153406,41.5389534],[140.2132166,41.5359124],[140.2090216,41.5320575],[140.2107596,41.5291741],[140.2140427,41.5276641],[140.2171004,41.5246119],[140.2163601,41.5222343],[140.2188921,41.5193023],[140.2193856,41.516804],[140.2145469,41.5143779],[140.211221,41.5124256],[140.2094507,41.5096539],[140.2053308,41.5055563],[140.205363,41.5026879],[140.2053738,41.500438],[140.2057922,41.4991443],[140.2086353,41.494596],[140.2062321,41.4892438],[140.2089894,41.4871381],[140.2125299,41.4854503],[140.2174115,41.4838107],[140.2208662,41.4815923],[140.2227759,41.4803706],[140.2231514,41.4763917],[140.2235055,41.4737631],[140.2206623,41.4703144],[140.2210057,41.4656998],[140.2192032,41.4640517],[140.2180338,41.461519],[140.216639,41.458729],[140.2147078,41.4540975],[140.2130878,41.4499321],[140.2134097,41.4479377],[140.2143377,41.4437035],[140.2178568,41.441516],[140.2227598,41.4411721],[140.2278855,41.4400924],[140.2300823,41.4397868],[140.2322763,41.4410957],[140.2343255,41.4416346]]},"properties":{"name":"北斗今別直流幹線","operator":"北海道電力ネットワーク","voltage":"250000","frequency":"0","note":"other synchronous system (region grid is 50 Hz); present geographically, not part of this AC solve"}},{"type":"Feature","geometry":{"type":"LineString","coordinates":[[140.2343255,41.4416346],[140.2346206,41.4418628]]},"properties":{"name":"北斗今別直流幹線","operator":"北海道電力ネットワーク","voltage":"250000","frequency":"0","note":"other synchronous system (region grid is 50 Hz); present geographically, not part of this AC solve"}},{"type":"Feature","geometry":{"type":"LineString","coordinates":[[140.6643444,41.9314017],[140.6646476,41.9312636]]},"properties":{"name":"北本直流幹線","operator":null,"voltage":"250000","frequency":"0","note":"other synchronous system (region grid is 50 Hz); present geographically, not part of this AC solve"}},{"type":"Feature","geometry":{"type":"LineString","coordinates":[[140.6644203,41.9314969],[140.6646476,41.9312636]]},"properties":{"name":"北本直流幹線","operator":null,"voltage":"250000","frequency":"0","note":"other synchronous system (region grid is 50 Hz); present geographically, not part of this AC solve"}},{"type":"Feature","geometry":{"type":"LineString","coordinates":[[141.5239497,42.7014438],[141.5227124,42.7020844],[141.5141293,42.7065529],[141.4641071,42.7326063],[141.4571082,42.7380111],[141.4554953,42.7410711],[141.4523482,42.7450108],[141.4510107,42.7473534],[141.4462133,42.7491281],[141.4443441,42.7516621],[141.4407249,42.7555413],[141.435022,42.7648074],[141.4390804,42.7707522],[141.4397926,42.7737999],[141.4400775,42.7762552],[141.4400916,42.7778797],[141.4400963,42.7787733],[141.4382937,42.783075],[141.4381805,42.7839443],[141.437984,42.7889975],[141.4382461,42.7891626]]},"properties":{"name":"苫小牧変電所~千歳市変電所線","operator":"Ōji Seishi Kabushiki kaisha","voltage":"66000","frequency":"60","note":"other synchronous system (region grid is 50 Hz); present geographically, not part of this AC solve"}},{"type":"Feature","geometry":{"type":"LineString","coordinates":[[141.5239497,42.7014438],[141.5226641,42.7020193],[141.4640238,42.7325202],[141.457022,42.7379693],[141.4554079,42.7410399],[141.4522201,42.7449891],[141.4509219,42.7472668],[141.446136,42.7490678],[141.4442463,42.7516229],[141.4406434,42.7555075],[141.4348936,42.764827],[141.4389625,42.7707542],[141.4396804,42.7738176],[141.4399914,42.7762631],[141.4399775,42.7787582],[141.4381881,42.7830633],[141.4380761,42.7839419],[141.4378731,42.7890207],[141.4381369,42.7892932]]},"properties":{"name":"苫小牧変電所~千歳市変電所線","operator":"Ōji Seishi Kabushiki kaisha","voltage":"66000","frequency":"60","note":"other synchronous system (region grid is 50 Hz); present geographically, not part of this AC solve"}},{"type":"Feature","geometry":{"type":"LineString","coordinates":[[141.5818262,42.6451821],[141.5801439,42.6452962],[141.5795229,42.6458726],[141.5788996,42.6464698],[141.578127,42.6472175],[141.5777635,42.6480987],[141.5774294,42.6488739],[141.5771041,42.6496463],[141.5767422,42.6504701],[141.576227,42.6512756],[141.575442,42.652115],[141.5746758,42.6528717],[141.5740096,42.6537148]]},"properties":{"name":"Ōji Seishi Kabushiki kaisha 66.0kV線","operator":"Ōji Seishi Kabushiki kaisha","voltage":"66000","frequency":"60","note":"other synchronous system (region grid is 50 Hz); present geographically, not part of this AC solve"}},{"type":"Feature","geometry":{"type":"LineString","coordinates":[[141.5870546,42.6353535],[141.5868543,42.6356641],[141.5869233,42.6360066]]},"properties":{"name":"Ōji Seishi Kabushiki kaisha 66.0kV線","operator":"Ōji Seishi Kabushiki kaisha","voltage":"66000","frequency":"60","note":"other synchronous system (region grid is 50 Hz); present geographically, not part of this AC solve"}},{"type":"Feature","geometry":{"type":"LineString","coordinates":[[141.5869233,42.6360066],[141.5867994,42.6356572],[141.5870063,42.6353413]]},"properties":{"name":"Ōji Seishi Kabushiki kaisha 66.0kV線","operator":"Ōji Seishi Kabushiki kaisha","voltage":"66000","frequency":"60","note":"other synchronous system (region grid is 50 Hz); present geographically, not part of this AC solve"}},{"type":"Feature","geometry":{"type":"LineString","coordinates":[[141.5740096,42.6537148],[141.5724486,42.6550737],[141.5708521,42.6564469],[141.5692792,42.6578229]]},"properties":{"name":"白金町一丁目変電所~苫小牧変電所線","operator":"Ōji Seishi Kabushiki kaisha","voltage":"66000","frequency":"60","note":"other synchronous system (region grid is 50 Hz); present geographically, not part of this AC solve"}},{"type":"Feature","geometry":{"type":"LineString","coordinates":[[141.5740096,42.6537148],[141.5747551,42.6529221],[141.5755244,42.6521492],[141.5763263,42.6513164],[141.5768419,42.650505],[141.5772009,42.6496703],[141.5775329,42.6488983],[141.5778469,42.6481085],[141.5782163,42.647242],[141.5789746,42.6465146],[141.5796155,42.6459065],[141.580195,42.6453769],[141.5818262,42.6451821]]},"properties":{"name":"Ōji Seishi Kabushiki kaisha 66.0kV線","operator":"Ōji Seishi Kabushiki kaisha","voltage":"66000","frequency":"60","note":"other synchronous system (region grid is 50 Hz); present geographically, not part of this AC solve"}},{"type":"Feature","geometry":{"type":"LineString","coordinates":[[141.5282878,42.6991487],[141.5292981,42.6986405],[141.5431404,42.6914393],[141.5470675,42.6894058],[141.5563471,42.6852331],[141.5584593,42.6808063],[141.5590755,42.6790426],[141.5602333,42.6750537],[141.5612631,42.6708781],[141.5618998,42.6677232],[141.5620672,42.6669607],[141.5622749,42.6660804],[141.5630083,42.6653786],[141.5636798,42.6647419],[141.5643426,42.6641051],[141.5650362,42.6634521],[141.5657652,42.6627569],[141.5663086,42.6618537],[141.5667681,42.6611162],[141.5672099,42.6603786],[141.5676826,42.6596314],[141.5682128,42.6587444],[141.5692792,42.6578229]]},"properties":{"name":"Ōji Seishi Kabushiki kaisha 66.0kV線","operator":"Ōji Seishi Kabushiki kaisha","voltage":"66000","frequency":"60","note":"other synchronous system (region grid is 50 Hz); present geographically, not part of this AC solve"}},{"type":"Feature","geometry":{"type":"LineString","coordinates":[[141.5692792,42.6578229],[141.568116,42.6587091],[141.567577,42.6596043],[141.5671087,42.660345],[141.5666669,42.6610793],[141.5662207,42.6618233],[141.5656728,42.6627167],[141.5649483,42.6633925],[141.5642723,42.6640618],[141.5635963,42.664692],[141.5629336,42.6653223],[141.562187,42.6660338],[141.5619661,42.6669466],[141.5617893,42.667723],[141.5611444,42.6708598],[141.5601299,42.6750298],[141.5589496,42.679013],[141.5582968,42.6807738],[141.5562818,42.6851898],[141.5470091,42.6893211],[141.5292289,42.6985918],[141.5282878,42.6991487]]},"properties":{"name":"Ōji Seishi Kabushiki kaisha 66.0kV線","operator":"Ōji Seishi Kabushiki kaisha","voltage":"66000","frequency":"60","note":"other synchronous system (region grid is 50 Hz); present geographically, not part of this AC solve"}},{"type":"Feature","geometry":{"type":"LineString","coordinates":[[141.5282878,42.6991487],[141.5239497,42.7014438]]},"properties":{"name":"Ōji Seishi Kabushiki kaisha 66.0kV線","operator":"Ōji Seishi Kabushiki kaisha","voltage":"66000","frequency":"60","note":"other synchronous system (region grid is 50 Hz); present geographically, not part of this AC solve"}},{"type":"Feature","geometry":{"type":"LineString","coordinates":[[141.4383141,42.7893703],[141.438496,42.7894494]]},"properties":{"name":"Ōji Seishi Kabushiki kaisha 66.0kV線","operator":"Ōji Seishi Kabushiki kaisha","voltage":"66000","frequency":"60","note":"other synchronous system (region grid is 50 Hz); present geographically, not part of this AC solve"}},{"type":"Feature","geometry":{"type":"LineString","coordinates":[[141.4384189,42.7892375],[141.4386046,42.7893181]]},"properties":{"name":"Ōji Seishi Kabushiki kaisha 66.0kV線","operator":"Ōji Seishi Kabushiki kaisha","voltage":"66000","frequency":"60","note":"other synchronous system (region grid is 50 Hz); present geographically, not part of this AC solve"}},{"type":"Feature","geometry":{"type":"LineString","coordinates":[[141.4386046,42.7893181],[141.4387145,42.7893713],[141.4387378,42.7894087],[141.4387423,42.7894435],[141.4387306,42.7894609]]},"properties":{"name":"北海道送電線_45","operator":"Ōji Seishi Kabushiki kaisha","voltage":null,"frequency":"60","note":"other synchronous system (region grid is 50 Hz); present geographically, not part of this AC solve"}},{"type":"Feature","geometry":{"type":"LineString","coordinates":[[141.438496,42.7894494],[141.4386674,42.7895242]]},"properties":{"name":"北海道送電線_46","operator":"Ōji Seishi Kabushiki kaisha","voltage":null,"frequency":"60","note":"other synchronous system (region grid is 50 Hz); present geographically, not part of this AC solve"}},{"type":"Feature","geometry":{"type":"LineString","coordinates":[[141.4383141,42.7893703],[141.4383654,42.7893053],[141.4384189,42.7892375]]},"properties":{"name":"Ōji Seishi Kabushiki kaisha 66.0kV線","operator":"Ōji Seishi Kabushiki kaisha","voltage":"66000","frequency":"60","note":"other synchronous system (region grid is 50 Hz); present geographically, not part of this AC solve"}},{"type":"Feature","geometry":{"type":"LineString","coordinates":[[141.4403305,42.7903148],[141.4408063,42.7898881],[141.4415539,42.7894453],[141.4426133,42.7887908],[141.4436609,42.7886627],[141.4447534,42.7885328],[141.445801,42.7884116],[141.4468273,42.7882921],[141.4478773,42.7881796],[141.4490287,42.7880497],[141.4501141,42.788306],[141.4511286,42.7885449],[141.4521526,42.7887839],[141.4531389,42.7890124],[141.4542502,42.7892843],[141.4554394,42.7890107],[141.4618784,42.787485],[141.4630189,42.7872132],[141.4872845,42.7899561],[141.494699,42.7919364],[141.4959969,42.7922527],[141.5037869,42.7937661],[141.5048491,42.7938972],[141.5060221,42.7940467],[141.5060632,42.7940461],[141.5061026,42.7940454],[141.5140483,42.7930934],[141.5255491,42.7916767],[141.5296559,42.7926161],[141.5386145,42.7973095],[141.5396606,42.7978584],[141.5552885,42.8014083],[141.5555108,42.8022],[141.5556185,42.8029635],[141.5556775,42.8032775]]},"properties":{"name":"Ōji Seishi Kabushiki kaisha 66.0kV線","operator":"Ōji Seishi Kabushiki kaisha","voltage":"66000","frequency":"60","note":"other synchronous system (region grid is 50 Hz); present geographically, not part of this AC solve"}},{"type":"Feature","geometry":{"type":"LineString","coordinates":[[141.4382461,42.7891626],[141.4384189,42.7892375]]},"properties":{"name":"Ōji Seishi Kabushiki kaisha 66.0kV線","operator":"Ōji Seishi Kabushiki kaisha","voltage":"66000","frequency":"60","note":"other synchronous system (region grid is 50 Hz); present geographically, not part of this AC solve"}},{"type":"Feature","geometry":{"type":"LineString","coordinates":[[141.4381369,42.7892932],[141.4383141,42.7893703]]},"properties":{"name":"Ōji Seishi Kabushiki kaisha 66.0kV線","operator":"Ōji Seishi Kabushiki kaisha","voltage":"66000","frequency":"60","note":"other synchronous system (region grid is 50 Hz); present geographically, not part of this AC solve"}},{"type":"Feature","geometry":{"type":"LineString","coordinates":[[141.4383654,42.7893053],[141.4385778,42.7893961],[141.4385965,42.7894518],[141.438432,42.7896644],[141.4384499,42.789709]]},"properties":{"name":"Ōji Seishi Kabushiki kaisha 66.0kV線","operator":"Ōji Seishi Kabushiki kaisha","voltage":"66000","frequency":"60","note":"other synchronous system (region grid is 50 Hz); present geographically, not part of this AC solve"}},{"type":"Feature","geometry":{"type":"LineString","coordinates":[[141.4384499,42.789709],[141.4391687,42.7900325],[141.4398062,42.7902162],[141.4402825,42.7903182]]},"properties":{"name":"Ōji Seishi Kabushiki kaisha 66.0kV線","operator":"Ōji Seishi Kabushiki kaisha","voltage":"66000","frequency":"60","note":"other synchronous system (region grid is 50 Hz); present geographically, not part of this AC solve"}},{"type":"Feature","geometry":{"type":"LineString","coordinates":[[141.4402825,42.7903182],[141.4403119,42.7903344],[141.4403305,42.7903148]]},"properties":{"name":"Ōji Seishi Kabushiki kaisha 66.0kV線","operator":"Ōji Seishi Kabushiki kaisha","voltage":"66000","frequency":"60","note":"other synchronous system (region grid is 50 Hz); present geographically, not part of this AC solve"}},{"type":"Feature","geometry":{"type":"LineString","coordinates":[[141.4630189,42.7872132],[141.4646647,42.7938044],[141.4609798,42.7950952],[141.4612883,42.795587]]},"properties":{"name":"Ōji Seishi Kabushiki kaisha 66.0kV線","operator":"Ōji Seishi Kabushiki kaisha","voltage":"66000","frequency":"60","note":"other synchronous system (region grid is 50 Hz); present geographically, not part of this AC solve"}},{"type":"Feature","geometry":{"type":"LineString","coordinates":[[141.4612883,42.795587],[141.4613588,42.7957006]]},"properties":{"name":"Ōji Seishi Kabushiki kaisha 66.0kV線","operator":"Ōji Seishi Kabushiki kaisha","voltage":"66000","frequency":"60","note":"other synchronous system (region grid is 50 Hz); present geographically, not part of this AC solve"}},{"type":"Feature","geometry":{"type":"LineString","coordinates":[[141.5060632,42.7940461],[141.5060726,42.7947707]]},"properties":{"name":"Ōji Seishi Kabushiki kaisha 66.0kV線","operator":"Ōji Seishi Kabushiki kaisha","voltage":"66000","frequency":"60","note":"other synchronous system (region grid is 50 Hz); present geographically, not part of this AC solve"}},{"type":"Feature","geometry":{"type":"LineString","coordinates":[[141.5556775,42.8032775],[141.5557827,42.8038713]]},"properties":{"name":"Ōji Seishi Kabushiki kaisha 66.0kV線","operator":"Ōji Seishi Kabushiki kaisha","voltage":"66000","frequency":"60","note":"other synchronous system (region grid is 50 Hz); present geographically, not part of this AC solve"}},{"type":"Feature","geometry":{"type":"LineString","coordinates":[[141.5556775,42.8032775],[141.5555148,42.8032793]]},"properties":{"name":"Ōji Seishi Kabushiki kaisha 66.0kV線","operator":"Ōji Seishi Kabushiki kaisha","voltage":"66000","frequency":"60","note":"other synchronous system (region grid is 50 Hz); present geographically, not part of this AC solve"}}]}