{"type":"FeatureCollection","name":"hokuriku_other_freq_reference","features":[{"type":"Feature","geometry":{"type":"LineString","coordinates":[[137.8862052,36.1340638],[137.8898139,36.1306171],[137.8914123,36.1279584],[137.8933866,36.1245981],[137.8952532,36.1213727],[137.896622,36.1191338],[137.900907,36.1144572],[137.9038856,36.1112471],[137.9059583,36.1072745],[137.9078257,36.1037721],[137.9087726,36.1019918],[137.910571,36.0986619],[137.9147753,36.0968089],[137.9186833,36.0950631],[137.9212917,36.0932675],[137.9253405,36.0904629],[137.9299714,36.0893585],[137.9347577,36.0881934],[137.940837,36.0867412],[137.9435809,36.0861614],[137.9469913,36.0847839],[137.9504326,36.0833706],[137.953434,36.0821913],[137.9603246,36.0834584],[137.9647288,36.0830497],[137.9690729,36.0826173],[137.9756575,36.0813774],[137.9782967,36.0809406],[137.9858082,36.0830064],[137.9899451,36.085474],[137.9930609,36.087346],[137.9983224,36.089827],[138.0037421,36.0923323],[138.0071487,36.0963724],[138.0088942,36.0984074],[138.0104346,36.1001855],[138.0168448,36.1024005],[138.0195675,36.1024427],[138.0226346,36.1026877],[138.0278847,36.1040809],[138.0329638,36.1057366],[138.036313,36.1068124],[138.0413049,36.1060237],[138.0460501,36.1053003],[138.0498428,36.1047321],[138.0574503,36.1054706],[138.0628889,36.1062507],[138.0696877,36.1072029],[138.0720035,36.1079239],[138.0755815,36.1089032],[138.0785159,36.1099194],[138.0812624,36.11078],[138.0852167,36.11339],[138.0890187,36.1158845],[138.0914345,36.1177887],[138.093904,36.1197148],[138.0960574,36.1213933],[138.1008917,36.1251791],[138.106364,36.1273371],[138.1083262,36.1288457],[138.1122995,36.1313826],[138.1154247,36.133496],[138.1176151,36.1350084],[138.1207019,36.1370894],[138.1250598,36.1373583],[138.1287029,36.137591],[138.1304837,36.1376937],[138.1337079,36.1378996],[138.138902,36.1384942],[138.1417599,36.138804],[138.1481101,36.1395957],[138.1505053,36.1398806],[138.153103,36.1401968],[138.1574053,36.1407058],[138.163294,36.1412127],[138.1676115,36.1415644],[138.1713946,36.1418715],[138.1779672,36.1424103],[138.1827842,36.1427878],[138.1903082,36.1434285],[138.194584,36.1437796],[138.1991925,36.1441285],[138.2038432,36.1411092],[138.2084693,36.1388604],[138.2127302,36.139261],[138.2165876,36.139665],[138.2241559,36.1404328],[138.2305472,36.1407234],[138.2388938,36.1411059],[138.2445368,36.1421813],[138.2480916,36.1435055],[138.2526632,36.1452259],[138.2594089,36.1477597],[138.2621636,36.1497408],[138.2651119,36.151832],[138.2697967,36.1551403],[138.2755583,36.1576935],[138.2796937,36.159035],[138.2836139,36.1584375],[138.2888043,36.1576528],[138.2934536,36.1592805],[138.2995055,36.1609466],[138.3024947,36.1608398],[138.3060481,36.1607254],[138.3097052,36.1605856],[138.3151819,36.1603743],[138.3202565,36.1597977],[138.3235837,36.1594158],[138.3291394,36.1587951],[138.336031,36.1588623],[138.3402509,36.1588975],[138.3462892,36.1589778],[138.3524842,36.1615628],[138.354738,36.1625246],[138.3591911,36.1643915],[138.3645185,36.1644053],[138.3682839,36.1644069],[138.3713924,36.1643943],[138.3745001,36.1639827],[138.3787167,36.1634088],[138.3813555,36.1630457],[138.3850391,36.1625489],[138.389345,36.1619612],[138.3982048,36.1608365],[138.4057047,36.1598836],[138.4099914,36.1593566],[138.4136313,36.1593492],[138.417499,36.1592993],[138.4227188,36.1592721],[138.4270134,36.1592144],[138.4315434,36.1579915],[138.4346763,36.1571214],[138.4416557,36.1550958],[138.4448504,36.1539915],[138.4521024,36.1531392],[138.4552607,36.153938],[138.4611011,36.1554101],[138.4648803,36.1553103],[138.4698398,36.1551712],[138.4736993,36.1550358],[138.4804939,36.1513392],[138.484388,36.150262],[138.4884158,36.1492101],[138.4930405,36.1479751],[138.4987055,36.1464557],[138.5054521,36.1447189],[138.5102299,36.144337],[138.517512,36.1438153],[138.520339,36.1425085],[138.5248666,36.1404146],[138.52861,36.1397976],[138.5328674,36.1391199],[138.5369357,36.138442],[138.5407221,36.1377865],[138.5462494,36.1364175],[138.5519688,36.1349904],[138.5550168,36.1341965],[138.5600131,36.13134],[138.565204,36.1282487],[138.5691426,36.125954],[138.5711494,36.1256322],[138.5749444,36.1250827],[138.5802102,36.1242856],[138.5840981,36.1245488],[138.5876285,36.1248005],[138.5923868,36.1230536],[138.5976662,36.1220822],[138.6003902,36.1217317],[138.6037961,36.1213085],[138.6060451,36.1210223],[138.6114941,36.1203453],[138.6165568,36.1190097],[138.6217625,36.1176142],[138.6263553,36.117998],[138.6307,36.1182673],[138.6349474,36.1173187],[138.637819,36.117729],[138.6401255,36.1180051],[138.6426044,36.1183499],[138.6475968,36.1179198],[138.6513832,36.1175716],[138.6581104,36.1169535],[138.6613167,36.1170452],[138.665637,36.1171695],[138.670446,36.1155685],[138.6735562,36.1125609],[138.6766704,36.1123731],[138.6808643,36.1119937],[138.6842636,36.1110991],[138.6874074,36.1111685],[138.6926066,36.1093859],[138.6983477,36.1089064],[138.7008745,36.1073002],[138.7034014,36.1055532],[138.7059665,36.1023566],[138.7079654,36.0999068],[138.7106859,36.0978611],[138.7140993,36.0959916],[138.7222873,36.0943964],[138.7282067,36.0932977],[138.7363985,36.0917321],[138.7432976,36.0909678],[138.7491113,36.0903317],[138.7574972,36.0894279],[138.7637079,36.0887581],[138.7715708,36.0879106],[138.7746808,36.0878976],[138.7790173,36.087871],[138.7849993,36.0878288],[138.7931854,36.0867965],[138.7993316,36.0860064],[138.8059755,36.0824114],[138.8115974,36.0821881],[138.8174982,36.080765],[138.8221271,36.0799223],[138.8274586,36.0776564],[138.829485,36.0759671],[138.8336084,36.0742488]]},"properties":{"name":"東京電力パワーグリッド 500.0kV線","operator":"東京電力パワーグリッド","voltage":"500000","frequency":"50","note":"other synchronous system (region grid is 60 Hz); present geographically, not part of this AC solve"}},{"type":"Feature","geometry":{"type":"LineString","coordinates":[[137.7516343,36.150195],[137.7486733,36.1465516],[137.7472739,36.1448364],[137.7446943,36.1416351],[137.7421542,36.1385839],[137.7371868,36.1363684],[137.7335514,36.1347217],[137.7291106,36.1327529],[137.7277751,36.1330286],[137.7264353,36.1329487],[137.7218123,36.1350529],[137.7201483,36.1328583],[137.7190572,36.1326974],[137.7184792,36.132639]]},"properties":{"name":"竜島変電所~松本市変電所_4線","operator":"東京電力","voltage":"275000","frequency":"50","note":"other synchronous system (region grid is 60 Hz); present geographically, not part of this AC solve"}},{"type":"Feature","geometry":{"type":"LineString","coordinates":[[137.8829943,36.1360411],[137.8833379,36.1355422],[137.8836877,36.1352037]]},"properties":{"name":"東京電力パワーグリッド 500.0kV線","operator":"東京電力","voltage":"500000","frequency":"50","note":"other synchronous system (region grid is 60 Hz); present geographically, not part of this AC solve"}},{"type":"Feature","geometry":{"type":"LineString","coordinates":[[137.8862052,36.1340638],[137.8854492,36.1358765]]},"properties":{"name":"東京電力パワーグリッド 500.0kV線","operator":"東京電力","voltage":"500000","frequency":"50","note":"other synchronous system (region grid is 60 Hz); present geographically, not part of this AC solve"}},{"type":"Feature","geometry":{"type":"LineString","coordinates":[[137.8862052,36.1340638],[137.8851483,36.1356791]]},"properties":{"name":"東京電力パワーグリッド 500.0kV線","operator":"東京電力","voltage":"500000","frequency":"50","note":"other synchronous system (region grid is 60 Hz); present geographically, not part of this AC solve"}},{"type":"Feature","geometry":{"type":"LineString","coordinates":[[137.8836883,36.1364678],[137.8842477,36.1361229],[137.8845944,36.1357614]]},"properties":{"name":"東京電力パワーグリッド 500.0kV線","operator":"東京電力","voltage":"500000","frequency":"50","note":"other synchronous system (region grid is 60 Hz); present geographically, not part of this AC solve"}},{"type":"Feature","geometry":{"type":"LineString","coordinates":[[137.8833414,36.136244],[137.8839365,36.1359362],[137.8842908,36.1355816]]},"properties":{"name":"東京電力パワーグリッド 500.0kV線","operator":"東京電力","voltage":"500000","frequency":"50","note":"other synchronous system (region grid is 60 Hz); present geographically, not part of this AC solve"}},{"type":"Feature","geometry":{"type":"LineString","coordinates":[[137.7478212,36.1546855],[137.7493688,36.1557261],[137.7506878,36.1513792],[137.7516343,36.150195],[137.7538861,36.1507857],[137.7597424,36.1523064],[137.7619384,36.1535573],[137.766609,36.1561855],[137.7685373,36.1572773],[137.7713097,36.1584434],[137.773794,36.1594963],[137.7757903,36.16032],[137.7789988,36.1620706],[137.7828157,36.164049],[137.788184,36.1650677],[137.794062,36.1631184],[137.8008921,36.1642406],[137.8069579,36.1644051],[137.8123655,36.1638671],[137.8171329,36.1633893],[137.8198275,36.1621672],[137.8229709,36.1608044],[137.8262272,36.159405],[137.8316084,36.1571429],[137.83437,36.1565649],[137.8388884,36.15562],[137.8446375,36.1544653],[137.8500089,36.1533661],[137.854155,36.1525153],[137.8589562,36.1499559],[137.8641156,36.1480945],[137.8726607,36.1446876],[137.8767757,36.1430107],[137.8789974,36.1409147],[137.8813747,36.1379111],[137.8817498,36.1374314],[137.8824081,36.1367157],[137.8829943,36.1360411]]},"properties":{"name":"竜島変電所~新信濃変電所線","operator":"東京電力","voltage":"275000","frequency":"50","note":"other synchronous system (region grid is 60 Hz); present geographically, not part of this AC solve"}},{"type":"Feature","geometry":{"type":"LineString","coordinates":[[137.8817833,36.1380407],[137.8822763,36.1377532],[137.882935,36.1370431],[137.8836883,36.1364678]]},"properties":{"name":"東京電力パワーグリッド 275.0kV線","operator":"東京電力","voltage":"275000","frequency":"50","note":"other synchronous system (region grid is 60 Hz); present geographically, not part of this AC solve"}},{"type":"Feature","geometry":{"type":"LineString","coordinates":[[137.8817833,36.1380407],[137.8821018,36.137646],[137.8827574,36.1369448],[137.8833414,36.136244]]},"properties":{"name":"東京電力パワーグリッド 275.0kV線","operator":"東京電力","voltage":"275000","frequency":"50","note":"other synchronous system (region grid is 60 Hz); present geographically, not part of this AC solve"}},{"type":"Feature","geometry":{"type":"LineString","coordinates":[[137.8836877,36.1352037],[137.8839606,36.1353754],[137.8842908,36.1355816],[137.8845944,36.1357614],[137.8848906,36.135948],[137.8851892,36.136136]]},"properties":{"name":"東京電力パワーグリッド 500.0kV線","operator":"東京電力","voltage":"500000","frequency":"50","note":"other synchronous system (region grid is 60 Hz); present geographically, not part of this AC solve"}},{"type":"Feature","geometry":{"type":"LineString","coordinates":[[137.8817833,36.1380407],[137.8793923,36.1409514],[137.8768703,36.1432946],[137.8726247,36.1449744],[137.870377,36.1458936],[137.8642516,36.1483222],[137.8602085,36.1504126],[137.8570601,36.1519834],[137.8531123,36.1540092],[137.8497507,36.1565789],[137.847851,36.1594068],[137.8460463,36.16242],[137.8409782,36.1669981],[137.8353597,36.1721874],[137.8346669,36.1760411],[137.8312782,36.1818453],[137.8309287,36.1842122],[137.8305168,36.1862611],[137.8300731,36.1891508],[137.8262342,36.1928641],[137.8227385,36.1953678],[137.8227913,36.1998769],[137.8220252,36.2025424],[137.819373,36.208076],[137.8189983,36.2142981],[137.8195754,36.220908],[137.8219049,36.2281348],[137.8232218,36.2323688],[137.8237856,36.2342528],[137.8231997,36.2403412],[137.8229341,36.2432897],[137.8219816,36.2450175],[137.8184185,36.2503997],[137.8180485,36.2548849],[137.8176086,36.261015],[137.8173877,36.2728041],[137.814178,36.2768381],[137.8118277,36.2822873],[137.8116386,36.2882775],[137.8108039,36.2901115],[137.808741,36.2940004],[137.8026535,36.302169],[137.8012294,36.303942],[137.7988271,36.3112264],[137.7988001,36.3113082],[137.7973067,36.3156831],[137.7996583,36.3192953],[137.8018288,36.3225955],[137.8027245,36.3284457],[137.803313,36.3310321],[137.8037597,36.334438],[137.8018142,36.3382555],[137.7994417,36.344089],[137.8020275,36.3502506],[137.8046141,36.3553467],[137.8060842,36.3586751],[137.8030333,36.3638941],[137.8015774,36.366682],[137.8011719,36.3704504],[137.7993534,36.3760146],[137.8016709,36.3796067],[137.804472,36.3841522],[137.8074453,36.388821],[137.8093855,36.390556],[137.8128421,36.3942618],[137.8099824,36.3994919],[137.8070868,36.4028018],[137.8039568,36.4075055],[137.8033062,36.4106238],[137.8028364,36.4129071],[137.8021786,36.4172322],[137.8015894,36.4199079],[137.8009152,36.4228639],[137.8008731,36.4250051],[137.7996844,36.4285621],[137.8004434,36.4327241],[137.8021052,36.4359903],[137.8037163,36.4406065],[137.8044432,36.4442601],[137.8058307,36.4472533],[137.8038472,36.4505306],[137.8030653,36.4541692],[137.8022433,36.4579665],[137.8006784,36.4599976],[137.7966996,36.4631356],[137.7947192,36.4655911],[137.7930243,36.4677272],[137.7904257,36.4710444],[137.7903685,36.4752717],[137.790349,36.4775583],[137.7865956,36.4803755],[137.7806689,36.4817099],[137.7765777,36.4837422],[137.774028,36.4856472],[137.7720015,36.4880392],[137.7665864,36.487536],[137.7611217,36.4869695],[137.7581558,36.4867248],[137.7531768,36.486822],[137.7492313,36.4868946],[137.7451068,36.4869965],[137.7415005,36.4870909],[137.734956,36.4872101],[137.7321883,36.4883204],[137.7282576,36.487609],[137.7222935,36.4853903],[137.7199802,36.4858539],[137.718423,36.4843114]]},"properties":{"name":"新信濃変電所~大町市変電所線","operator":"東京電力パワーグリッド","voltage":"275000","frequency":"50","note":"other synchronous system (region grid is 60 Hz); present geographically, not part of this AC solve"}},{"type":"Feature","geometry":{"type":"LineString","coordinates":[[137.8817833,36.1380407],[137.8793923,36.1409514],[137.8768703,36.1432946],[137.8726247,36.1449744],[137.870377,36.1458936],[137.8642516,36.1483222],[137.8602085,36.1504126],[137.8570601,36.1519834],[137.8531123,36.1540092],[137.8497507,36.1565789],[137.847851,36.1594068],[137.8460463,36.16242],[137.8409782,36.1669981],[137.8353597,36.1721874],[137.8346669,36.1760411],[137.8312782,36.1818453],[137.8309287,36.1842122],[137.8305168,36.1862611],[137.8300731,36.1891508],[137.8262342,36.1928641],[137.8227385,36.1953678],[137.8227913,36.1998769],[137.8220252,36.2025424],[137.819373,36.208076],[137.8189983,36.2142981],[137.8195754,36.220908],[137.8219049,36.2281348],[137.8232218,36.2323688],[137.8237856,36.2342528],[137.8231997,36.2403412],[137.8229341,36.2432897],[137.8219816,36.2450175],[137.8184185,36.2503997],[137.8180485,36.2548849],[137.8176086,36.261015],[137.8173877,36.2728041],[137.814178,36.2768381],[137.8118277,36.2822873],[137.8116386,36.2882775],[137.8108039,36.2901115],[137.808741,36.2940004],[137.8026535,36.302169],[137.8012294,36.303942],[137.7988271,36.3112264],[137.7988001,36.3113082],[137.7973067,36.3156831],[137.7996583,36.3192953],[137.8018288,36.3225955],[137.8027245,36.3284457],[137.803313,36.3310321],[137.8037597,36.334438],[137.8018142,36.3382555],[137.7994417,36.344089],[137.8020275,36.3502506],[137.8046141,36.3553467],[137.8060842,36.3586751],[137.8030333,36.3638941],[137.8015774,36.366682],[137.8011719,36.3704504],[137.7993534,36.3760146],[137.8016709,36.3796067],[137.804472,36.3841522],[137.8074453,36.388821],[137.8093855,36.390556],[137.8128421,36.3942618],[137.8099824,36.3994919],[137.8070868,36.4028018],[137.8039568,36.4075055],[137.8033062,36.4106238],[137.8028364,36.4129071],[137.8021786,36.4172322],[137.8015894,36.4199079],[137.8009152,36.4228639],[137.8008731,36.4250051],[137.7996844,36.4285621],[137.8004434,36.4327241],[137.8021052,36.4359903],[137.8037163,36.4406065],[137.8044432,36.4442601],[137.8058307,36.4472533],[137.8038472,36.4505306],[137.8030653,36.4541692],[137.8022433,36.4579665],[137.8006784,36.4599976],[137.7966996,36.4631356],[137.7947192,36.4655911],[137.7930243,36.4677272],[137.7904257,36.4710444],[137.7903685,36.4752717],[137.790349,36.4775583],[137.7865956,36.4803755],[137.7806689,36.4817099],[137.7765777,36.4837422],[137.774028,36.4856472],[137.7720015,36.4880392],[137.7665864,36.487536],[137.7611217,36.4869695],[137.7581558,36.4867248],[137.7531768,36.486822],[137.7492313,36.4868946],[137.7451068,36.4869965],[137.7415005,36.4870909],[137.734956,36.4872101],[137.7321883,36.4883204],[137.7282576,36.487609],[137.7222935,36.4853903],[137.7199802,36.4858539],[137.718423,36.4843114]]},"properties":{"name":"新信濃変電所~大町市変電所線","operator":"東京電力パワーグリッド","voltage":"275000","frequency":"50","note":"other synchronous system (region grid is 60 Hz); present geographically, not part of this AC solve"}},{"type":"Feature","geometry":{"type":"LineString","coordinates":[[137.8368641,36.4820844],[137.8399663,36.4825562],[137.8424257,36.4829952],[137.8445287,36.4833699],[137.8467687,36.4837652],[137.8491315,36.4841746],[137.8504186,36.4852306],[137.8519268,36.4864459],[137.8547826,36.4886759],[137.8548583,36.4891754]]},"properties":{"name":"大町市変電所_5~大町市変電所_2線","operator":"東京電力パワーグリッド","voltage":"154000","frequency":"50","note":"other synchronous system (region grid is 60 Hz); present geographically, not part of this AC solve"}},{"type":"Feature","geometry":{"type":"LineString","coordinates":[[137.8772202,36.2992708],[137.8774718,36.2967452],[137.8776416,36.2949563],[137.8779086,36.2921856],[137.87811,36.2899355],[137.8783072,36.287816],[137.8784979,36.2857808],[137.8780506,36.2837724],[137.8776277,36.2818696],[137.876989,36.2793636],[137.8765916,36.2771975],[137.8760888,36.2749588],[137.8755537,36.2725533],[137.8750588,36.2703436],[137.8745343,36.2679462],[137.8740544,36.2656308],[137.8735024,36.2633045],[137.8730054,36.2609507],[137.8724515,36.2585462],[137.8719451,36.2561968],[137.8715297,36.2542986],[137.8710023,36.2520255],[137.8704636,36.2496545],[137.8699515,36.2473048],[137.8694469,36.2450515],[137.8689234,36.242769],[137.8684112,36.2405063],[137.8679462,36.2383678],[137.8684829,36.2360744],[137.8690788,36.2336912],[137.8695871,36.2314588],[137.8701511,36.2292078],[137.8706823,36.2269647],[137.8711545,36.2250046],[137.8723546,36.2231556],[137.8735745,36.2213091],[137.8747549,36.2195314],[137.8772006,36.2158087],[137.8780373,36.2145501],[137.8797778,36.2129817],[137.88167,36.211294],[137.8835438,36.2095973],[137.8854353,36.2078965],[137.887381,36.2061568],[137.8892983,36.2044349],[137.8912377,36.2027001],[137.8931842,36.2009478],[137.8951677,36.1991638],[137.8967272,36.1978892],[137.898445,36.1975529],[137.9006353,36.1971356],[137.9028207,36.196699],[137.9049023,36.1962774],[137.9089079,36.1956079],[137.9110129,36.1953415],[137.9130704,36.1950674],[137.9151568,36.1948109],[137.9172632,36.1945268],[137.9200509,36.1941735],[137.9221205,36.1939129],[137.924702,36.1935787],[137.9266061,36.1933282],[137.9287356,36.1933977],[137.9311569,36.1934685],[137.9341586,36.1935932],[137.9371597,36.1920848],[137.9376162,36.1891678],[137.9384314,36.1866139],[137.9391397,36.1846834],[137.9398224,36.182833],[137.940501,36.1809927],[137.9412219,36.1790363],[137.9419009,36.1771743],[137.9426664,36.1754124],[137.9419721,36.1733645],[137.9414466,36.1715357],[137.9408491,36.1695242],[137.9403085,36.1676214],[137.939771,36.1657408],[137.9392753,36.1640185],[137.9387788,36.1622721],[137.9382049,36.1603331],[137.9376299,36.1583889],[137.9372047,36.1568773],[137.9385346,36.1546886],[137.9368064,36.152258],[137.9368116,36.1491535],[137.9358169,36.147166],[137.934638,36.145137],[137.9339387,36.1438726],[137.9330184,36.142522],[137.9324429,36.1414596],[137.9318691,36.1396191],[137.931358,36.1373141],[137.9305906,36.1341227],[137.9297176,36.1315501]]},"properties":{"name":"安曇野市変電所_2~新信濃変電所線","operator":"東京電力","voltage":"154000","frequency":"50","note":"other synchronous system (region grid is 60 Hz); present geographically, not part of this AC solve"}},{"type":"Feature","geometry":{"type":"LineString","coordinates":[[137.7831131,36.5149757],[137.7838429,36.5156428],[137.7854881,36.5165894],[137.7874511,36.5160669],[137.7924032,36.5158699],[137.7960778,36.5157764],[137.7989133,36.5157146],[137.8017508,36.5156562],[137.8045987,36.5155877],[137.8074736,36.5155093],[137.8097428,36.5148824],[137.811964,36.5133861],[137.8135321,36.5123021],[137.8161127,36.5105499],[137.8186523,36.5088936],[137.8215122,36.506949],[137.8235023,36.5053979],[137.8258826,36.5038431],[137.8286103,36.50244],[137.8300962,36.5005],[137.8324577,36.497032],[137.8337693,36.4951961],[137.8344309,36.4928423],[137.8353097,36.4894088],[137.8357485,36.4868578],[137.8364399,36.4844917],[137.8368641,36.4820844]]},"properties":{"name":"大町市変電所~大町市変電所_5線","operator":"東京電力パワーグリッド","voltage":"154000","frequency":"50","note":"other synchronous system (region grid is 60 Hz); present geographically, not part of this AC solve"}},{"type":"Feature","geometry":{"type":"LineString","coordinates":[[137.8730339,37.0419867],[137.8749743,37.04242],[137.8772573,37.0431242],[137.8797711,37.043898],[137.882392,37.0447157],[137.8847713,37.0458349],[137.8870879,37.0469272],[137.8901568,37.0483588],[137.8921523,37.0492924],[137.893529,37.0497327],[137.8947911,37.0501364],[137.8976172,37.0509902],[137.9027348,37.0515246],[137.9060782,37.05129],[137.9079549,37.0515001],[137.9135864,37.0530477],[137.9158733,37.0545621],[137.9181508,37.0558593],[137.9198407,37.054441],[137.9212809,37.0527581],[137.9224725,37.0511295],[137.9239173,37.0494222],[137.9250268,37.0480743],[137.9265162,37.0468818],[137.9353237,37.0500578],[137.9420614,37.0525078],[137.9448563,37.0537665],[137.946935,37.0562666],[137.9482225,37.0577115],[137.949003,37.0592098],[137.9500142,37.0614465],[137.9509234,37.0628014],[137.9537242,37.0666426]]},"properties":{"name":"北陸電力送配電 66.0kV線","operator":"北陸電力送配電","voltage":"66000","frequency":"50","note":"other synchronous system (region grid is 60 Hz); present geographically, not part of this AC solve"}},{"type":"Feature","geometry":{"type":"LineString","coordinates":[[137.8559932,37.0226843],[137.8510522,37.021027],[137.8491637,37.0206097],[137.8477846,37.0212952],[137.846203,37.0222631],[137.8444068,37.0234478],[137.8429971,37.0242668],[137.8414449,37.0251701],[137.8398233,37.0261628],[137.8375925,37.0262682],[137.8350449,37.0259663],[137.8320562,37.0255823],[137.830736,37.0254181],[137.8284538,37.0250791],[137.8268947,37.0248831],[137.8256409,37.0247533],[137.8226953,37.0243826],[137.8195487,37.0229519],[137.8181219,37.0222996]]},"properties":{"name":"大字須沢変電所~糸魚川市変電所線","operator":"北陸電力送配電","voltage":"66000","frequency":"50","note":"other synchronous system (region grid is 60 Hz); present geographically, not part of this AC solve"}},{"type":"Feature","geometry":{"type":"LineString","coordinates":[[137.8740478,37.0285162],[137.8760705,37.0294655],[137.8783884,37.0295713],[137.8820597,37.0306745],[137.8846505,37.0323077],[137.8890545,37.0347618],[137.8930891,37.0359598],[137.8975047,37.0370346],[137.9017818,37.0381182],[137.9042799,37.0387349],[137.9075196,37.0398231],[137.9125874,37.0415737],[137.9166634,37.0431595],[137.9192387,37.0440989],[137.9228354,37.0454393],[137.9257081,37.0464762],[137.9267928,37.0465608],[137.9331667,37.048762],[137.9361981,37.0500179],[137.9400329,37.051345],[137.9425883,37.0521945],[137.9453916,37.0530124],[137.946197,37.0543431],[137.9477421,37.056481],[137.9495046,37.0591837],[137.9510111,37.0621072],[137.9534343,37.06589],[137.9588449,37.0665154],[137.9610719,37.0669395],[137.9632747,37.0672448],[137.9684293,37.0690956],[137.9714215,37.0704195],[137.975778,37.0716037],[137.979915,37.0737115],[137.9831819,37.0749867],[137.9846572,37.0756103]]},"properties":{"name":"北陸電力送配電 66.0kV線","operator":"北陸電力送配電","voltage":"66000","frequency":"50","note":"other synchronous system (region grid is 60 Hz); present geographically, not part of this AC solve"}},{"type":"Feature","geometry":{"type":"LineString","coordinates":[[137.8423239,37.0242818],[137.8431612,37.0237667],[137.8447571,37.0229238],[137.846599,37.0209723],[137.8483055,37.0190935]]},"properties":{"name":"北陸送電線_7","operator":"北陸電力送配電","voltage":null,"frequency":"50","note":"other synchronous system (region grid is 60 Hz); present geographically, not part of this AC solve"}},{"type":"Feature","geometry":{"type":"LineString","coordinates":[[137.8151017,37.0242591],[137.814635,37.021109],[137.8145573,37.0176408],[137.8146739,37.0157047],[137.8164965,37.0143865],[137.8195636,37.0122351],[137.8220594,37.0120027],[137.8249213,37.0117265],[137.8269263,37.0112424],[137.830098,37.0100173],[137.8326702,37.0089132],[137.8364548,37.0072789],[137.8382599,37.0073989],[137.8408174,37.0073218],[137.8446986,37.0081978],[137.8491208,37.009809],[137.8570582,37.013246],[137.862027,37.0155077],[137.863474,37.0161844],[137.8649439,37.0177735],[137.8665291,37.0194868],[137.8677891,37.0208965],[137.8709628,37.0243116],[137.8726888,37.0261992],[137.8740478,37.0285162],[137.8746931,37.0305661],[137.8753595,37.0326143],[137.874604,37.0362586],[137.8741941,37.0378894],[137.8738055,37.0400409],[137.8731047,37.0418353]]},"properties":{"name":"糸魚川市変電所~糸魚川変電所線","operator":"北陸電力送配電","voltage":"66000","frequency":"50","note":"other synchronous system (region grid is 60 Hz); present geographically, not part of this AC solve"}},{"type":"Feature","geometry":{"type":"LineString","coordinates":[[138.8148442,36.0693598],[138.808195,36.0678562],[138.799113,36.0684221],[138.7937104,36.0682974],[138.7881951,36.0681088],[138.7854351,36.0686497],[138.7805615,36.0702346],[138.7729575,36.0727202],[138.7689127,36.0739862],[138.7632358,36.0756176],[138.7566724,36.0774906],[138.7490843,36.0786712],[138.7431894,36.0783902],[138.7401606,36.0780094],[138.7349819,36.0772709],[138.7292282,36.0765224],[138.7248717,36.0753634],[138.7216368,36.0745474],[138.718936,36.0738464],[138.7150679,36.0726701],[138.7114305,36.0716397],[138.7089538,36.0699456],[138.7020724,36.065717],[138.6967498,36.0628463],[138.693465,36.0609596],[138.688541,36.061212],[138.6851034,36.0622805],[138.6818118,36.0650167],[138.6795074,36.0676809],[138.6746214,36.0685317],[138.6700695,36.0709516],[138.6680165,36.072043],[138.6610771,36.0736984],[138.6545661,36.0737288],[138.6485173,36.074323],[138.6462791,36.074177],[138.6403552,36.0738306],[138.6377756,36.0736574],[138.6338327,36.0734294],[138.6303433,36.0732312],[138.6235035,36.07503],[138.6173484,36.0766675],[138.6128663,36.077503],[138.6083147,36.0776574],[138.6029467,36.0791808],[138.5987947,36.0803461],[138.5922366,36.080304],[138.5848186,36.0802057],[138.5795374,36.0801285],[138.5773311,36.0801426],[138.5738827,36.0802619],[138.5676199,36.0813009],[138.5608013,36.083456],[138.5564582,36.0842773],[138.5525494,36.0842282],[138.5500651,36.0844879],[138.5464603,36.0849091],[138.5428201,36.0878333],[138.5393226,36.0892272],[138.5363962,36.0903519],[138.5316854,36.0916497],[138.5266634,36.0904677],[138.5238064,36.0916221],[138.5183459,36.0933908],[138.5156041,36.0942565],[138.5110306,36.0958483],[138.5054124,36.0979167],[138.5010861,36.099406],[138.4963666,36.1013814],[138.4936633,36.1020401],[138.489821,36.102795],[138.4828865,36.1050927],[138.4780849,36.1065855],[138.472943,36.1078981],[138.4679131,36.1095683],[138.4651425,36.1104587],[138.4612684,36.1124202],[138.4562755,36.114887],[138.4517779,36.1169723],[138.4463205,36.1194979],[138.4441393,36.120498],[138.4398709,36.1224425],[138.4348323,36.1272584],[138.4321405,36.1298441],[138.4295419,36.1359368],[138.4271694,36.1367388],[138.425192,36.1374023],[138.4176934,36.1399165],[138.4130013,36.1413841],[138.4104703,36.1431033],[138.4065221,36.1472439],[138.4047934,36.1498526],[138.4031486,36.1523698],[138.401143,36.1553829],[138.3982582,36.1568826],[138.3947714,36.1586519],[138.389356,36.1613999],[138.3849035,36.1620323],[138.3807729,36.1625975],[138.3786258,36.162879],[138.3738206,36.1635383],[138.3711329,36.1639175],[138.3675215,36.1637408],[138.3632822,36.1635258],[138.3581176,36.1632991],[138.3547354,36.1618764],[138.3522064,36.1608144],[138.3450741,36.1578073],[138.3396694,36.157764],[138.3360404,36.1577142],[138.3287019,36.1576427],[138.3235064,36.1583638],[138.3207062,36.1587666],[138.3132631,36.1597975],[138.3094516,36.160001],[138.3060265,36.1601743],[138.3024994,36.1603237],[138.2995597,36.1604666],[138.2932779,36.1585891],[138.288325,36.1566771],[138.2826671,36.1544993],[138.2800439,36.1534825],[138.2768802,36.1522837],[138.2705033,36.1498212],[138.2655922,36.1477355],[138.2629582,36.1466157],[138.2581919,36.1445603],[138.253085,36.143421],[138.2480398,36.1422654],[138.2452422,36.1416416],[138.2387996,36.1401773],[138.2352088,36.1393721],[138.2298692,36.1381704],[138.225237,36.1371285],[138.2187635,36.1375465],[138.2136136,36.137892],[138.2082298,36.1382852],[138.2034937,36.1407492],[138.1990063,36.1436386],[138.1946504,36.1432964],[138.1903616,36.142939],[138.1826274,36.1422654],[138.1780234,36.14188],[138.1711974,36.1412782],[138.1675648,36.1409684],[138.163024,36.1405723],[138.1567581,36.140039],[138.1539697,36.1395194],[138.1508821,36.1389795],[138.1478433,36.1385202],[138.1453986,36.1356063],[138.1429632,36.133828],[138.137727,36.1293063],[138.1347292,36.126454],[138.1303196,36.12231],[138.1265568,36.1206719],[138.1238552,36.1195084],[138.1194317,36.1176207],[138.1159924,36.1162657],[138.1116831,36.1145839],[138.1082604,36.1144477],[138.1043355,36.1142863],[138.1007782,36.1146886],[138.0947994,36.1150321],[138.0913339,36.114542],[138.0861167,36.1131153],[138.0813402,36.1099324],[138.07578,36.1077612],[138.0725361,36.1072025],[138.0691796,36.1066232],[138.06274,36.1057456],[138.0570879,36.1049597],[138.04978,36.1036546],[138.0447283,36.1049481],[138.0414308,36.1054794],[138.0354016,36.1059358],[138.0330278,36.1051856],[138.0281347,36.1036476],[138.0226381,36.1019214],[138.0184211,36.1011916],[138.0148854,36.1005899],[138.011066,36.0998721],[138.0095378,36.0982095],[138.007873,36.0963041],[138.0059128,36.0939833],[138.0037832,36.0914383],[138.002086,36.0894389],[137.9990724,36.0889773],[137.9962885,36.0874214],[137.9930609,36.0855664],[137.9894009,36.083564],[137.986792,36.0820995],[137.9834037,36.080236],[137.9783014,36.0790177],[137.9725877,36.0781745],[137.9673493,36.0789116],[137.9635718,36.079381],[137.9560955,36.0762887],[137.9487943,36.0739989],[137.9418803,36.0726805],[137.9382902,36.0712329],[137.9291599,36.0678198],[137.9223835,36.0641706],[137.9173091,36.0609116],[137.9117853,36.0572568],[137.9082058,36.0549846],[137.9019094,36.0554571],[137.8980947,36.0583627],[137.8945286,36.0611304],[137.894251,36.0644707],[137.8904049,36.0673013],[137.8835904,36.0696685],[137.8807616,36.0706705],[137.8790433,36.072643],[137.8745896,36.0779435],[137.8725615,36.0834011],[137.8705024,36.0865876],[137.870216,36.0893541],[137.8711767,36.0932521],[137.8721475,36.0971036],[137.873063,36.1010322],[137.8737047,36.1049278],[137.8742331,36.1091739],[137.8729932,36.1131302],[137.8734431,36.1176358],[137.875917,36.1199745],[137.8771946,36.1228407],[137.8789141,36.1274494],[137.8811445,36.1291023],[137.8832558,36.1309468],[137.8844212,36.1346038],[137.8841893,36.1351245],[137.8839606,36.1353754]]},"properties":{"name":"東京電力パワーグリッド 500.0kV線","operator":"東京電力パワーグリッド","voltage":"500000","frequency":"50","note":"other synchronous system (region grid is 60 Hz); present geographically, not part of this AC solve"}},{"type":"Feature","geometry":{"type":"LineString","coordinates":[[137.8740478,37.0285162],[137.8720754,37.0275569],[137.8687251,37.0265347],[137.8652804,37.0254447],[137.8616687,37.0243593],[137.8594826,37.0236728]]},"properties":{"name":"糸魚川変電所~大字須沢変電所線","operator":"北陸電力送配電","voltage":"66000","frequency":"50","note":"other synchronous system (region grid is 60 Hz); present geographically, not part of this AC solve"}},{"type":"Feature","geometry":{"type":"LineString","coordinates":[[137.796502,37.0133585],[137.7983862,37.0146863],[137.8000968,37.014016],[137.8058615,37.0149219],[137.8102711,37.0155923],[137.8134173,37.0143736],[137.816577,37.0141638],[137.8194603,37.0147613],[137.8225181,37.0152282],[137.8254591,37.0156736],[137.8312627,37.0165833],[137.8370262,37.0175669],[137.8396762,37.0174448],[137.8423294,37.0172568],[137.8443513,37.0182072],[137.8483055,37.0190935]]},"properties":{"name":"大字青海変電所~大字須沢変電所線","operator":"北陸電力送配電","voltage":null,"frequency":"50","note":"other synchronous system (region grid is 60 Hz); present geographically, not part of this AC solve"}},{"type":"Feature","geometry":{"type":"LineString","coordinates":[[137.7920401,36.1803025],[137.7944729,36.1797266],[137.7970692,36.1790944],[137.7989978,36.1793824],[137.8014252,36.1797807],[137.8038901,36.1801748],[137.8056845,36.1810884],[137.8074333,36.1820193],[137.8093618,36.1830195],[137.8119501,36.1843769],[137.8135595,36.1852472],[137.8163597,36.1853554],[137.8189373,36.185442],[137.8199726,36.1854875],[137.8228265,36.1863198],[137.826603,36.1874098],[137.8290492,36.188135],[137.8308007,36.1880484],[137.8329974,36.1879705],[137.8355388,36.1878557],[137.8368209,36.1876241],[137.8390807,36.1871922],[137.8415456,36.1867279],[137.8437504,36.1863306],[137.8466995,36.1857603],[137.8487192,36.1853619],[137.8507952,36.1849408],[137.8531865,36.1844505],[137.8557433,36.1839472],[137.8578032,36.1832625],[137.8599107,36.1825616],[137.8621383,36.1818439],[137.8643511,36.1811208],[137.8661334,36.1793694],[137.867724,36.1777998],[137.8693441,36.1762063],[137.8710124,36.1745684],[137.8725493,36.1730495],[137.8741479,36.17147],[137.8757894,36.1698439],[137.8773182,36.168339],[137.8786268,36.1670557],[137.8787667,36.1669185],[137.8791159,36.1667026],[137.8808615,36.1655771],[137.8828678,36.1642562],[137.8848017,36.1629938],[137.8867315,36.1617464],[137.8887351,36.1604666],[137.8906354,36.1592365],[137.8925814,36.1579675],[137.8944657,36.1567071],[137.8964498,36.1554581],[137.8982368,36.1542924],[137.8999119,36.1532209],[137.9019463,36.151895],[137.903781,36.1507027],[137.9056853,36.1494422],[137.9077184,36.1481416],[137.9097877,36.1467955],[137.9117779,36.1455079],[137.9136649,36.1440372],[137.9154646,36.1426325],[137.9172524,36.1412138],[137.919038,36.1398215],[137.9207003,36.1385192],[137.9225859,36.1370635],[137.9245158,36.1355494],[137.9259092,36.1344586],[137.927776,36.1329856],[137.9297176,36.1315501]]},"properties":{"name":"竜島変電所~新信濃変電所線","operator":"東京電力","voltage":"154000","frequency":"50","note":"other synchronous system (region grid is 60 Hz); present geographically, not part of this AC solve"}},{"type":"Feature","geometry":{"type":"LineString","coordinates":[[137.8368641,36.4820844],[137.8374001,36.4798562],[137.8379092,36.4776816],[137.838443,36.4754352],[137.8389798,36.4731496],[137.8395089,36.4708638],[137.8400608,36.468576],[137.8405774,36.4663388],[137.8410788,36.464219],[137.8416383,36.4618175],[137.8421221,36.4596875],[137.841923,36.4575128],[137.8417315,36.4551962],[137.8415148,36.4528775],[137.8413308,36.4508324],[137.8416357,36.4486169],[137.8419819,36.4462195],[137.8423111,36.4439264],[137.8426513,36.4416174],[137.8429557,36.4393856],[137.8432794,36.4370607],[137.8435876,36.4348969],[137.8438535,36.4329625],[137.8449137,36.430874],[137.8459845,36.4286534],[137.8470525,36.4264305],[137.8481887,36.4241746],[137.849224,36.4219954],[137.8503057,36.4197767],[137.8513437,36.4176281],[137.851499,36.4155802],[137.8516611,36.4137165],[137.8518546,36.4116728],[137.8520319,36.4093393],[137.8522014,36.4070833],[137.8524133,36.4046613],[137.852581,36.402537],[137.8527832,36.4002528],[137.8529894,36.397981],[137.8531435,36.3957852],[137.85334,36.3934202],[137.8535192,36.3910785],[137.8537619,36.3884094],[137.8539161,36.3864536],[137.8541068,36.3840667],[137.8543072,36.3818766],[137.8544728,36.3796586],[137.8552165,36.377653],[137.8560103,36.3755124],[137.8568368,36.3733252],[137.8576183,36.3711873],[137.8584044,36.3690856],[137.8588717,36.3669191],[137.8593403,36.3647646],[137.8598307,36.3625388],[137.8597762,36.3609437],[137.8610322,36.3580332],[137.8622237,36.3541656],[137.8629021,36.3519965],[137.8636023,36.3497605],[137.8643053,36.3474958],[137.8649183,36.3454878],[137.8663242,36.3408858],[137.8673031,36.3376886],[137.8679763,36.3355895],[137.868686,36.3332643],[137.8693356,36.3311025],[137.8700509,36.3289015],[137.8706896,36.3268028],[137.871487,36.3241783],[137.8716143,36.3237794],[137.8719178,36.3228285],[137.8722444,36.3218053],[137.8728475,36.3197871],[137.8736076,36.3174005],[137.8743089,36.3150815],[137.8750062,36.3127385],[137.8757324,36.3103534],[137.8763838,36.3082754],[137.8765805,36.3061243],[137.8768051,36.303751],[137.8770346,36.3013548],[137.8772202,36.2992708]]},"properties":{"name":"大町市変電所_5~安曇野市変電所_2線","operator":"東京電力パワーグリッド","voltage":"154000","frequency":"50","note":"other synchronous system (region grid is 60 Hz); present geographically, not part of this AC solve"}},{"type":"Feature","geometry":{"type":"LineString","coordinates":[[137.8368641,36.4820844],[137.8374001,36.4798562],[137.8379092,36.4776816],[137.838443,36.4754352],[137.8389798,36.4731496],[137.8395089,36.4708638],[137.8400608,36.468576],[137.8405774,36.4663388],[137.8410788,36.464219],[137.8416383,36.4618175],[137.8421221,36.4596875],[137.841923,36.4575128],[137.8417315,36.4551962],[137.8415148,36.4528775],[137.8413308,36.4508324],[137.8416357,36.4486169],[137.8419819,36.4462195],[137.8423111,36.4439264],[137.8426513,36.4416174],[137.8429557,36.4393856],[137.8432794,36.4370607],[137.8435876,36.4348969],[137.8438535,36.4329625],[137.8449137,36.430874],[137.8459845,36.4286534],[137.8470525,36.4264305],[137.8481887,36.4241746],[137.849224,36.4219954],[137.8503057,36.4197767],[137.8513437,36.4176281],[137.851499,36.4155802],[137.8516611,36.4137165],[137.8518546,36.4116728],[137.8520319,36.4093393],[137.8522014,36.4070833],[137.8524133,36.4046613],[137.852581,36.402537],[137.8527832,36.4002528],[137.8529894,36.397981],[137.8531435,36.3957852],[137.85334,36.3934202],[137.8535192,36.3910785],[137.8537619,36.3884094],[137.8539161,36.3864536],[137.8541068,36.3840667],[137.8543072,36.3818766],[137.8544728,36.3796586],[137.8552165,36.377653],[137.8560103,36.3755124],[137.8568368,36.3733252],[137.8576183,36.3711873],[137.8584044,36.3690856],[137.8588717,36.3669191],[137.8593403,36.3647646],[137.8598307,36.3625388],[137.8597762,36.3609437],[137.8610322,36.3580332],[137.8622237,36.3541656],[137.8629021,36.3519965],[137.8636023,36.3497605],[137.8643053,36.3474958],[137.8649183,36.3454878],[137.8663242,36.3408858],[137.8673031,36.3376886],[137.8679763,36.3355895],[137.868686,36.3332643],[137.8693356,36.3311025],[137.8700509,36.3289015],[137.8706896,36.3268028],[137.871487,36.3241783],[137.8716143,36.3237794],[137.8719178,36.3228285],[137.8722444,36.3218053],[137.8728475,36.3197871],[137.8736076,36.3174005],[137.8743089,36.3150815],[137.8750062,36.3127385],[137.8757324,36.3103534],[137.8763838,36.3082754],[137.8765805,36.3061243],[137.8768051,36.303751],[137.8770346,36.3013548],[137.8772202,36.2992708]]},"properties":{"name":"大町市変電所_5~安曇野市変電所_2線","operator":"東京電力パワーグリッド","voltage":"154000","frequency":"50","note":"other synchronous system (region grid is 60 Hz); present geographically, not part of this AC solve"}},{"type":"Feature","geometry":{"type":"LineString","coordinates":[[137.6464154,36.1711623],[137.6462509,36.1710023],[137.6465061,36.1706916],[137.6490784,36.1684808],[137.6516908,36.1640721],[137.6567093,36.1617486],[137.6668239,36.1586497],[137.6718557,36.15528],[137.6776707,36.1501732],[137.6789367,36.1492332],[137.6875547,36.1443188],[137.6937774,36.1410546],[137.7011508,36.1390401],[137.7066815,36.1369444],[137.7097473,36.1365642],[137.7105197,36.1365252],[137.7157956,36.1362977],[137.7172306,36.1363432],[137.7183491,36.1372985],[137.7211922,36.1402185],[137.7252129,36.1432141],[137.7263796,36.144022],[137.7302125,36.1469049],[137.7312291,36.1474225],[137.733179,36.1483994],[137.7353436,36.1494693],[137.7371782,36.1503768],[137.7386829,36.1511456],[137.7396271,36.1512756],[137.7430361,36.1500324],[137.7505919,36.1503183],[137.7514341,36.1505782],[137.7536657,36.1512604],[137.7592474,36.152954],[137.7615461,36.154169],[137.7658001,36.1564689],[137.7680853,36.1580368],[137.7701694,36.1594726],[137.7724358,36.1610102],[137.7748659,36.1626732],[137.7775991,36.1647694],[137.7810591,36.1673808],[137.7821669,36.1682058],[137.7841142,36.170724],[137.7863967,36.1737012],[137.7878773,36.1753597],[137.7912462,36.1791053],[137.7920401,36.1803025]]},"properties":{"name":"松本市変電所_3~竜島変電所線","operator":"北陸電力送配電","voltage":"154000","frequency":"50","note":"other synchronous system (region grid is 60 Hz); present geographically, not part of this AC solve"}},{"type":"Feature","geometry":{"type":"LineString","coordinates":[[137.8854492,36.1358765],[137.8851892,36.136136]]},"properties":{"name":"東京電力パワーグリッド 500.0kV線","operator":"東京電力","voltage":"500000","frequency":"50","note":"other synchronous system (region grid is 60 Hz); present geographically, not part of this AC solve"}},{"type":"Feature","geometry":{"type":"LineString","coordinates":[[137.8851483,36.1356791],[137.8848906,36.135948]]},"properties":{"name":"東京電力パワーグリッド 500.0kV線","operator":"東京電力","voltage":"500000","frequency":"50","note":"other synchronous system (region grid is 60 Hz); present geographically, not part of this AC solve"}},{"type":"Feature","geometry":{"type":"LineString","coordinates":[[137.7920401,36.1803025],[137.792834,36.1809671]]},"properties":{"name":"東京電力パワーグリッド 154.0kV線","operator":"東京電力","voltage":"154000","frequency":"50","note":"other synchronous system (region grid is 60 Hz); present geographically, not part of this AC solve"}},{"type":"Feature","geometry":{"type":"LineString","coordinates":[[137.7929869,36.1809195],[137.7920401,36.1803025]]},"properties":{"name":"東京電力パワーグリッド 154.0kV線","operator":"東京電力","voltage":"154000","frequency":"50","note":"other synchronous system (region grid is 60 Hz); present geographically, not part of this AC solve"}},{"type":"Feature","geometry":{"type":"LineString","coordinates":[[137.0610075,36.0722542],[137.0641982,36.073224],[137.0720249,36.0761739],[137.078648,36.078024],[137.084135,36.080049],[137.087393,36.081254],[137.0926434,36.0828091],[137.0961356,36.0838496],[137.1022189,36.0867932],[137.1071649,36.0882542],[137.11541,36.0896023]]},"properties":{"name":"飛騨信濃直流幹線","operator":null,"voltage":"200000","frequency":"0","note":"other synchronous system (region grid is 60 Hz); present geographically, not part of this AC solve"}},{"type":"Feature","geometry":{"type":"LineString","coordinates":[[137.0610075,36.0722542],[137.0641982,36.073224],[137.0720249,36.0761739],[137.078648,36.078024],[137.084135,36.080049],[137.087393,36.081254],[137.0926434,36.0828091],[137.0961356,36.0838496],[137.1022189,36.0867932],[137.1071649,36.0882542],[137.11541,36.0896023]]},"properties":{"name":"飛騨信濃直流幹線","operator":null,"voltage":"200000","frequency":"0","note":"other synchronous system (region grid is 60 Hz); present geographically, not part of this AC solve"}},{"type":"Feature","geometry":{"type":"LineString","coordinates":[[137.11541,36.0896023],[137.2013587,36.0638354],[137.2042957,36.065751],[137.2104983,36.0674128],[137.2141656,36.0676258],[137.217297,36.0678177],[137.2219929,36.0671424],[137.2249755,36.0667093],[137.2282505,36.0658834],[137.2314474,36.062929],[137.2337897,36.0607513],[137.2342831,36.0584812],[137.2356195,36.0560247],[137.2370857,36.0533536],[137.2397424,36.0500526],[137.242941,36.0481925],[137.2454421,36.0470345],[137.2504786,36.0446272],[137.2545656,36.0437358],[137.2583448,36.0433943],[137.2627276,36.0429919],[137.2653186,36.0411355],[137.2702539,36.0382834],[137.2730246,36.0367218],[137.2756559,36.0352057],[137.2789174,36.0337004],[137.2810578,36.0332666],[137.2848076,36.0320736],[137.2877741,36.0312494],[137.2952521,36.0304338],[137.2986531,36.030321],[137.3024726,36.0308199],[137.3052621,36.0310585],[137.312386,36.0318003],[137.3151112,36.0322211],[137.3180777,36.0328545],[137.3208886,36.0334661],[137.3240375,36.0338652],[137.3273796,36.034247],[137.3313171,36.0347372],[137.3343855,36.0349671],[137.3384249,36.0359648],[137.3440629,36.0363379],[137.3495132,36.0374614],[137.3535526,36.0369322],[137.356562,36.0365461],[137.3604888,36.0360082],[137.3682725,36.035852],[137.37302,36.0357479],[137.3777354,36.0356438],[137.3803532,36.0364246],[137.3846179,36.0368628],[137.3881048,36.0372532],[137.3915809,36.0376349],[137.3945099,36.0381338],[137.4022347,36.0389883],[137.4087954,36.0391661],[137.4130547,36.0391401],[137.4181616,36.03937],[137.4222761,36.039652],[137.4276888,36.0399036],[137.4320179,36.0401031],[137.4394315,36.0410964],[137.4477732,36.0422068],[137.4521184,36.0425365],[137.4591243,36.0416473],[137.4626487,36.0414087],[137.4681848,36.0410183],[137.472986,36.0412439],[137.4767625,36.0414304],[137.4793857,36.0431438],[137.4833929,36.0445448],[137.486794,36.04654],[137.4885803,36.0471082],[137.4912679,36.0483053],[137.4940252,36.0483096],[137.5020933,36.048006],[137.5089544,36.0496888],[137.5128651,36.0506473],[137.5183314,36.0519528],[137.5235563,36.05184],[137.5267911,36.0517186],[137.5319087,36.0506647],[137.5356102,36.0500141],[137.5403845,36.0497105],[137.5448048,36.0485568],[137.5484419,36.0466701],[137.5517678,36.0454426],[137.5567299,36.0421548],[137.5645995,36.0427577],[137.5742447,36.0435038],[137.580784,36.0450045],[137.5852686,36.0449091],[137.588852,36.0453819],[137.5915664,36.0450132],[137.5968236,36.0443279],[137.5991034,36.0441197],[137.605353,36.0429399],[137.6098966,36.0420897],[137.6224065,36.038394],[137.6323628,36.0387931],[137.6353454,36.038689],[137.6445722,36.0382552],[137.6518035,36.0370927],[137.6571679,36.0364333],[137.6620495,36.036442],[137.6684761,36.0362945],[137.6735616,36.0376653],[137.6807928,36.0390534],[137.6844191,36.0408058],[137.6876807,36.0430267],[137.6893973,36.0442412],[137.6969289,36.051042],[137.6971435,36.0534014],[137.698313,36.0575387],[137.6971435,36.0688048],[137.7017355,36.0725858],[137.7020788,36.0782396],[137.7022504,36.0821242],[137.7026367,36.0889911],[137.7021646,36.0924591],[137.7019071,36.0979727],[137.7015638,36.1032087],[137.70136,36.1068146],[137.7071857,36.112362],[137.709589,36.1146848],[137.7179468,36.1173196],[137.7210688,36.1209423],[137.7563882,36.1453779],[137.7639546,36.1498517],[137.7700762,36.152285],[137.7744743,36.1537996],[137.7802745,36.1571328],[137.7839217,36.1590369],[137.7880967,36.1615254],[137.7930251,36.1641328],[137.7984157,36.1652607],[137.8051722,36.1655378],[137.8105312,36.1659622],[137.8134334,36.1651134],[137.8206968,36.1629978],[137.8285771,36.1634504],[137.8325361,36.1628007],[137.8368062,36.162569],[137.8397137,36.1645071],[137.8430852,36.1669951],[137.8466767,36.1644508],[137.8506517,36.1607262],[137.8536397,36.157885],[137.8573948,36.1543333],[137.8589773,36.1528433],[137.8645134,36.1486287],[137.870948,36.146253],[137.8745019,36.1465952],[137.8776696,36.1438011],[137.8800595,36.1407134],[137.8825003,36.1422827],[137.8844368,36.1407459]]},"properties":{"name":"飛騨信濃直流幹線","operator":null,"voltage":"200000","frequency":"0","note":"other synchronous system (region grid is 60 Hz); present geographically, not part of this AC solve"}},{"type":"Feature","geometry":{"type":"LineString","coordinates":[[137.11541,36.0896023],[137.2013587,36.0638354],[137.2042957,36.065751],[137.2104983,36.0674128],[137.2141656,36.0676258],[137.217297,36.0678177],[137.2219929,36.0671424],[137.2249755,36.0667093],[137.2282505,36.0658834],[137.2314474,36.062929],[137.2337897,36.0607513],[137.2342831,36.0584812],[137.2356195,36.0560247],[137.2370857,36.0533536],[137.2397424,36.0500526],[137.242941,36.0481925],[137.2454421,36.0470345],[137.2504786,36.0446272],[137.2545656,36.0437358],[137.2583448,36.0433943],[137.2627276,36.0429919],[137.2653186,36.0411355],[137.2702539,36.0382834],[137.2730246,36.0367218],[137.2756559,36.0352057],[137.2789174,36.0337004],[137.2810578,36.0332666],[137.2848076,36.0320736],[137.2877741,36.0312494],[137.2952521,36.0304338],[137.2986531,36.030321],[137.3024726,36.0308199],[137.3052621,36.0310585],[137.312386,36.0318003],[137.3151112,36.0322211],[137.3180777,36.0328545],[137.3208886,36.0334661],[137.3240375,36.0338652],[137.3273796,36.034247],[137.3313171,36.0347372],[137.3343855,36.0349671],[137.3384249,36.0359648],[137.3440629,36.0363379],[137.3495132,36.0374614],[137.3535526,36.0369322],[137.356562,36.0365461],[137.3604888,36.0360082],[137.3682725,36.035852],[137.37302,36.0357479],[137.3777354,36.0356438],[137.3803532,36.0364246],[137.3846179,36.0368628],[137.3881048,36.0372532],[137.3915809,36.0376349],[137.3945099,36.0381338],[137.4022347,36.0389883],[137.4087954,36.0391661],[137.4130547,36.0391401],[137.4181616,36.03937],[137.4222761,36.039652],[137.4276888,36.0399036],[137.4320179,36.0401031],[137.4394315,36.0410964],[137.4477732,36.0422068],[137.4521184,36.0425365],[137.4591243,36.0416473],[137.4626487,36.0414087],[137.4681848,36.0410183],[137.472986,36.0412439],[137.4767625,36.0414304],[137.4793857,36.0431438],[137.4833929,36.0445448],[137.486794,36.04654],[137.4885803,36.0471082],[137.4912679,36.0483053],[137.4940252,36.0483096],[137.5020933,36.048006],[137.5089544,36.0496888],[137.5128651,36.0506473],[137.5183314,36.0519528],[137.5235563,36.05184],[137.5267911,36.0517186],[137.5319087,36.0506647],[137.5356102,36.0500141],[137.5403845,36.0497105],[137.5448048,36.0485568],[137.5484419,36.0466701],[137.5517678,36.0454426],[137.5567299,36.0421548],[137.5645995,36.0427577],[137.5742447,36.0435038],[137.580784,36.0450045],[137.5852686,36.0449091],[137.588852,36.0453819],[137.5915664,36.0450132],[137.5968236,36.0443279],[137.5991034,36.0441197],[137.605353,36.0429399],[137.6098966,36.0420897],[137.6224065,36.038394],[137.6323628,36.0387931],[137.6353454,36.038689],[137.6445722,36.0382552],[137.6518035,36.0370927],[137.6571679,36.0364333],[137.6620495,36.036442],[137.6684761,36.0362945],[137.6735616,36.0376653],[137.6807928,36.0390534],[137.6844191,36.0408058],[137.6876807,36.0430267],[137.6893973,36.0442412],[137.6969289,36.051042],[137.6971435,36.0534014],[137.698313,36.0575387],[137.6971435,36.0688048],[137.7017355,36.0725858],[137.7020788,36.0782396],[137.7022504,36.0821242],[137.7026367,36.0889911],[137.7021646,36.0924591],[137.7019071,36.0979727],[137.7015638,36.1032087],[137.70136,36.1068146],[137.7071857,36.112362],[137.709589,36.1146848],[137.7179468,36.1173196],[137.7210688,36.1209423],[137.7563882,36.1453779],[137.7639546,36.1498517],[137.7700762,36.152285],[137.7744743,36.1537996],[137.7802745,36.1571328],[137.7839217,36.1590369],[137.7880967,36.1615254],[137.7930251,36.1641328],[137.7984157,36.1652607],[137.8051722,36.1655378],[137.8105312,36.1659622],[137.8134334,36.1651134],[137.8206968,36.1629978],[137.8285771,36.1634504],[137.8325361,36.1628007],[137.8368062,36.162569],[137.8397137,36.1645071],[137.8430852,36.1669951],[137.8466767,36.1644508],[137.8506517,36.1607262],[137.8536397,36.157885],[137.8573948,36.1543333],[137.8589773,36.1528433],[137.8645134,36.1486287],[137.870948,36.146253],[137.8745019,36.1465952],[137.8776696,36.1438011],[137.8800595,36.1407134],[137.8825003,36.1422827],[137.8844368,36.1407459]]},"properties":{"name":"飛騨信濃直流幹線","operator":null,"voltage":"200000","frequency":"0","note":"other synchronous system (region grid is 60 Hz); present geographically, not part of this AC solve"}},{"type":"Feature","geometry":{"type":"LineString","coordinates":[[137.11541,36.0896023],[137.2013587,36.0638354],[137.2042957,36.065751],[137.2104983,36.0674128],[137.2141656,36.0676258],[137.217297,36.0678177],[137.2219929,36.0671424],[137.2249755,36.0667093],[137.2282505,36.0658834],[137.2314474,36.062929],[137.2337897,36.0607513],[137.2342831,36.0584812],[137.2356195,36.0560247],[137.2370857,36.0533536],[137.2397424,36.0500526],[137.242941,36.0481925],[137.2454421,36.0470345],[137.2504786,36.0446272],[137.2545656,36.0437358],[137.2583448,36.0433943],[137.2627276,36.0429919],[137.2653186,36.0411355],[137.2702539,36.0382834],[137.2730246,36.0367218],[137.2756559,36.0352057],[137.2789174,36.0337004],[137.2810578,36.0332666],[137.2848076,36.0320736],[137.2877741,36.0312494],[137.2952521,36.0304338],[137.2986531,36.030321],[137.3024726,36.0308199],[137.3052621,36.0310585],[137.312386,36.0318003],[137.3151112,36.0322211],[137.3180777,36.0328545],[137.3208886,36.0334661],[137.3240375,36.0338652],[137.3273796,36.034247],[137.3313171,36.0347372],[137.3343855,36.0349671],[137.3384249,36.0359648],[137.3440629,36.0363379],[137.3495132,36.0374614],[137.3535526,36.0369322],[137.356562,36.0365461],[137.3604888,36.0360082],[137.3682725,36.035852],[137.37302,36.0357479],[137.3777354,36.0356438],[137.3803532,36.0364246],[137.3846179,36.0368628],[137.3881048,36.0372532],[137.3915809,36.0376349],[137.3945099,36.0381338],[137.4022347,36.0389883],[137.4087954,36.0391661],[137.4130547,36.0391401],[137.4181616,36.03937],[137.4222761,36.039652],[137.4276888,36.0399036],[137.4320179,36.0401031],[137.4394315,36.0410964],[137.4477732,36.0422068],[137.4521184,36.0425365],[137.4591243,36.0416473],[137.4626487,36.0414087],[137.4681848,36.0410183],[137.472986,36.0412439],[137.4767625,36.0414304],[137.4793857,36.0431438],[137.4833929,36.0445448],[137.486794,36.04654],[137.4885803,36.0471082],[137.4912679,36.0483053],[137.4940252,36.0483096],[137.5020933,36.048006],[137.5089544,36.0496888],[137.5128651,36.0506473],[137.5183314,36.0519528],[137.5235563,36.05184],[137.5267911,36.0517186],[137.5319087,36.0506647],[137.5356102,36.0500141],[137.5403845,36.0497105],[137.5448048,36.0485568],[137.5484419,36.0466701],[137.5517678,36.0454426],[137.5567299,36.0421548],[137.5645995,36.0427577],[137.5742447,36.0435038],[137.580784,36.0450045],[137.5852686,36.0449091],[137.588852,36.0453819],[137.5915664,36.0450132],[137.5968236,36.0443279],[137.5991034,36.0441197],[137.605353,36.0429399],[137.6098966,36.0420897],[137.6224065,36.038394],[137.6323628,36.0387931],[137.6353454,36.038689],[137.6445722,36.0382552],[137.6518035,36.0370927],[137.6571679,36.0364333],[137.6620495,36.036442],[137.6684761,36.0362945],[137.6735616,36.0376653],[137.6807928,36.0390534],[137.6844191,36.0408058],[137.6876807,36.0430267],[137.6893973,36.0442412],[137.6969289,36.051042],[137.6971435,36.0534014],[137.698313,36.0575387],[137.6971435,36.0688048],[137.7017355,36.0725858],[137.7020788,36.0782396],[137.7022504,36.0821242],[137.7026367,36.0889911],[137.7021646,36.0924591],[137.7019071,36.0979727],[137.7015638,36.1032087],[137.70136,36.1068146],[137.7071857,36.112362],[137.709589,36.1146848],[137.7179468,36.1173196],[137.7210688,36.1209423],[137.7563882,36.1453779],[137.7639546,36.1498517],[137.7700762,36.152285],[137.7744743,36.1537996],[137.7802745,36.1571328],[137.7839217,36.1590369],[137.7880967,36.1615254],[137.7930251,36.1641328],[137.7984157,36.1652607],[137.8051722,36.1655378],[137.8105312,36.1659622],[137.8134334,36.1651134],[137.8206968,36.1629978],[137.8285771,36.1634504],[137.8325361,36.1628007],[137.8368062,36.162569],[137.8397137,36.1645071],[137.8430852,36.1669951],[137.8466767,36.1644508],[137.8506517,36.1607262],[137.8536397,36.157885],[137.8573948,36.1543333],[137.8589773,36.1528433],[137.8645134,36.1486287],[137.870948,36.146253],[137.8745019,36.1465952],[137.8776696,36.1438011],[137.8800595,36.1407134],[137.8825003,36.1422827],[137.8844368,36.1407459]]},"properties":{"name":"飛騨信濃直流幹線","operator":null,"voltage":"200000","frequency":"0","note":"other synchronous system (region grid is 60 Hz); present geographically, not part of this AC solve"}},{"type":"Feature","geometry":{"type":"LineString","coordinates":[[137.11541,36.0896023],[137.2013587,36.0638354],[137.2042957,36.065751],[137.2104983,36.0674128],[137.2141656,36.0676258],[137.217297,36.0678177],[137.2219929,36.0671424],[137.2249755,36.0667093],[137.2282505,36.0658834],[137.2314474,36.062929],[137.2337897,36.0607513],[137.2342831,36.0584812],[137.2356195,36.0560247],[137.2370857,36.0533536],[137.2397424,36.0500526],[137.242941,36.0481925],[137.2454421,36.0470345],[137.2504786,36.0446272],[137.2545656,36.0437358],[137.2583448,36.0433943],[137.2627276,36.0429919],[137.2653186,36.0411355],[137.2702539,36.0382834],[137.2730246,36.0367218],[137.2756559,36.0352057],[137.2789174,36.0337004],[137.2810578,36.0332666],[137.2848076,36.0320736],[137.2877741,36.0312494],[137.2952521,36.0304338],[137.2986531,36.030321],[137.3024726,36.0308199],[137.3052621,36.0310585],[137.312386,36.0318003],[137.3151112,36.0322211],[137.3180777,36.0328545],[137.3208886,36.0334661],[137.3240375,36.0338652],[137.3273796,36.034247],[137.3313171,36.0347372],[137.3343855,36.0349671],[137.3384249,36.0359648],[137.3440629,36.0363379],[137.3495132,36.0374614],[137.3535526,36.0369322],[137.356562,36.0365461],[137.3604888,36.0360082],[137.3682725,36.035852],[137.37302,36.0357479],[137.3777354,36.0356438],[137.3803532,36.0364246],[137.3846179,36.0368628],[137.3881048,36.0372532],[137.3915809,36.0376349],[137.3945099,36.0381338],[137.4022347,36.0389883],[137.4087954,36.0391661],[137.4130547,36.0391401],[137.4181616,36.03937],[137.4222761,36.039652],[137.4276888,36.0399036],[137.4320179,36.0401031],[137.4394315,36.0410964],[137.4477732,36.0422068],[137.4521184,36.0425365],[137.4591243,36.0416473],[137.4626487,36.0414087],[137.4681848,36.0410183],[137.472986,36.0412439],[137.4767625,36.0414304],[137.4793857,36.0431438],[137.4833929,36.0445448],[137.486794,36.04654],[137.4885803,36.0471082],[137.4912679,36.0483053],[137.4940252,36.0483096],[137.5020933,36.048006],[137.5089544,36.0496888],[137.5128651,36.0506473],[137.5183314,36.0519528],[137.5235563,36.05184],[137.5267911,36.0517186],[137.5319087,36.0506647],[137.5356102,36.0500141],[137.5403845,36.0497105],[137.5448048,36.0485568],[137.5484419,36.0466701],[137.5517678,36.0454426],[137.5567299,36.0421548],[137.5645995,36.0427577],[137.5742447,36.0435038],[137.580784,36.0450045],[137.5852686,36.0449091],[137.588852,36.0453819],[137.5915664,36.0450132],[137.5968236,36.0443279],[137.5991034,36.0441197],[137.605353,36.0429399],[137.6098966,36.0420897],[137.6224065,36.038394],[137.6323628,36.0387931],[137.6353454,36.038689],[137.6445722,36.0382552],[137.6518035,36.0370927],[137.6571679,36.0364333],[137.6620495,36.036442],[137.6684761,36.0362945],[137.6735616,36.0376653],[137.6807928,36.0390534],[137.6844191,36.0408058],[137.6876807,36.0430267],[137.6893973,36.0442412],[137.6969289,36.051042],[137.6971435,36.0534014],[137.698313,36.0575387],[137.6971435,36.0688048],[137.7017355,36.0725858],[137.7020788,36.0782396],[137.7022504,36.0821242],[137.7026367,36.0889911],[137.7021646,36.0924591],[137.7019071,36.0979727],[137.7015638,36.1032087],[137.70136,36.1068146],[137.7071857,36.112362],[137.709589,36.1146848],[137.7179468,36.1173196],[137.7210688,36.1209423],[137.7563882,36.1453779],[137.7639546,36.1498517],[137.7700762,36.152285],[137.7744743,36.1537996],[137.7802745,36.1571328],[137.7839217,36.1590369],[137.7880967,36.1615254],[137.7930251,36.1641328],[137.7984157,36.1652607],[137.8051722,36.1655378],[137.8105312,36.1659622],[137.8134334,36.1651134],[137.8206968,36.1629978],[137.8285771,36.1634504],[137.8325361,36.1628007],[137.8368062,36.162569],[137.8397137,36.1645071],[137.8430852,36.1669951],[137.8466767,36.1644508],[137.8506517,36.1607262],[137.8536397,36.157885],[137.8573948,36.1543333],[137.8589773,36.1528433],[137.8645134,36.1486287],[137.870948,36.146253],[137.8745019,36.1465952],[137.8776696,36.1438011],[137.8800595,36.1407134],[137.8825003,36.1422827],[137.8844368,36.1407459]]},"properties":{"name":"飛騨信濃直流幹線","operator":null,"voltage":"200000","frequency":"0","note":"other synchronous system (region grid is 60 Hz); present geographically, not part of this AC solve"}},{"type":"Feature","geometry":{"type":"LineString","coordinates":[[137.6461843,36.170635],[137.6465061,36.1706916]]},"properties":{"name":"北陸電力送配電 154.0kV線","operator":"北陸電力送配電","voltage":"154000","frequency":"50","note":"other synchronous system (region grid is 60 Hz); present geographically, not part of this AC solve"}},{"type":"Feature","geometry":{"type":"LineString","coordinates":[[137.6462218,36.1707313],[137.6465061,36.1706916]]},"properties":{"name":"北陸電力送配電 154.0kV線","operator":"北陸電力送配電","voltage":"154000","frequency":"50","note":"other synchronous system (region grid is 60 Hz); present geographically, not part of this AC solve"}},{"type":"Feature","geometry":{"type":"LineString","coordinates":[[137.9219553,36.1246961],[137.9210168,36.1225824],[137.9201344,36.1202099],[137.918973,36.1174214],[137.9185143,36.1146978],[137.9179484,36.1116956],[137.9170203,36.1099166],[137.9165858,36.1078819],[137.9157463,36.1052847],[137.9154566,36.1035705],[137.9138607,36.1019279],[137.9126832,36.1002266],[137.9112965,36.0980681],[137.9106034,36.0971823],[137.9099312,36.0963256],[137.9078633,36.0938483],[137.9062777,36.0914776],[137.9051061,36.0896425],[137.9042306,36.0882925],[137.902229,36.0857753],[137.900169,36.0831803],[137.8983785,36.0801456],[137.8974434,36.0788124],[137.8959183,36.0768814],[137.8961779,36.0750308],[137.8963968,36.0736383],[137.8948451,36.0694378],[137.894121,36.0654377],[137.8936682,36.0639984],[137.8933257,36.0626407],[137.8922608,36.0583735],[137.8907159,36.0565322]]},"properties":{"name":"東京電力パワーグリッド 154.0kV線","operator":"東京電力パワーグリッド","voltage":"154000","frequency":null,"note":"other synchronous system (region grid is 60 Hz); present geographically, not part of this AC solve"}},{"type":"Feature","geometry":{"type":"LineString","coordinates":[[137.8907159,36.0565322],[137.8941684,36.0559675],[137.8967837,36.0530641],[137.8966042,36.0525575]]},"properties":{"name":"北陸送電線_89","operator":"東京電力パワーグリッド","voltage":null,"frequency":null,"note":"other synchronous system (region grid is 60 Hz); present geographically, not part of this AC solve"}},{"type":"Feature","geometry":{"type":"LineString","coordinates":[[137.8907159,36.0565322],[137.8941684,36.0559675],[137.8967837,36.0530641],[137.8966042,36.0525575]]},"properties":{"name":"北陸送電線_90","operator":"東京電力パワーグリッド","voltage":null,"frequency":null,"note":"other synchronous system (region grid is 60 Hz); present geographically, not part of this AC solve"}},{"type":"Feature","geometry":{"type":"LineString","coordinates":[[137.8483055,37.0190935],[137.8500265,37.0197761],[137.8559932,37.0226843]]},"properties":{"name":"北陸送電線_121","operator":"北陸電力送配電","voltage":null,"frequency":"50","note":"other synchronous system (region grid is 60 Hz); present geographically, not part of this AC solve"}},{"type":"Feature","geometry":{"type":"LineString","coordinates":[[137.8594826,37.0236728],[137.8559932,37.0226843]]},"properties":{"name":"北陸電力送配電 66.0kV線","operator":"北陸電力送配電","voltage":"66000","frequency":"50","note":"other synchronous system (region grid is 60 Hz); present geographically, not part of this AC solve"}},{"type":"Feature","geometry":{"type":"LineString","coordinates":[[136.9656957,37.0352181],[136.9656191,37.0353142]]},"properties":{"name":"西日本旅客鉄道 1.5kV線","operator":"西日本旅客鉄道","voltage":"1500","frequency":"0","note":"other synchronous system (region grid is 60 Hz); present geographically, not part of this AC solve"}},{"type":"Feature","geometry":{"type":"LineString","coordinates":[[137.060742,36.0709394],[137.0610075,36.0722542],[137.0602155,36.0710747]]},"properties":{"name":"飛騨信濃直流幹線","operator":null,"voltage":"200000","frequency":"0","note":"other synchronous system (region grid is 60 Hz); present geographically, not part of this AC solve"}}]}