{"type":"FeatureCollection","name":"kansai_other_freq_reference","features":[{"type":"Feature","geometry":{"type":"LineString","coordinates":[[135.0893463,33.9769716],[135.0899934,33.9755783],[135.0926281,33.9780977],[135.0964736,33.9815211],[135.0994892,33.9827862],[135.1056092,33.9830291],[135.1105292,33.9792543],[135.1161028,33.9806555],[135.118844,33.9846544],[135.1216703,33.9854889],[135.1253618,33.9866694],[135.1314067,33.9874638],[135.1374899,33.9877218],[135.1418512,33.9879709],[135.1444691,33.9880598],[135.1517977,33.9900498],[135.1555359,33.9911066],[135.1605784,33.992561],[135.1656424,33.9939487],[135.1713456,33.9926206],[135.1753153,33.9892092],[135.1774396,33.9870964],[135.1835488,33.9859026],[135.1869078,33.9852905],[135.1921158,33.9843368],[135.1973998,33.9832381],[135.2041214,33.9817302],[135.2091747,33.9831803],[135.2117856,33.9839327],[135.2152096,33.9849195],[135.2201449,33.9859248],[135.2238088,33.9866943],[135.230171,33.9904706],[135.2345162,33.9929924],[135.2389311,33.9966884],[135.2428203,33.9996904],[135.2482813,34.0040042],[135.2519505,34.0066902],[135.25496,34.0089225],[135.2586882,34.0116217],[135.2638603,34.0140291],[135.2669655,34.0153213],[135.2715261,34.0192003],[135.2768307,34.0241293],[135.2815943,34.0281485],[135.2842872,34.0307003],[135.2862032,34.032467],[135.2901237,34.0360883],[135.2931707,34.0377865],[135.2987827,34.0420957],[135.301481,34.044087],[135.3078102,34.0489391],[135.3106113,34.0518032],[135.3136368,34.056381],[135.3187805,34.0589969],[135.3218489,34.0605435],[135.3261359,34.0626251],[135.3287797,34.0648231],[135.3323793,34.0675827],[135.3364723,34.070791],[135.3391384,34.0735282],[135.3413708,34.0759028],[135.3438591,34.0787047],[135.3466218,34.0819171],[135.349422,34.0881815],[135.3508489,34.0914201],[135.3509884,34.0980303],[135.3546845,34.1043113],[135.357625,34.1084128],[135.3616422,34.1103209],[135.3667276,34.1137097],[135.3701287,34.1159614],[135.3740715,34.1185462],[135.3778856,34.1210287],[135.3819036,34.1236711],[135.3843766,34.1268329],[135.3882658,34.1319439],[135.3897088,34.1369436],[135.3943069,34.1418915],[135.3970205,34.1444116],[135.4012592,34.1482448],[135.4041766,34.1508889],[135.4072665,34.1539121],[135.4103457,34.1566643],[135.4126739,34.1590348],[135.4151039,34.1611699],[135.419256,34.1645034],[135.4227429,34.1673086],[135.4267447,34.1701847],[135.4336978,34.1741809],[135.4380155,34.1765747],[135.4417384,34.1789024],[135.4463897,34.1817595],[135.449144,34.1834844],[135.4536527,34.1891201],[135.4569408,34.1931449],[135.4584244,34.1950105],[135.4608488,34.1980279],[135.464027,34.2019589],[135.4661164,34.2045164],[135.4690864,34.2057646],[135.4720259,34.2065682],[135.4755825,34.2075138],[135.4817221,34.2082363],[135.4858527,34.2087266],[135.4916516,34.209829],[135.4961943,34.2121329],[135.4997437,34.2139094]]},"properties":{"name":"阿南紀北直流幹線","operator":null,"voltage":"500000;0","frequency":"0","note":"other synchronous system (region grid is 60 Hz); present geographically, not part of this AC solve"}},{"type":"Feature","geometry":{"type":"LineString","coordinates":[[135.0893463,33.9769716],[135.0892779,33.9771441],[135.0875305,33.9804645],[135.0644814,33.9824054],[134.6417311,33.845228],[134.636609,33.8283724],[134.6366277,33.8277582]]},"properties":{"name":"阿南紀北直流幹線","operator":null,"voltage":"500000","frequency":"0","note":"other synchronous system (region grid is 60 Hz); present geographically, not part of this AC solve"}},{"type":"Feature","geometry":{"type":"LineString","coordinates":[[135.4997437,34.2139094],[135.5005778,34.2136969]]},"properties":{"name":"阿南紀北直流幹線","operator":null,"voltage":"500000;0","frequency":"0","note":"other synchronous system (region grid is 60 Hz); present geographically, not part of this AC solve"}},{"type":"Feature","geometry":{"type":"LineString","coordinates":[[135.4997437,34.2139094],[135.5006032,34.2144192]]},"properties":{"name":"阿南紀北直流幹線","operator":null,"voltage":"500000;0","frequency":"0","note":"other synchronous system (region grid is 60 Hz); present geographically, not part of this AC solve"}}]}