{"type":"FeatureCollection","name":"kyushu_other_freq_reference","features":[{"type":"Feature","geometry":{"type":"LineString","coordinates":[[130.585336,33.4790363],[130.5874601,33.4795517]]},"properties":{"name":"九州送電線_3","operator":"九州電力送配電","voltage":"0","frequency":"0","note":"other synchronous system (region grid is 60 Hz); present geographically, not part of this AC solve"}},{"type":"Feature","geometry":{"type":"LineString","coordinates":[[130.7715931,32.6533253],[130.7725313,32.6558722],[130.7719485,32.6599152],[130.7697789,32.6630639],[130.7684729,32.664974],[130.7664478,32.6670281]]},"properties":{"name":"苓北火力線(220kV時代)","operator":null,"voltage":"0","frequency":"0","note":"other synchronous system (region grid is 60 Hz); present geographically, not part of this AC solve"}},{"type":"Feature","geometry":{"type":"LineString","coordinates":[[130.7715931,32.6533253],[130.7725313,32.6558722],[130.7719485,32.6599152],[130.7697789,32.6630639],[130.7684729,32.664974],[130.7664478,32.6670281]]},"properties":{"name":"苓北火力線(220kV時代)","operator":null,"voltage":"0","frequency":"0","note":"other synchronous system (region grid is 60 Hz); present geographically, not part of this AC solve"}}]}