{"type":"FeatureCollection","features":[{"type":"Feature","geometry":{"type":"Point","coordinates":[127.6832603,26.2182044]},"properties":{"name":"\u4e45\u8302\u5730\u4e8c\u4e01\u76ee\u5909\u96fb\u6240","vn_kv":66.0,"vm_pu":0.9519,"va_deg":-17.71}},{"type":"Feature","geometry":{"type":"Point","coordinates":[127.8722359,26.4597375]},"properties":{"name":"\u4f0a\u82b8\u5909\u96fb\u6240","vn_kv":132.0,"vm_pu":0.9998,"va_deg":-0.03}},{"type":"Feature","geometry":{"type":"Point","coordinates":[127.88084498333335,26.6921851]},"properties":{"name":"\u6d77\u6d0b\u535a\u5909\u96fb\u6240","vn_kv":66.0,"vm_pu":1.0,"va_deg":-22.26}},{"type":"Feature","geometry":{"type":"Point","coordinates":[127.67452473333333,26.19080983888889]},"properties":{"name":"\u5c0f\u7984\u5909\u96fb\u6240","vn_kv":66.0,"vm_pu":0.9472,"va_deg":-18.33}},{"type":"Feature","geometry":{"type":"Point","coordinates":[127.71293817777779,26.1986037]},"properties":{"name":"\u4e0a\u9593\u5909\u96fb\u6240","vn_kv":66.0,"vm_pu":0.9457,"va_deg":-18.5}},{"type":"Feature","geometry":{"type":"Point","coordinates":[127.73242752307692,26.1816581]},"properties":{"name":"\u5357\u98a8\u539f\u5909\u96fb\u6240","vn_kv":66.0,"vm_pu":0.9688,"va_deg":-14.9}},{"type":"Feature","geometry":{"type":"Point","coordinates":[127.75140372000001,26.12800266]},"properties":{"name":"\u9577\u6bdb\u5909\u96fb\u6240","vn_kv":66.0,"vm_pu":0.9793,"va_deg":-21.45}},{"type":"Feature","geometry":{"type":"Point","coordinates":[127.7556547,26.285685820000005]},"properties":{"name":"\u4f0a\u4f50\u4e00\u4e01\u76ee\u5909\u96fb\u6240","vn_kv":132.0,"vm_pu":0.9992,"va_deg":-11.26}},{"type":"Feature","geometry":{"type":"Point","coordinates":[127.81519551428572,26.433013814285715]},"properties":{"name":"\u4ef2\u6cca\u5909\u96fb\u6240","vn_kv":66.0,"vm_pu":0.9991,"va_deg":1.1}},{"type":"Feature","geometry":{"type":"Point","coordinates":[128.1696252857143,26.730943599999996]},"properties":{"name":"\u5965\u9593\u5909\u96fb\u6240","vn_kv":66.0,"vm_pu":0.9888,"va_deg":-22.46}},{"type":"Feature","geometry":{"type":"Point","coordinates":[127.75597053333333,26.28592226666667]},"properties":{"name":"\u4f0a\u4f50\u4e00\u4e01\u76ee\u5909\u96fb\u6240_2","vn_kv":132.0,"vm_pu":0.9992,"va_deg":-11.24}},{"type":"Feature","geometry":{"type":"Point","coordinates":[127.68647935714286,26.227339642857142]},"properties":{"name":"\u6cca\u5909\u96fb\u6240","vn_kv":66.0,"vm_pu":0.9581,"va_deg":-17.07}},{"type":"Feature","geometry":{"type":"Point","coordinates":[127.6835070375,26.219869850000002]},"properties":{"name":"\u4e45\u8302\u5730\u5909\u96fb\u6240","vn_kv":66.0,"vm_pu":0.9531,"va_deg":-17.58}},{"type":"Feature","geometry":{"type":"Point","coordinates":[128.03434056666666,26.52546175]},"properties":{"name":"Henoko Substation","vn_kv":66.0,"vm_pu":1.0,"va_deg":-21.21}},{"type":"Feature","geometry":{"type":"Point","coordinates":[127.68021178000001,26.221735920000004]},"properties":{"name":"\u897f\u90a3\u8987\u5909\u96fb\u6240","vn_kv":66.0,"vm_pu":0.9529,"va_deg":-17.6}},{"type":"Feature","geometry":{"type":"Point","coordinates":[127.66236887272727,26.16422818181818]},"properties":{"name":"\u6c96\u7e04\u96fb\u529b\u4e0e\u6839\u5909\u96fb\u6240","vn_kv":66.0,"vm_pu":0.9433,"va_deg":-18.71}},{"type":"Feature","geometry":{"type":"Point","coordinates":[127.99921683333334,26.515583449999998]},"properties":{"name":"Kushi Water Purification Plant Substation","vn_kv":66.0,"vm_pu":0.9978,"va_deg":-21.39}},{"type":"Feature","geometry":{"type":"Point","coordinates":[127.99272556666666,26.508785083333333]},"properties":{"name":"\u677e\u7530\u5909\u96fb\u6240","vn_kv":66.0,"vm_pu":0.9972,"va_deg":-21.44}},{"type":"Feature","geometry":{"type":"Point","coordinates":[127.98761675714286,26.610302938095238]},"properties":{"name":"\u540d\u8b77\u96fb\u529b\u6240","vn_kv":66.0,"vm_pu":0.9699,"va_deg":-18.05}},{"type":"Feature","geometry":{"type":"Point","coordinates":[127.826339115,26.391921294999996]},"properties":{"name":"\u3046\u308b\u307e\u5e02\u5909\u96fb\u6240","vn_kv":132.0,"vm_pu":0.9974,"va_deg":-1.49}},{"type":"Feature","geometry":{"type":"Point","coordinates":[127.8115115,26.304452716666663]},"properties":{"name":"\u6e21\u53e3\u5909\u96fb\u6240","vn_kv":132.0,"vm_pu":1.0,"va_deg":-3.04}},{"type":"Feature","geometry":{"type":"Point","coordinates":[127.74757690555556,26.204024261111112]},"properties":{"name":"\u4e0e\u90a3\u539f\u5909\u96fb\u6240","vn_kv":66.0,"vm_pu":0.9692,"va_deg":-14.81}},{"type":"Feature","geometry":{"type":"Point","coordinates":[127.66402353181819,26.206119954545454]},"properties":{"name":"\u90a3\u8987\u5909\u96fb\u6240","vn_kv":66.0,"vm_pu":0.9476,"va_deg":-18.25}},{"type":"Feature","geometry":{"type":"Point","coordinates":[127.70907395,26.25931435]},"properties":{"name":"\u6e2f\u5ddd\u5909\u96fb\u6240","vn_kv":66.0,"vm_pu":0.9732,"va_deg":-15.62}},{"type":"Feature","geometry":{"type":"Point","coordinates":[127.71931157692308,26.26866336923077]},"properties":{"name":"\u7267\u6e2f\u4e94\u4e01\u76ee\u5909\u96fb\u6240","vn_kv":132.0,"vm_pu":1.0,"va_deg":-11.77}},{"type":"Feature","geometry":{"type":"Point","coordinates":[127.78165586666667,26.307242244444446]},"properties":{"name":"\u745e\u6176\u89a7\u5909\u96fb\u6240","vn_kv":66.0,"vm_pu":0.9953,"va_deg":-7.35}},{"type":"Feature","geometry":{"type":"Point","coordinates":[127.8069393625,26.3543070625]},"properties":{"name":"\u7f8e\u91cc\u516d\u4e01\u76ee\u5909\u96fb\u6240","vn_kv":66.0,"vm_pu":1.0,"va_deg":-5.22}},{"type":"Feature","geometry":{"type":"Point","coordinates":[127.8345942875,26.441843075]},"properties":{"name":"\u77f3\u5ddd\u6771\u5c71\u4e00\u4e01\u76ee\u5909\u96fb\u6240","vn_kv":66.0,"vm_pu":1.0,"va_deg":1.31}},{"type":"Feature","geometry":{"type":"Point","coordinates":[127.83872885000001,26.44281275]},"properties":{"name":"\u77f3\u5ddd\u6771\u5c71\u4e8c\u4e01\u76ee\u5909\u96fb\u6240","vn_kv":132.0,"vm_pu":1.0,"va_deg":0.0}},{"type":"Feature","geometry":{"type":"Point","coordinates":[127.74284722,26.243005410000002]},"properties":{"name":"\u524d\u7530\u5909\u96fb\u6240","vn_kv":66.0,"vm_pu":0.9895,"va_deg":-11.82}},{"type":"Feature","geometry":{"type":"Point","coordinates":[127.77264026,26.23184748]},"properties":{"name":"\u5c0f\u90a3\u8987\u5909\u96fb\u6240","vn_kv":66.0,"vm_pu":1.0,"va_deg":-7.53}},{"type":"Feature","geometry":{"type":"Point","coordinates":[127.71922808888888,26.165907322222225]},"properties":{"name":"\u53cb\u5bc4\u5909\u96fb\u6240","vn_kv":132.0,"vm_pu":0.9625,"va_deg":-18.55}},{"type":"Feature","geometry":{"type":"Point","coordinates":[127.78758017777778,26.159644166666666]},"properties":{"name":"\u4f50\u6577\u5909\u96fb\u6240","vn_kv":66.0,"vm_pu":1.0,"va_deg":-22.27}},{"type":"Feature","geometry":{"type":"Point","coordinates":[127.9065965125,26.657140725]},"properties":{"name":"\u6771\u5909\u96fb\u6240","vn_kv":66.0,"vm_pu":1.0,"va_deg":-22.58}},{"type":"Feature","geometry":{"type":"Point","coordinates":[127.69219661428572,26.135709471428573]},"properties":{"name":"\u5927\u91cc\u5909\u96fb\u6240","vn_kv":66.0,"vm_pu":0.9578,"va_deg":-19.23}},{"type":"Feature","geometry":{"type":"Point","coordinates":[128.1295278,26.6574367875]},"properties":{"name":"\u7530\u6e2f\u5909\u96fb\u6240","vn_kv":66.0,"vm_pu":1.0,"va_deg":-21.55}},{"type":"Feature","geometry":{"type":"Point","coordinates":[127.88066141538462,26.3317601]},"properties":{"name":"\u5ddd\u7530\u5909\u96fb\u6240","vn_kv":66.0,"vm_pu":0.9936,"va_deg":-2.01}},{"type":"Feature","geometry":{"type":"Point","coordinates":[127.87361114000001,26.38122156]},"properties":{"name":"\u5b87\u5805\u5909\u96fb\u6240","vn_kv":132.0,"vm_pu":1.0,"va_deg":-0.05}},{"type":"Feature","geometry":{"type":"Point","coordinates":[127.85296248571429,26.393099142857146]},"properties":{"name":"\u77f3\u5ddd\u6771\u6069\u7d0d\u5909\u96fb\u6240","vn_kv":66.0,"vm_pu":0.9964,"va_deg":-1.08}},{"type":"Feature","geometry":{"type":"Point","coordinates":[127.97858872857144,26.674391042857142]},"properties":{"name":"\u4ef2\u5b97\u6839\u5909\u96fb\u6240","vn_kv":66.0,"vm_pu":0.9733,"va_deg":-21.5}},{"type":"Feature","geometry":{"type":"Point","coordinates":[127.93694794999999,26.611571683333334]},"properties":{"name":"\u5c71\u5165\u7aef\u5909\u96fb\u6240","vn_kv":66.0,"vm_pu":0.9641,"va_deg":-20.17}},{"type":"Feature","geometry":{"type":"Point","coordinates":[127.99077056666667,26.587020222222222]},"properties":{"name":"\u540d\u8b77\u5e02\u5909\u96fb\u6240","vn_kv":66.0,"vm_pu":0.9695,"va_deg":-17.37}},{"type":"Feature","geometry":{"type":"Point","coordinates":[127.93961664000001,26.535644689999998]},"properties":{"name":"\u559c\u702c\u5909\u96fb\u6240","vn_kv":66.0,"vm_pu":0.9947,"va_deg":-4.0}},{"type":"Feature","geometry":{"type":"Point","coordinates":[127.82627025833334,26.456100683333332]},"properties":{"name":"\u6069\u7d0d\u6751\u5909\u96fb\u6240","vn_kv":66.0,"vm_pu":0.9955,"va_deg":-0.63}},{"type":"Feature","geometry":{"type":"Point","coordinates":[127.82292558888889,26.4118603]},"properties":{"name":"\u77f3\u5ddd\u66d9\u4e09\u4e01\u76ee\u5909\u96fb\u6240","vn_kv":66.0,"vm_pu":0.9986,"va_deg":0.95}},{"type":"Feature","geometry":{"type":"Point","coordinates":[127.75916895217391,26.23577952173913]},"properties":{"name":"\u897f\u539f\u5909\u96fb\u6240","vn_kv":132.0,"vm_pu":0.9841,"va_deg":-11.17}},{"type":"Feature","geometry":{"type":"Point","coordinates":[127.68764318333335,26.175396316666667]},"properties":{"name":"\u4e0a\u7530\u5909\u96fb\u6240","vn_kv":66.0,"vm_pu":0.947,"va_deg":-18.39}},{"type":"Feature","geometry":{"type":"Point","coordinates":[127.70300098571428,26.229641828571427]},"properties":{"name":"\u5317\u90a3\u8987\u5909\u96fb\u6240","vn_kv":132.0,"vm_pu":0.9652,"va_deg":-16.75}},{"type":"Feature","geometry":{"type":"Point","coordinates":[125.36295709999999,24.74434088]},"properties":{"name":"\u5bae\u53e4\u5cf6\u5e02\u5909\u96fb\u6240","vn_kv":66.0,"vm_pu":0.9389,"va_deg":-18.82}},{"type":"Feature","geometry":{"type":"Point","coordinates":[127.67995471428571,26.20854825714286]},"properties":{"name":"\u58f7\u5ddd\u5909\u96fb\u6240","vn_kv":66.0,"vm_pu":0.9482,"va_deg":-18.15}},{"type":"Feature","geometry":{"type":"Point","coordinates":[127.688380725,26.241629425]},"properties":{"name":"\u66d9\u5909\u96fb\u6240","vn_kv":66.0,"vm_pu":0.9681,"va_deg":-16.08}},{"type":"Feature","geometry":{"type":"Point","coordinates":[127.6898627,26.2017538]},"properties":{"name":"\u53e4\u6ce2\u8535\u4e00\u4e01\u76ee\u5909\u96fb\u6240","vn_kv":66.0,"vm_pu":0.9466,"va_deg":-18.29}},{"type":"Feature","geometry":{"type":"Point","coordinates":[124.08281856,24.33090818]},"properties":{"name":"\u6c96\u7e04\u96fb\u529b \u7af9\u5bcc\u914d\u96fb\u5854","vn_kv":66.0,"vm_pu":0.9389,"va_deg":-18.82}},{"type":"Feature","geometry":{"type":"Point","coordinates":[127.75352676,26.23686292]},"properties":{"name":"\u6d25\u82b1\u6ce2\u5909\u96fb\u6240","vn_kv":132.0,"vm_pu":0.9842,"va_deg":-11.19}},{"type":"Feature","geometry":{"type":"Point","coordinates":[127.81938098,26.174096580000004]},"properties":{"name":"\u77e5\u5ff5\u4e45\u624b\u5805\u5909\u96fb\u6240","vn_kv":66.0,"vm_pu":0.9957,"va_deg":-22.62}},{"type":"Feature","geometry":{"type":"Point","coordinates":[127.65853901999999,26.194423719999996]},"properties":{"name":"\u8d64\u5dba\u5909\u96fb\u6240","vn_kv":66.0,"vm_pu":0.9458,"va_deg":-18.4}},{"type":"Feature","geometry":{"type":"Point","coordinates":[127.75687207142857,26.3255255]},"properties":{"name":"\u7f8e\u6d5c\u4e09\u4e01\u76ee\u5909\u96fb\u6240","vn_kv":66.0,"vm_pu":0.9914,"va_deg":-7.68}},{"type":"Feature","geometry":{"type":"Point","coordinates":[127.72365649999999,26.232293557142857]},"properties":{"name":"\u9996\u91cc\u5927\u540d\u753a\u4e09\u4e01\u76ee\u5909\u96fb\u6240","vn_kv":66.0,"vm_pu":0.9626,"va_deg":-16.97}},{"type":"Feature","geometry":{"type":"Point","coordinates":[127.68647898333334,26.22736865]},"properties":{"name":"\u4e0a\u4e4b\u5c4b\u4e00\u4e01\u76ee\u5909\u96fb\u6240","vn_kv":66.0,"vm_pu":0.9603,"va_deg":-16.84}},{"type":"Feature","geometry":{"type":"Point","coordinates":[127.7250493,26.2556281]},"properties":{"name":"okinawa junction 26.2556:127.725","vn_kv":132.0,"vm_pu":0.9995,"va_deg":-11.82}},{"type":"Feature","geometry":{"type":"Point","coordinates":[127.9728186,26.5337793]},"properties":{"name":"okinawa junction 26.5338:127.9728","vn_kv":66.0,"vm_pu":0.9795,"va_deg":-8.11}},{"type":"Feature","geometry":{"type":"Point","coordinates":[128.0000675,26.5990563]},"properties":{"name":"okinawa junction 26.5991:128.0001","vn_kv":66.0,"vm_pu":0.9699,"va_deg":-17.75}},{"type":"Feature","geometry":{"type":"Point","coordinates":[127.8382927,26.3430638]},"properties":{"name":"okinawa junction 26.3431:127.8383","vn_kv":132.0,"vm_pu":0.9984,"va_deg":-1.91}},{"type":"Feature","geometry":{"type":"Point","coordinates":[127.7958012,26.275044]},"properties":{"name":"okinawa junction 26.275:127.7958","vn_kv":132.0,"vm_pu":0.9986,"va_deg":-3.87}},{"type":"Feature","geometry":{"type":"Point","coordinates":[127.7378869,26.1637389]},"properties":{"name":"okinawa junction 26.1637:127.7379","vn_kv":66.0,"vm_pu":0.9828,"va_deg":-21.16}},{"type":"Feature","geometry":{"type":"Point","coordinates":[127.9316604,26.6764793]},"properties":{"name":"okinawa junction 26.6765:127.9317","vn_kv":66.0,"vm_pu":0.9899,"va_deg":-22.19}},{"type":"Feature","geometry":{"type":"Point","coordinates":[127.9645604,26.636723]},"properties":{"name":"okinawa junction 26.6367:127.9646","vn_kv":66.0,"vm_pu":0.9684,"va_deg":-19.81}},{"type":"Feature","geometry":{"type":"Point","coordinates":[127.8510413,26.3513802]},"properties":{"name":"okinawa junction 26.3514:127.851","vn_kv":132.0,"vm_pu":0.998,"va_deg":-1.37}},{"type":"Feature","geometry":{"type":"Point","coordinates":[127.8518888,26.3537717]},"properties":{"name":"okinawa junction 26.3538:127.8519","vn_kv":132.0,"vm_pu":0.9981,"va_deg":-1.28}},{"type":"Feature","geometry":{"type":"Point","coordinates":[127.9548588,26.6600127]},"properties":{"name":"okinawa junction 26.66:127.9549","vn_kv":66.0,"vm_pu":0.9752,"va_deg":-21.34}}]}