{"type":"FeatureCollection","features":[{"type":"Feature","geometry":{"type":"LineString","coordinates":[[127.67452473333333,26.19080983888889],[127.6734325,26.191337],[127.6724381,26.1925662],[127.6713165,26.193969],[127.6704318,26.1948687],[127.6693969,26.1959211],[127.6692537,26.1960667],[127.6695553,26.196973],[127.6695642,26.1969998],[127.6695884,26.1970727],[127.6698211,26.1977719],[127.6698647,26.1992819],[127.6698881,26.2000903],[127.6697514,26.2008798],[127.6696927,26.2012186],[127.6690638,26.2017561],[127.6690307,26.2017844],[127.6684131,26.2023122],[127.6674084,26.203131],[127.6670121,26.203454],[127.6660268,26.2043926],[127.6650314,26.2053853],[127.66402353181819,26.206119954545454]]},"properties":{"name":"okinawa_line_0","loading_pct":84.4,"p_mw":-106.9,"synthetic":false}},{"type":"Feature","geometry":{"type":"LineString","coordinates":[[127.67452473333333,26.19080983888889],[127.6741845,26.1907736],[127.6745778,26.1905958],[127.6746112,26.1905813],[127.6762143,26.1898873],[127.67632,26.1898451],[127.676359,26.1898295],[127.6763748,26.1898232],[127.6778162,26.1892477],[127.678873,26.1887677],[127.6798679,26.1883534],[127.6802124,26.1882147],[127.6815879,26.187661],[127.6835104,26.1869188],[127.6851357,26.1863202],[127.6865868,26.1858046],[127.6877018,26.1855224],[127.6881366,26.1854133],[127.6899775,26.185058],[127.6908941,26.1848922],[127.6925779,26.1845479],[127.6942386,26.184212],[127.6958839,26.1837904],[127.6975569,26.1837503],[127.6991467,26.1834143],[127.7001107,26.1823092],[127.7005331,26.1813103],[127.7017508,26.1805461],[127.7022739,26.1787648],[127.7024737,26.177104],[127.68764318333335,26.175396316666667]]},"properties":{"name":"okinawa_line_1","loading_pct":85.3,"p_mw":88.9,"synthetic":false}},{"type":"Feature","geometry":{"type":"LineString","coordinates":[[127.66402353181819,26.206119954545454],[127.6667783,26.2052699],[127.6667937,26.2052703],[127.6679196,26.2048262],[127.6694715,26.2042447],[127.6709481,26.2042172],[127.6718532,26.2044745],[127.6728806,26.2051518],[127.6733386,26.2056031],[127.6737187,26.2061292],[127.6742054,26.2071546],[127.67995471428571,26.20854825714286]]},"properties":{"name":"okinawa_line_2","loading_pct":83.2,"p_mw":-142.9,"synthetic":false}},{"type":"Feature","geometry":{"type":"LineString","coordinates":[[127.68764318333335,26.175396316666667],[127.7022739,26.1787648]]},"properties":{"name":"okinawa_line_3","loading_pct":26.2,"p_mw":18.0,"synthetic":false}},{"type":"Feature","geometry":{"type":"LineString","coordinates":[[127.68764318333335,26.175396316666667],[127.6998049,26.1837041],[127.7012587,26.1840482],[127.7024909,26.1843433],[127.7045605,26.1852012],[127.7056172,26.1856465],[127.7066848,26.1860821],[127.7081519,26.1869221],[127.7093147,26.1885997],[127.7107349,26.190743],[127.7117018,26.1921582],[127.7126379,26.1935048],[127.7126415,26.1935875],[127.7127291,26.1956155],[127.7128002,26.1970343],[127.71293817777779,26.1986037]]},"properties":{"name":"okinawa_line_4","loading_pct":52.5,"p_mw":36.0,"synthetic":false}},{"type":"Feature","geometry":{"type":"LineString","coordinates":[[127.7250493,26.2556281],[127.71931157692308,26.26866336923077]]},"properties":{"name":"okinawa_line_6","loading_pct":73.6,"p_mw":-202.0,"synthetic":false}},{"type":"Feature","geometry":{"type":"LineString","coordinates":[[127.71293817777779,26.1986037],[127.7196868,26.2110537]]},"properties":{"name":"okinawa_line_10","loading_pct":26.2,"p_mw":18.0,"synthetic":false}},{"type":"Feature","geometry":{"type":"LineString","coordinates":[[127.69219661428572,26.135709471428573],[127.691477,26.1373144],[127.691464,26.1373141],[127.6888154,26.1372489],[127.6861471,26.138697],[127.6845109,26.1391016],[127.6841488,26.1405993],[127.6838136,26.1420151],[127.6828587,26.1439871],[127.6799834,26.1449357],[127.6791438,26.1463058],[127.6784062,26.1498162],[127.6764214,26.1515256],[127.6756597,26.1533819],[127.6733637,26.1539405]]},"properties":{"name":"okinawa_line_14","loading_pct":52.5,"p_mw":36.0,"synthetic":false}},{"type":"Feature","geometry":{"type":"LineString","coordinates":[[127.73242752307692,26.1816581],[127.7328323,26.184467],[127.7345979,26.1867875],[127.7355649,26.1880756],[127.7366867,26.1899993],[127.7368495,26.1902785],[127.7382132,26.1934251],[127.7390383,26.1943346],[127.7393815,26.1968033],[127.7406147,26.1990066],[127.7417842,26.2013506],[127.7431153,26.2022336],[127.7452915,26.2030438],[127.7459711,26.2032639],[127.7469635,26.2036561],[127.7469635,26.2041134],[127.74757690555556,26.204024261111112]]},"properties":{"name":"okinawa_line_15","loading_pct":76.8,"p_mw":-133.3,"synthetic":false}},{"type":"Feature","geometry":{"type":"LineString","coordinates":[[127.9182225,26.4469446],[127.9184538,26.4472223],[127.9189822,26.4483751],[127.9191753,26.4495806],[127.91884,26.4515642],[127.9191163,26.4534805],[127.9187676,26.4553343],[127.9212272,26.4562684],[127.9232227,26.4575267],[127.9245397,26.4587058],[127.9270985,26.4590659],[127.9294455,26.4599208],[127.9300597,26.4623532],[127.9304439,26.4650427],[127.9317662,26.4669108],[127.9328887,26.4692686],[127.9334567,26.4721408],[127.9337101,26.4738791],[127.9339471,26.4756764],[127.9351948,26.477696],[127.9377561,26.4789524],[127.9404361,26.48027],[127.9431288,26.4813829],[127.9465059,26.4834624],[127.9487449,26.4848562],[127.9527898,26.4874652],[127.9549095,26.4887101],[127.9567953,26.4900234],[127.9594739,26.4919073],[127.9628713,26.4928437],[127.9657591,26.4936524],[127.9678837,26.4948334],[127.9716676,26.4969485],[127.9751808,26.4989183],[127.9776402,26.5002248],[127.99272556666666,26.508785083333333]]},"properties":{"name":"okinawa_line_17","loading_pct":26.2,"p_mw":-18.0,"synthetic":false}},{"type":"Feature","geometry":{"type":"LineString","coordinates":[[127.99272556666666,26.508785083333333],[127.99921683333334,26.515583449999998]]},"properties":{"name":"okinawa_line_18","loading_pct":52.5,"p_mw":-36.0,"synthetic":false}},{"type":"Feature","geometry":{"type":"LineString","coordinates":[[127.9713676,26.5362113],[127.9718421,26.5350723],[127.9728186,26.5337793]]},"properties":{"name":"okinawa_line_19","loading_pct":26.2,"p_mw":-18.0,"synthetic":false}},{"type":"Feature","geometry":{"type":"LineString","coordinates":[[127.9728186,26.5337793],[127.971105,26.5327809],[127.9679159,26.5322434],[127.9658452,26.5334193],[127.9633856,26.5333833],[127.9617763,26.5333952],[127.9586488,26.5327905],[127.9562402,26.5317826],[127.9542915,26.5319297],[127.93961664000001,26.535644689999998]]},"properties":{"name":"okinawa_line_20","loading_pct":80.0,"p_mw":-316.5,"synthetic":false}},{"type":"Feature","geometry":{"type":"LineString","coordinates":[[127.9728186,26.5337793],[127.9722151,26.5369792],[127.9738915,26.5390608],[127.9760105,26.5418395],[127.97866,26.5449706],[127.9796851,26.5467824],[127.9810369,26.5481261],[127.9830379,26.5499112],[127.9847987,26.5517107],[127.9859709,26.5537165],[127.9868935,26.5547506],[127.9886584,26.556778],[127.9887389,26.5593139],[127.9900934,26.5612452],[127.9916706,26.5634068],[127.9943957,26.5659186],[127.9955168,26.56838],[127.9976438,26.5709469],[127.997566,26.5734537],[127.99077056666667,26.587020222222222]]},"properties":{"name":"okinawa_line_21","loading_pct":80.0,"p_mw":280.5,"synthetic":false}},{"type":"Feature","geometry":{"type":"LineString","coordinates":[[127.99077056666667,26.587020222222222],[128.0000675,26.5990563]]},"properties":{"name":"okinawa_line_23","loading_pct":80.0,"p_mw":262.5,"synthetic":false}},{"type":"Feature","geometry":{"type":"LineString","coordinates":[[128.0000675,26.5990563],[127.9994076,26.6003226],[127.98761675714286,26.610302938095238]]},"properties":{"name":"okinawa_line_24","loading_pct":80.0,"p_mw":178.8,"synthetic":false}},{"type":"Feature","geometry":{"type":"LineString","coordinates":[[128.0000675,26.5990563],[128.0020952,26.5972431],[128.0035812,26.5947872],[128.0062365,26.5929836],[128.0089188,26.5911799],[128.0110645,26.5895537],[128.0127275,26.5883928],[128.0123252,26.5858455],[128.0116707,26.5833989],[128.0109787,26.5790669],[128.0117404,26.5764954],[128.0117083,26.5742021],[128.0097449,26.5712899],[128.0098093,26.5683392],[128.0099165,26.5649998],[128.0100399,26.5628838],[128.0105871,26.5599329],[128.0105603,26.5566508],[128.0119067,26.5546642],[128.0143154,26.5529895],[128.0178183,26.551526],[128.01961,26.5495105],[128.0223464,26.5469992],[128.0247184,26.545959],[128.0261466,26.5447604],[128.028506,26.5428118],[128.0298179,26.5418077],[128.0308738,26.5408896],[128.0323779,26.5394271],[128.0345982,26.537305],[128.0371072,26.5355033],[128.0375702,26.5324774],[128.0355771,26.5290435],[128.0347547,26.5282379],[128.0339654,26.5264291],[128.03434056666666,26.52546175]]},"properties":{"name":"okinawa_line_25","loading_pct":95.9,"p_mw":65.8,"synthetic":false}},{"type":"Feature","geometry":{"type":"LineString","coordinates":[[127.9180214,26.4470407],[127.9181689,26.4473289],[127.9162592,26.4481454],[127.9100606,26.4494229],[127.9069554,26.4531444],[127.9044914,26.4537411],[127.9014993,26.4539827],[127.8986102,26.4547973],[127.8964376,26.4557002],[127.894544,26.456531],[127.8922373,26.458015],[127.8905314,26.458284],[127.8886378,26.4585673],[127.8722359,26.4597375]]},"properties":{"name":"okinawa_line_26","loading_pct":4.6,"p_mw":-12.6,"synthetic":false}},{"type":"Feature","geometry":{"type":"LineString","coordinates":[[127.8722359,26.4597375],[127.9181689,26.4473289],[127.9162592,26.4481454],[127.9100606,26.4494229],[127.9069554,26.4531444],[127.9044914,26.4537411],[127.9014993,26.4539827],[127.8986102,26.4547973],[127.8964376,26.4557002],[127.894544,26.456531],[127.8922373,26.458015],[127.8905314,26.458284],[127.8886378,26.4585673],[127.8866422,26.4594222],[127.8839064,26.4605988],[127.8816962,26.4615929],[127.8788853,26.4621692],[127.8745723,26.4619867],[127.8716701,26.4620491],[127.869004,26.461857],[127.8664023,26.4612999],[127.8632373,26.4606612],[127.8610271,26.4604067],[127.8586829,26.4602674],[127.85496,26.4590956],[127.8523529,26.4582936],[127.8497028,26.4556858],[127.8481954,26.4542546],[127.8467363,26.4526745],[127.83872885000001,26.44281275]]},"properties":{"name":"okinawa_line_27","loading_pct":9.2,"p_mw":-25.2,"synthetic":false}},{"type":"Feature","geometry":{"type":"LineString","coordinates":[[127.826339115,26.391921294999996],[127.8353906,26.3797476],[127.838451,26.3773327],[127.8372145,26.3756602],[127.8391966,26.3735744],[127.840873,26.370782],[127.8415221,26.367843],[127.8420076,26.3654447],[127.8426191,26.362592],[127.8446388,26.3604651],[127.8457949,26.359636],[127.8485709,26.3578455],[127.8509554,26.3556896],[127.8518888,26.3537717]]},"properties":{"name":"okinawa_line_33","loading_pct":27.6,"p_mw":-75.8,"synthetic":false}},{"type":"Feature","geometry":{"type":"LineString","coordinates":[[127.8069393625,26.3543070625],[127.8051594,26.3525844],[127.8038961,26.3508106],[127.7996662,26.3448401],[127.7984565,26.3429316],[127.7975205,26.3415712],[127.7964047,26.339689],[127.7939692,26.3377372],[127.7911395,26.3372709],[127.7886558,26.3375617],[127.7863437,26.3351843],[127.7837098,26.3341339],[127.7814379,26.3328838],[127.7821031,26.330742],[127.7830821,26.3283284],[127.7841389,26.3261167],[127.7850804,26.3242055],[127.78629,26.3229193],[127.7878833,26.3220226],[127.7879369,26.3209576],[127.7872143,26.3194482],[127.7867353,26.3182938],[127.7873522,26.3168897],[127.7883098,26.3159304],[127.7886182,26.313858],[127.787658,26.3121221],[127.78165586666667,26.307242244444446]]},"properties":{"name":"okinawa_line_36","loading_pct":69.0,"p_mw":94.6,"synthetic":false}},{"type":"Feature","geometry":{"type":"LineString","coordinates":[[127.8115115,26.304452716666663],[127.8106096,26.3187097],[127.812911,26.3208037],[127.8147295,26.322501],[127.8156468,26.32378],[127.8172508,26.3250614],[127.8196809,26.3266672],[127.8220707,26.3284053],[127.8249031,26.3330233],[127.8257453,26.3352925],[127.8278348,26.3367636],[127.8294548,26.3387564],[127.833049,26.3401746],[127.834556,26.341034],[127.8370455,26.3422826],[127.8382927,26.3430638]]},"properties":{"name":"okinawa_line_38","loading_pct":63.3,"p_mw":-173.7,"synthetic":false}},{"type":"Feature","geometry":{"type":"LineString","coordinates":[[127.8115115,26.304452716666663],[127.8128573,26.290284],[127.8118381,26.2873045],[127.8111675,26.2853518],[127.8104004,26.2835265],[127.8112453,26.2829829],[127.8100839,26.2831489],[127.80826,26.2822062],[127.8059345,26.2809027],[127.8040838,26.2804385],[127.800023,26.277959],[127.798883,26.2771677],[127.7971047,26.2758233],[127.7958012,26.275044]]},"properties":{"name":"okinawa_line_39","loading_pct":84.3,"p_mw":231.2,"synthetic":false}},{"type":"Feature","geometry":{"type":"LineString","coordinates":[[127.8382927,26.3430638],[127.838687,26.3466597],[127.840063,26.3494382],[127.8426862,26.3509644],[127.8450733,26.3511952],[127.8474015,26.3513298],[127.8510413,26.3513802]]},"properties":{"name":"okinawa_line_40","loading_pct":74.4,"p_mw":-204.2,"synthetic":false}},{"type":"Feature","geometry":{"type":"LineString","coordinates":[[127.82292558888889,26.4118603],[127.81519551428572,26.433013814285715]]},"properties":{"name":"okinawa_line_42","loading_pct":45.3,"p_mw":-62.1,"synthetic":false}},{"type":"Feature","geometry":{"type":"LineString","coordinates":[[127.81519551428572,26.433013814285715],[127.8173661,26.4348596],[127.8195173,26.437343],[127.8227225,26.4396006],[127.8253967,26.4418269],[127.8285107,26.4431021],[127.8315335,26.4443485],[127.8345942875,26.441843075]]},"properties":{"name":"okinawa_line_43","loading_pct":58.4,"p_mw":-80.1,"synthetic":false}},{"type":"Feature","geometry":{"type":"LineString","coordinates":[[127.75916895217391,26.23577952173913],[127.75352676,26.23686292]]},"properties":{"name":"okinawa_line_45","loading_pct":9.1,"p_mw":24.8,"synthetic":false}},{"type":"Feature","geometry":{"type":"LineString","coordinates":[[127.71931157692308,26.26866336923077],[127.7362937,26.2696084],[127.7368382,26.2697936],[127.7374443,26.2700654],[127.7378891,26.2703491],[127.7386541,26.2710161],[127.7390572,26.2717634],[127.7397844,26.2732116],[127.7404492,26.2740305],[127.7435115,26.276754],[127.7556547,26.285685820000005]]},"properties":{"name":"okinawa_line_49","loading_pct":79.0,"p_mw":-216.8,"synthetic":false}},{"type":"Feature","geometry":{"type":"LineString","coordinates":[[127.70907395,26.25931435],[127.710126,26.2585945],[127.7100253,26.2581816],[127.7096444,26.2578301],[127.7075291,26.2557926],[127.7067786,26.2550723],[127.7065448,26.254874],[127.7039814,26.252368],[127.7034375,26.2518743],[127.7028867,26.2514502],[127.7021829,26.2509601],[127.7010807,26.2502759],[127.6989286,26.2488509],[127.6981956,26.2482339],[127.6968947,26.2467207],[127.6965954,26.2465384],[127.6959263,26.2461309],[127.688380725,26.241629425]]},"properties":{"name":"okinawa_line_50","loading_pct":81.4,"p_mw":322.8,"synthetic":false}},{"type":"Feature","geometry":{"type":"LineString","coordinates":[[127.75597053333333,26.28592226666667],[127.7555332,26.2838752],[127.7554044,26.2829469],[127.7545997,26.2823432],[127.7531674,26.2811865],[127.7515393,26.2798469],[127.7501446,26.278844],[127.7556547,26.285685820000005]]},"properties":{"name":"okinawa_line_53","loading_pct":83.6,"p_mw":229.4,"synthetic":false}},{"type":"Feature","geometry":{"type":"LineString","coordinates":[[127.7378869,26.1637389],[127.7396884,26.1654601],[127.7418753,26.166192],[127.744351,26.1657467],[127.7474087,26.1666952],[127.7505335,26.1668203],[127.7532989,26.1673596],[127.7545148,26.167424],[127.7570191,26.1676629],[127.7604416,26.1679301],[127.763589,26.1670278],[127.7647626,26.1656769],[127.7662083,26.1642734],[127.7682441,26.1639724],[127.7710363,26.1636619],[127.78758017777778,26.159644166666666]]},"properties":{"name":"okinawa_line_54","loading_pct":43.4,"p_mw":29.8,"synthetic":false}},{"type":"Feature","geometry":{"type":"LineString","coordinates":[[127.7378869,26.1637389],[127.7380747,26.1617287],[127.7388659,26.1587411],[127.7397725,26.1570655],[127.7395472,26.1543594],[127.7393541,26.1519301],[127.7403594,26.150547],[127.7406228,26.1501846],[127.7414891,26.1485931],[127.7423421,26.1460289],[127.7437609,26.1441219],[127.7442652,26.1419982],[127.75140372000001,26.12800266]]},"properties":{"name":"okinawa_line_55","loading_pct":26.2,"p_mw":18.0,"synthetic":false}},{"type":"Feature","geometry":{"type":"LineString","coordinates":[[127.9316604,26.6764793],[127.9295307,26.6741425],[127.9294878,26.6727524],[127.9283613,26.6713095],[127.9286241,26.6704131],[127.9285544,26.6683086],[127.927503,26.666789],[127.9251212,26.6663719],[127.9231685,26.6667171],[127.9208136,26.6670143],[127.9185015,26.6674218],[127.9065965125,26.657140725]]},"properties":{"name":"okinawa_line_56","loading_pct":17.2,"p_mw":11.8,"synthetic":false}},{"type":"Feature","geometry":{"type":"LineString","coordinates":[[127.9316604,26.6764793],[127.9329076,26.677994],[127.9312554,26.6808388],[127.9298902,26.6824589],[127.9270148,26.6854642],[127.9245257,26.6860369],[127.9198748,26.6874628],[127.9171953,26.6890325],[127.913298,26.6902883],[127.9108867,26.6909904],[127.9088375,26.692735],[127.9061231,26.6950378],[127.9035348,26.6971921],[127.900764,26.6975468],[127.8979558,26.6978679],[127.894941,26.6973982],[127.88084498333335,26.6921851]]},"properties":{"name":"okinawa_line_57","loading_pct":9.8,"p_mw":-6.7,"synthetic":false}},{"type":"Feature","geometry":{"type":"LineString","coordinates":[[127.9316604,26.6764793],[127.9336801,26.6752713],[127.9355791,26.673934],[127.9365554,26.6728914],[127.9392832,26.6723401],[127.942577,26.6712711],[127.9450929,26.6705233],[127.9470134,26.6686082],[127.9489017,26.6665229],[127.9505968,26.6641955],[127.952469,26.6621485],[127.9548588,26.6600127]]},"properties":{"name":"okinawa_line_58","loading_pct":33.6,"p_mw":-23.1,"synthetic":false}},{"type":"Feature","geometry":{"type":"LineString","coordinates":[[127.688380725,26.241629425],[127.68647898333334,26.22736865]]},"properties":{"name":"okinawa_line_59","loading_pct":81.5,"p_mw":304.8,"synthetic":false}},{"type":"Feature","geometry":{"type":"LineString","coordinates":[[127.68647898333334,26.22736865],[127.68647935714286,26.227339642857142]]},"properties":{"name":"okinawa_line_60","loading_pct":81.6,"p_mw":286.8,"synthetic":false}},{"type":"Feature","geometry":{"type":"LineString","coordinates":[[127.68647935714286,26.227339642857142],[127.6835070375,26.219869850000002]]},"properties":{"name":"okinawa_line_61","loading_pct":81.7,"p_mw":268.8,"synthetic":false}},{"type":"Feature","geometry":{"type":"LineString","coordinates":[[127.6835070375,26.219869850000002],[127.681165,26.2213592],[127.68021178000001,26.221735920000004]]},"properties":{"name":"okinawa_line_62","loading_pct":26.2,"p_mw":18.0,"synthetic":false}},{"type":"Feature","geometry":{"type":"LineString","coordinates":[[127.6835070375,26.219869850000002],[127.6832603,26.2182044]]},"properties":{"name":"okinawa_line_63","loading_pct":82.0,"p_mw":232.9,"synthetic":false}},{"type":"Feature","geometry":{"type":"LineString","coordinates":[[127.98761675714286,26.610302938095238],[127.9807717,26.624869],[127.9795164,26.6271205],[127.977671,26.6282426],[127.9744416,26.6300145],[127.9720572,26.6331243],[127.969957,26.634148],[127.9676852,26.6352581],[127.9645604,26.636723]]},"properties":{"name":"okinawa_line_64","loading_pct":80.0,"p_mw":95.0,"synthetic":false}},{"type":"Feature","geometry":{"type":"LineString","coordinates":[[127.98761675714286,26.610302938095238],[128.0019638,26.6026034],[128.0031198,26.6041358],[128.0037662,26.605251],[128.0053407,26.6061647],[128.0086827,26.6076012],[128.0115956,26.6085653],[128.0129877,26.6091025],[128.0150396,26.6103854],[128.0181858,26.6123111],[128.022429,26.6140161],[128.0251273,26.6157786],[128.0281985,26.6177689],[128.0294135,26.6187473],[128.030929,26.6204162],[128.0331257,26.6216775],[128.0356657,26.6232912],[128.0390695,26.6260655],[128.0407029,26.627015],[128.0442783,26.6284776],[128.0460754,26.6288325],[128.049278,26.6307098],[128.0521104,26.6319303],[128.0534971,26.6334408],[128.0555543,26.6344957],[128.057971,26.6350232],[128.0610931,26.6356393],[128.0627722,26.635987],[128.0665782,26.6379242],[128.0684933,26.6388352],[128.0706149,26.6380201],[128.0725434,26.6372912],[128.0771568,26.6368237],[128.0779286,26.6368059],[128.0782941,26.6367974],[128.081612,26.6362267],[128.0837443,26.6371882],[128.0860564,26.6380321],[128.087942,26.6387585],[128.0912009,26.6397463],[128.0938616,26.6395233],[128.0964902,26.6395545],[128.0985743,26.6418393],[128.102206,26.6435175],[128.1058055,26.6442942],[128.1093326,26.6450877],[128.111591,26.6460107],[128.1132004,26.6465861],[128.116065,26.6473724],[128.1182376,26.6480652],[128.1204209,26.6498464],[128.1219336,26.6514454],[128.1239158,26.653133],[128.1263915,26.6546073],[128.1279525,26.6555062],[128.1295278,26.6574367875]]},"properties":{"name":"okinawa_line_65","loading_pct":95.9,"p_mw":65.8,"synthetic":false}},{"type":"Feature","geometry":{"type":"LineString","coordinates":[[127.9645604,26.636723],[127.9626936,26.6388736],[127.9624709,26.6412663],[127.9615134,26.6428702],[127.9622591,26.6458141],[127.9627204,26.6485039],[127.9609126,26.6506567],[127.9577824,26.6515892],[127.9550841,26.6532385],[127.9548776,26.6548973],[127.955001,26.6573664],[127.9548588,26.6600127]]},"properties":{"name":"okinawa_line_66","loading_pct":86.1,"p_mw":59.0,"synthetic":false}},{"type":"Feature","geometry":{"type":"LineString","coordinates":[[127.9645604,26.636723],[127.963914,26.6343662],[127.9621196,26.6327766],[127.9620284,26.6317456],[127.9631093,26.6308681],[127.962369,26.6288468],[127.9610628,26.6268783],[127.9602152,26.6246364],[127.9608133,26.6227134],[127.9592389,26.6212842],[127.9567739,26.6193276],[127.9554623,26.617402],[127.9523429,26.6169224],[127.9512781,26.6159537],[127.93694794999999,26.611571683333334]]},"properties":{"name":"okinawa_line_67","loading_pct":26.2,"p_mw":18.0,"synthetic":false}},{"type":"Feature","geometry":{"type":"LineString","coordinates":[[127.8510413,26.3513802],[127.8517225,26.3522431],[127.8518888,26.3537717]]},"properties":{"name":"okinawa_line_68","loading_pct":85.6,"p_mw":-234.8,"synthetic":false}},{"type":"Feature","geometry":{"type":"LineString","coordinates":[[127.8518888,26.3537717],[127.8541124,26.3541803],[127.8553972,26.3542644],[127.856985,26.3543197],[127.8580311,26.356353],[127.8596136,26.3563818],[127.8620785,26.3560934],[127.8636476,26.3568625],[127.8629261,26.3588068],[127.8644147,26.3590015],[127.8639883,26.3610996],[127.8656512,26.3633466],[127.8654823,26.3658868],[127.867282,26.3673816],[127.8677407,26.3684895],[127.87361114000001,26.38122156]]},"properties":{"name":"okinawa_line_70","loading_pct":80.3,"p_mw":-323.2,"synthetic":false}},{"type":"Feature","geometry":{"type":"LineString","coordinates":[[127.9548588,26.6600127],[127.9588178,26.6603028],[127.9615778,26.6610099],[127.9642814,26.662532],[127.9657459,26.6638408],[127.97858872857144,26.674391042857142]]},"properties":{"name":"okinawa_line_71","loading_pct":26.2,"p_mw":18.0,"synthetic":false}},{"type":"Feature","geometry":{"type":"LineString","coordinates":[[127.67995471428571,26.20854825714286],[127.6832603,26.2182044]]},"properties":{"name":"okinawa_line_72","loading_pct":82.6,"p_mw":-178.9,"synthetic":false}},{"type":"Feature","geometry":{"type":"LineString","coordinates":[[127.99921683333334,26.515583449999998],[128.013414,26.5222264],[128.0161123,26.5227484],[128.0185988,26.5232198],[128.03434056666666,26.52546175]]},"properties":{"name":"okinawa_line_73","loading_pct":78.7,"p_mw":-54.0,"synthetic":false}},{"type":"Feature","geometry":{"type":"LineString","coordinates":[[128.2669587,26.6714748],[128.2646674,26.6718811],[128.2628375,26.6741724],[128.2596658,26.6734557],[128.2594857,26.6716036],[128.2585993,26.6697702],[128.2569551,26.6683949],[128.2559098,26.6647274],[128.2544469,26.6613841],[128.2520042,26.6592717],[128.2510989,26.6573065],[128.2503444,26.6554935],[128.2494061,26.6530745],[128.2472067,26.6504027],[128.2447983,26.6495061],[128.2433074,26.6470994],[128.2411741,26.6448837],[128.2409178,26.6423242],[128.2403688,26.6403783],[128.2378031,26.638777],[128.2351695,26.6370501],[128.2338683,26.6367134],[128.2317637,26.6369195],[128.2308326,26.6359361],[128.2288476,26.6356127],[128.227104,26.6333563],[128.2245922,26.6335484],[128.2226731,26.6346466],[128.219934,26.6346006],[128.2176988,26.6343924],[128.21627,26.6347337],[128.2140178,26.6358268],[128.2122544,26.636698],[128.2097546,26.6376105],[128.2069095,26.639267],[128.205066,26.6391611],[128.2023028,26.637796],[128.2006526,26.636885],[128.1972099,26.6347845],[128.195491,26.6336053],[128.1932001,26.6338311],[128.1905331,26.6349326],[128.1884023,26.6348225],[128.1853266,26.6347353],[128.1833063,26.6357942],[128.1804249,26.6363079],[128.1778238,26.6355382],[128.1760675,26.636486],[128.1727943,26.6378183],[128.1711906,26.6383939],[128.1688825,26.638627],[128.1653805,26.6399033],[128.1640067,26.6403919],[128.1617204,26.6414092],[128.1591613,26.6417733],[128.1568481,26.6415479],[128.1545609,26.6409153],[128.1521707,26.6406754],[128.1496116,26.6404149],[128.146984,26.6401475],[128.1442119,26.6407417],[128.1425508,26.6417715],[128.1401026,26.643118],[128.1380871,26.6445773]]},"properties":{"name":"okinawa_line_74","loading_pct":10.0,"p_mw":-6.8,"synthetic":false}},{"type":"Feature","geometry":{"type":"LineString","coordinates":[[128.1696252857143,26.730943599999996],[128.2646674,26.6718811],[128.2628375,26.6741724],[128.2596658,26.6734557],[128.2594857,26.6716036],[128.2585993,26.6697702],[128.2569551,26.6683949],[128.2559098,26.6647274],[128.2544469,26.6613841],[128.2520042,26.6592717],[128.2510989,26.6573065],[128.2503444,26.6554935],[128.2494061,26.6530745],[128.2472067,26.6504027],[128.2447983,26.6495061],[128.2433074,26.6470994],[128.2411741,26.6448837],[128.2409178,26.6423242],[128.2403688,26.6403783],[128.2378031,26.638777],[128.2351695,26.6370501],[128.2338683,26.6367134],[128.2317637,26.6369195],[128.2308326,26.6359361],[128.2288476,26.6356127],[128.227104,26.6333563],[128.2245922,26.6335484],[128.2226731,26.6346466],[128.219934,26.6346006],[128.2176988,26.6343924],[128.21627,26.6347337],[128.2140178,26.6358268],[128.2122544,26.636698],[128.2097546,26.6376105],[128.2069095,26.639267],[128.205066,26.6391611],[128.2023028,26.637796],[128.2006526,26.636885],[128.1972099,26.6347845],[128.195491,26.6336053],[128.1932001,26.6338311],[128.1905331,26.6349326],[128.1884023,26.6348225],[128.1853266,26.6347353],[128.1833063,26.6357942],[128.1804249,26.6363079],[128.1778238,26.6355382],[128.1760675,26.636486],[128.1727943,26.6378183],[128.1711906,26.6383939],[128.1688825,26.638627],[128.1653805,26.6399033],[128.1640067,26.6403919],[128.1617204,26.6414092],[128.1591613,26.6417733],[128.1568481,26.6415479],[128.1545609,26.6409153],[128.1521707,26.6406754],[128.1496116,26.6404149],[128.146984,26.6401475],[128.1442119,26.6407417],[128.1425508,26.6417715],[128.1401026,26.643118],[128.1295278,26.6574367875]]},"properties":{"name":"recon_line_9_35","loading_pct":26.2,"p_mw":-18.0,"synthetic":true}},{"type":"Feature","geometry":{"type":"LineString","coordinates":[[127.66236887272727,26.16422818181818],[127.6733637,26.1539405]]},"properties":{"name":"recon_line_15_71","loading_pct":26.2,"p_mw":-18.0,"synthetic":true}},{"type":"Feature","geometry":{"type":"LineString","coordinates":[[125.36295709999999,24.74434088],[127.6832603,26.2182044]]},"properties":{"name":"recon_line_48_0","loading_pct":26.2,"p_mw":-18.0,"synthetic":true}},{"type":"Feature","geometry":{"type":"LineString","coordinates":[[127.6898627,26.2017538],[127.67995471428571,26.20854825714286]]},"properties":{"name":"recon_line_51_49","loading_pct":26.2,"p_mw":-18.0,"synthetic":true}},{"type":"Feature","geometry":{"type":"LineString","coordinates":[[124.08281856,24.33090818],[127.6832603,26.2182044]]},"properties":{"name":"recon_line_52_0","loading_pct":26.2,"p_mw":-18.0,"synthetic":true}},{"type":"Feature","geometry":{"type":"LineString","coordinates":[[127.81938098,26.174096580000004],[127.78758017777778,26.159644166666666]]},"properties":{"name":"recon_line_54_32","loading_pct":26.2,"p_mw":-18.0,"synthetic":true}},{"type":"Feature","geometry":{"type":"LineString","coordinates":[[127.65853901999999,26.194423719999996],[127.66402353181819,26.206119954545454]]},"properties":{"name":"recon_line_55_22","loading_pct":26.2,"p_mw":-18.0,"synthetic":true}},{"type":"Feature","geometry":{"type":"LineString","coordinates":[[127.75687207142857,26.3255255],[127.78165586666667,26.307242244444446]]},"properties":{"name":"recon_line_56_25","loading_pct":26.2,"p_mw":-18.0,"synthetic":true}},{"type":"Feature","geometry":{"type":"LineString","coordinates":[[127.72365649999999,26.232293557142857],[127.70300098571428,26.229641828571427]]},"properties":{"name":"recon_line_57_47","loading_pct":26.2,"p_mw":-18.0,"synthetic":true}},{"type":"Feature","geometry":{"type":"LineString","coordinates":[[128.2669587,26.6714748],[128.1295278,26.6574367875]]},"properties":{"name":"recon_line_78_35","loading_pct":16.3,"p_mw":-11.2,"synthetic":true}},{"type":"Feature","geometry":{"type":"LineString","coordinates":[[128.1380871,26.6445773],[128.1295278,26.6574367875]]},"properties":{"name":"recon_line_79_35","loading_pct":36.2,"p_mw":-24.8,"synthetic":true}},{"type":"Feature","geometry":{"type":"LineString","coordinates":[[127.71922808888888,26.165907322222225],[127.7191034,26.1651617],[127.7183068,26.1661222],[127.7166706,26.1670189],[127.7151968,26.1673235],[127.7134748,26.1677086],[127.7120881,26.1684429],[127.7097854,26.1697909],[127.7071689,26.1714892],[127.70494,26.1730587],[127.68764318333335,26.175396316666667]]},"properties":{"name":"trafo_132/66kV","loading_pct":11.3,"p_mw":-17.0,"is_trafo":true}},{"type":"Feature","geometry":{"type":"LineString","coordinates":[[127.7250493,26.2556281],[127.7264258,26.2543874],[127.7272722,26.2533843],[127.7280834,26.2526506],[127.7294554,26.2515597],[127.7307522,26.2507598],[127.7324286,26.2496941],[127.7338086,26.2485695],[127.7354836,26.2476157],[127.737865,26.2458642],[127.74284722,26.243005410000002]]},"properties":{"name":"trafo_132/66kV","loading_pct":3.8,"p_mw":5.7,"is_trafo":true}},{"type":"Feature","geometry":{"type":"LineString","coordinates":[[127.7250493,26.2556281],[127.7185911,26.2683337],[127.717451,26.2683661],[127.7171947,26.2683734],[127.7166465,26.268389],[127.7146187,26.2688965],[127.7137551,26.2678935],[127.7125749,26.2673307],[127.7116656,26.2660968],[127.7096969,26.2646921],[127.7089459,26.2634678],[127.70907395,26.25931435]]},"properties":{"name":"trafo_132/66kV","loading_pct":80.7,"p_mw":183.6,"is_trafo":true}},{"type":"Feature","geometry":{"type":"LineString","coordinates":[[127.75352676,26.23686292],[127.74284722,26.243005410000002]]},"properties":{"name":"trafo_132/66kV","loading_pct":8.2,"p_mw":12.2,"is_trafo":true}},{"type":"Feature","geometry":{"type":"LineString","coordinates":[[127.71922808888888,26.165907322222225],[127.720179,26.1673138],[127.7220994,26.1673379],[127.7232957,26.1677303],[127.7247013,26.1684199],[127.7256265,26.1688738],[127.7270803,26.171411],[127.7264691,26.1734105],[127.7285684,26.1750845],[127.730649,26.1783505],[127.7316087,26.1809518],[127.73242752307692,26.1816581]]},"properties":{"name":"trafo_132/66kV","loading_pct":76.9,"p_mw":-115.4,"is_trafo":true}},{"type":"Feature","geometry":{"type":"LineString","coordinates":[[127.71922808888888,26.165907322222225],[127.7199019,26.1648362],[127.7188835,26.1626387],[127.7176309,26.1600146],[127.7175128,26.1579009],[127.7168101,26.1553778],[127.7161825,26.1538779],[127.7139321,26.1513691],[127.7123657,26.1490144],[127.7104104,26.1470546],[127.7074948,26.1469221],[127.7043171,26.147106],[127.7017544,26.1458255],[127.700052,26.1431199],[127.6976479,26.1414675],[127.6953728,26.1401934],[127.6939492,26.138205],[127.69219661428572,26.135709471428573]]},"properties":{"name":"trafo_132/66kV","loading_pct":36.0,"p_mw":54.0,"is_trafo":true}},{"type":"Feature","geometry":{"type":"LineString","coordinates":[[127.71922808888888,26.165907322222225],[127.720179,26.1673138],[127.7220994,26.1673379],[127.7232957,26.1677303],[127.7247013,26.1684199],[127.7256265,26.1688738],[127.7270803,26.171411],[127.7264691,26.1734105],[127.7285684,26.1750845],[127.730649,26.1783505],[127.7316087,26.1809518],[127.7378869,26.1637389]]},"properties":{"name":"trafo_132/66kV","loading_pct":43.9,"p_mw":65.8,"is_trafo":true}},{"type":"Feature","geometry":{"type":"LineString","coordinates":[[127.75916895217391,26.23577952173913],[127.7580665,26.2336969],[127.7580242,26.2332362],[127.7579897,26.2328594],[127.7579136,26.2320296],[127.7582677,26.2301517],[127.7580786,26.228512],[127.7583173,26.2270395],[127.7581644,26.2257968],[127.7581081,26.2240824],[127.7569708,26.2223355],[127.7555962,26.2204816],[127.7529381,26.2170587],[127.7542913,26.2145946],[127.7550155,26.2129703],[127.7538984,26.2112642],[127.7529971,26.2094931],[127.7517432,26.2071817],[127.7482255,26.2043215],[127.74757690555556,26.204024261111112]]},"properties":{"name":"trafo_132/66kV","loading_pct":77.2,"p_mw":151.3,"is_trafo":true}},{"type":"Feature","geometry":{"type":"LineString","coordinates":[[127.83872885000001,26.44281275],[127.93961664000001,26.535644689999998]]},"properties":{"name":"trafo_132/66kV","loading_pct":80.0,"p_mw":334.5,"is_trafo":true}},{"type":"Feature","geometry":{"type":"LineString","coordinates":[[127.83872885000001,26.44281275],[127.8368899,26.4406045],[127.8345942875,26.441843075]]},"properties":{"name":"trafo_132/66kV","loading_pct":58.2,"p_mw":-87.4,"is_trafo":true}},{"type":"Feature","geometry":{"type":"LineString","coordinates":[[127.83872885000001,26.44281275],[127.82627025833334,26.456100683333332]]},"properties":{"name":"trafo_132/66kV","loading_pct":12.0,"p_mw":18.0,"is_trafo":true}},{"type":"Feature","geometry":{"type":"LineString","coordinates":[[127.826339115,26.391921294999996],[127.829538,26.3907428],[127.8322658,26.3897938],[127.8331799,26.3899536],[127.8346476,26.3902599],[127.8369248,26.3903368],[127.840299,26.3905314],[127.8439602,26.3911297],[127.8473479,26.3923526],[127.8503707,26.3933257],[127.85296248571429,26.393099142857146]]},"properties":{"name":"trafo_132/66kV","loading_pct":11.4,"p_mw":-17.1,"is_trafo":true}},{"type":"Feature","geometry":{"type":"LineString","coordinates":[[127.826339115,26.391921294999996],[127.8280038,26.3944213],[127.827293,26.3966364],[127.8240743,26.3968719],[127.822862,26.3986954],[127.822473,26.4015015],[127.8224766,26.4016821],[127.8225321,26.4044301],[127.82292558888889,26.4118603]]},"properties":{"name":"trafo_132/66kV","loading_pct":29.4,"p_mw":-44.1,"is_trafo":true}},{"type":"Feature","geometry":{"type":"LineString","coordinates":[[127.826339115,26.391921294999996],[127.8265902,26.3859133],[127.8258204,26.3836523],[127.8244123,26.3817781],[127.8221673,26.3798726],[127.8202146,26.3786303],[127.8179964,26.3759918],[127.8166366,26.3744563],[127.8150031,26.3717192],[127.8143138,26.3688403],[127.8137881,26.366317],[127.8113312,26.3655312],[127.8115886,26.3631279],[127.810151,26.3605781],[127.8096333,26.3588044],[127.808311,26.3563337],[127.8069393625,26.3543070625]]},"properties":{"name":"trafo_132/66kV","loading_pct":71.0,"p_mw":106.5,"is_trafo":true}},{"type":"Feature","geometry":{"type":"LineString","coordinates":[[127.826339115,26.391921294999996],[127.7645641,26.3673173]]},"properties":{"name":"trafo_132/66kV","loading_pct":12.0,"p_mw":18.0,"is_trafo":true}},{"type":"Feature","geometry":{"type":"LineString","coordinates":[[127.87361114000001,26.38122156],[127.8740332,26.3815258],[127.872,26.3828089],[127.8704631,26.3855409],[127.8700769,26.3873406],[127.8674,26.3883593],[127.8660724,26.3871844],[127.8620276,26.3863723],[127.8593829,26.3861656],[127.8585595,26.3881743],[127.8577629,26.3898586],[127.8555715,26.3914396],[127.8541794,26.392749],[127.85296248571429,26.393099142857146]]},"properties":{"name":"trafo_132/66kV","loading_pct":23.4,"p_mw":35.1,"is_trafo":true}},{"type":"Feature","geometry":{"type":"LineString","coordinates":[[127.8115115,26.304452716666663],[127.7956831,26.2762778],[127.7961177,26.2786636],[127.7956939,26.2804722],[127.7961123,26.2822759],[127.795549,26.2843922],[127.7946049,26.2850175],[127.7931055,26.2861959],[127.7906916,26.2879394],[127.788645,26.2894279],[127.7873334,26.2900628],[127.7876848,26.291496],[127.78165586666667,26.307242244444446]]},"properties":{"name":"trafo_132/66kV","loading_pct":88.7,"p_mw":183.4,"is_trafo":true}},{"type":"Feature","geometry":{"type":"LineString","coordinates":[[127.8382927,26.3430638],[127.8538629,26.3300016]]},"properties":{"name":"trafo_132/66kV","loading_pct":12.0,"p_mw":18.0,"is_trafo":true}},{"type":"Feature","geometry":{"type":"LineString","coordinates":[[127.75916895217391,26.23577952173913],[127.760793,26.2341384],[127.7617505,26.2333854],[127.764945,26.2331616],[127.7672517,26.2330413],[127.7701807,26.2320164],[127.7718732,26.232577],[127.77264026,26.23184748]]},"properties":{"name":"trafo_132/66kV","loading_pct":79.0,"p_mw":-188.8,"is_trafo":true}},{"type":"Feature","geometry":{"type":"LineString","coordinates":[[127.7958012,26.275044],[127.77264026,26.23184748]]},"properties":{"name":"trafo_132/66kV","loading_pct":79.1,"p_mw":200.6,"is_trafo":true}},{"type":"Feature","geometry":{"type":"LineString","coordinates":[[127.7958012,26.275044],[127.7926576,26.2975751]]},"properties":{"name":"trafo_132/66kV","loading_pct":12.0,"p_mw":18.0,"is_trafo":true}},{"type":"Feature","geometry":{"type":"LineString","coordinates":[[127.71931157692308,26.26866336923077],[127.7185911,26.2683337],[127.717451,26.2683661],[127.7171947,26.2683734],[127.7166465,26.268389],[127.7146187,26.2688965],[127.7137551,26.2678935],[127.7125749,26.2673307],[127.7116656,26.2660968],[127.7096969,26.2646921],[127.7089459,26.2634678],[127.70907395,26.25931435]]},"properties":{"name":"trafo_132/66kV","loading_pct":81.8,"p_mw":187.7,"is_trafo":true}},{"type":"Feature","geometry":{"type":"LineString","coordinates":[[127.70300098571428,26.229641828571427],[127.70907395,26.25931435]]},"properties":{"name":"trafo_132/66kV","loading_pct":20.4,"p_mw":-30.6,"is_trafo":true}},{"type":"Feature","geometry":{"type":"LineString","coordinates":[[127.75597053333333,26.28592226666667],[127.7566758,26.2864195],[127.7574912,26.2864075],[127.7596208,26.2872997],[127.7604979,26.2895025],[127.7624962,26.2906231],[127.7645159,26.2916596],[127.7654815,26.2933405],[127.7633223,26.2951295],[127.7628663,26.2973418],[127.7629682,26.2997921],[127.7637488,26.3021894],[127.767874,26.3033604],[127.7699795,26.3047502],[127.7747949,26.3055192],[127.7770525,26.3067699],[127.7796596,26.3070248],[127.7800106,26.307075],[127.7802885,26.3071147],[127.7808277,26.3071918],[127.78165586666667,26.307242244444446]]},"properties":{"name":"trafo_132/66kV","loading_pct":80.8,"p_mw":-242.0,"is_trafo":true}},{"type":"Feature","geometry":{"type":"LineString","coordinates":[[127.8510413,26.3513802],[127.88066141538462,26.3317601]]},"properties":{"name":"trafo_132/66kV","loading_pct":12.0,"p_mw":18.0,"is_trafo":true}}]}