{"type":"FeatureCollection","name":"shikoku_other_freq_reference","features":[{"type":"Feature","geometry":{"type":"LineString","coordinates":[[135.0893463,33.9769716],[135.0892779,33.9771441],[135.0875305,33.9804645],[135.0644814,33.9824054],[134.6417311,33.845228],[134.636609,33.8283724],[134.6366277,33.8277582]]},"properties":{"name":"阿南紀北直流幹線","operator":null,"voltage":"500000","frequency":"0","note":"other synchronous system (region grid is 60 Hz); present geographically, not part of this AC solve"}},{"type":"Feature","geometry":{"type":"LineString","coordinates":[[134.1774629,34.271432],[134.1770219,34.2690539],[134.1763436,34.2678685]]},"properties":{"name":"長尾線;大川長尾線","operator":"四国電力送配電","voltage":"66000","frequency":"50","note":"other synchronous system (region grid is 60 Hz); present geographically, not part of this AC solve"}}]}