{"type":"FeatureCollection","name":"tokyo_other_freq_reference","features":[{"type":"Feature","geometry":{"type":"LineString","coordinates":[[138.507533,35.0513401],[138.5052417,35.0547272],[138.5043252,35.0554087],[138.501588,35.0556523]]},"properties":{"name":"中部電力パワーグリッド 77.0kV線","operator":"中部電力パワーグリッド","voltage":"77000","frequency":"60","note":"other synchronous system (region grid is 50 Hz); present geographically, not part of this AC solve"}},{"type":"Feature","geometry":{"type":"LineString","coordinates":[[138.5011963,35.0578954],[138.5020599,35.0593203],[138.5004131,35.0610284],[138.499592,35.0635398],[138.4921309,35.065318],[138.4896829,35.0659995],[138.4877403,35.0687116],[138.4884127,35.0732137],[138.4887626,35.0763837],[138.4862074,35.0789588],[138.4802064,35.0795771],[138.4735689,35.080322],[138.4689899,35.0804133],[138.4616024,35.0811186],[138.4566075,35.0810718],[138.4525517,35.0820804],[138.4501297,35.082614],[138.4470485,35.0832825],[138.4413088,35.0812008],[138.4347809,35.0787668],[138.4308566,35.0780971],[138.427762,35.0775516],[138.4246999,35.0776838],[138.4172795,35.0775745],[138.4112702,35.0792953],[138.4086759,35.0800848],[138.4037016,35.0790796],[138.3998852,35.078546],[138.392032,35.0806145],[138.3848218,35.0809016],[138.3819685,35.0811223],[138.3793567,35.0804909]]},"properties":{"name":"東清水変電所~清水変電所線","operator":"中部電力パワーグリッド","voltage":"275000","frequency":"60","note":"other synchronous system (region grid is 50 Hz); present geographically, not part of this AC solve"}},{"type":"Feature","geometry":{"type":"LineString","coordinates":[[139.1450531,35.2838264],[139.1477916,35.2831192],[139.1492534,35.2823222],[139.1525181,35.2801848],[139.1548516,35.2793133],[139.1575069,35.2780482]]},"properties":{"name":"JR 西相模-平塚線;JR 西相模-鴨宮線","operator":"ＪＲ東海","voltage":"77000;77000","frequency":"60","note":"other synchronous system (region grid is 50 Hz); present geographically, not part of this AC solve"}},{"type":"Feature","geometry":{"type":"LineString","coordinates":[[139.1575069,35.2780482],[139.1567475,35.2766971],[139.1587967,35.2752257],[139.160567,35.2750855],[139.1658919,35.2747944],[139.1673227,35.2736195],[139.1684774,35.272957],[139.170429,35.2719779],[139.1717175,35.273166]]},"properties":{"name":"JR 西相模-鴨宮線","operator":"東海旅客鉄道","voltage":"77000","frequency":"60","note":"other synchronous system (region grid is 50 Hz); present geographically, not part of this AC solve"}},{"type":"Feature","geometry":{"type":"LineString","coordinates":[[138.4541268,35.015975],[138.454045,35.016071],[138.4532936,35.0170036],[138.4531818,35.0174903],[138.4518005,35.0204297],[138.4504554,35.0222979],[138.448838,35.0244076],[138.4465705,35.027184],[138.4446271,35.0283226],[138.4406434,35.0307564],[138.4387277,35.031917],[138.4344279,35.034522],[138.4299182,35.0368174],[138.4241449,35.0397663],[138.4126793,35.0421379],[138.4086874,35.043221],[138.4026172,35.0434567],[138.396668,35.0462156],[138.3908215,35.0486249],[138.3871848,35.0494362],[138.384059,35.0494621],[138.3812044,35.049375],[138.3753079,35.0453867],[138.3710356,35.0434376],[138.3687094,35.0424147],[138.3666358,35.0415296],[138.3618809,35.0402496],[138.3595171,35.0396112],[138.3531945,35.0383917],[138.3510886,35.0378432],[138.3484174,35.0371113],[138.3411443,35.0362618],[138.3372406,35.0359999],[138.3347877,35.0351601],[138.3292415,35.033636],[138.3250352,35.0325148],[138.319378,35.0296524],[138.316322,35.0281061],[138.3140519,35.0269392],[138.3097486,35.0249411],[138.3064227,35.0239114],[138.3011572,35.0246],[138.2957989,35.0245742],[138.290912,35.0250508],[138.2859002,35.0255523],[138.2831521,35.0261685],[138.2805291,35.0264449],[138.2749842,35.027149],[138.271836,35.027466],[138.2689128,35.0277614],[138.266791,35.0286931],[138.2649107,35.0303178],[138.262125,35.0327083],[138.2554465,35.0361625],[138.2496831,35.0378968],[138.2436662,35.0396795],[138.2376824,35.0414057],[138.2318845,35.0457742],[138.2195713,35.0542068],[138.2141497,35.0564118],[138.2122829,35.0593895],[138.2107771,35.0603618],[138.2076412,35.0634495],[138.2046819,35.0657185],[138.2032992,35.0669138],[138.2017356,35.0679741],[138.2000048,35.0690829],[138.1963617,35.0704966],[138.1940831,35.0729525],[138.1887382,35.0774261],[138.186707,35.0793374],[138.1846069,35.0799493],[138.1799626,35.0786405],[138.1765468,35.0790235],[138.1734878,35.0793638],[138.1694591,35.0801627],[138.167941,35.0808278],[138.1649476,35.0835715],[138.1612408,35.0863655],[138.1587517,35.0875343],[138.1571287,35.089633],[138.1530522,35.0906338],[138.1455042,35.0907519]]},"properties":{"name":"東京電力パワーグリッド 154.0kV線","operator":"東京電力パワーグリッド","voltage":"154000","frequency":"60","note":"other synchronous system (region grid is 50 Hz); present geographically, not part of this AC solve"}},{"type":"Feature","geometry":{"type":"LineString","coordinates":[[138.2192626,35.2086343],[138.2205785,35.2078066],[138.2224469,35.2066511],[138.2240715,35.2055609],[138.2287895,35.2044717],[138.2351356,35.2030318],[138.2422783,35.2014428],[138.2447258,35.2009037],[138.2488645,35.1999108],[138.2550222,35.1985459],[138.2569105,35.1977152],[138.2603839,35.1962916],[138.2636609,35.1950077],[138.2687175,35.1928914],[138.2701552,35.1918962],[138.2798004,35.1841757],[138.2833409,35.1809641],[138.2864349,35.1781799],[138.2885793,35.17703],[138.2944775,35.1739563],[138.2989232,35.171709],[138.3034649,35.1693432],[138.3062343,35.1675672],[138.3132724,35.1633178],[138.3157883,35.1616732],[138.3205864,35.1582886],[138.3218912,35.1548906],[138.3230641,35.152061],[138.3250137,35.1469524],[138.3269862,35.1433111],[138.3325021,35.1385759],[138.3346702,35.1366965],[138.3374017,35.1344075],[138.3414752,35.1307979],[138.3530775,35.1209523],[138.3620556,35.1155569],[138.3676987,35.1123219],[138.3718554,35.1095063],[138.3753683,35.1056578],[138.3765038,35.1018195],[138.3785713,35.0942062],[138.3809861,35.0897465],[138.3832995,35.0850318],[138.3841522,35.0831916],[138.3850946,35.0812104],[138.3880325,35.0750548],[138.3888403,35.0734145],[138.3901384,35.0705712],[138.391429,35.0678536],[138.3937364,35.0664472],[138.395466,35.0651513],[138.3990789,35.0621326],[138.4038325,35.0583062],[138.4068939,35.055926],[138.4104353,35.053206],[138.4127914,35.0513371],[138.416754,35.0483949],[138.4209722,35.0451493],[138.424196,35.0426905],[138.4292827,35.0387778],[138.4314379,35.0370811],[138.4343988,35.0348783],[138.4391603,35.031935],[138.4410056,35.0307944],[138.4444445,35.0286671],[138.4467526,35.02724],[138.4480481,35.025859]]},"properties":{"name":"佐野川変電所~清水変電所線","operator":"日本軽金属株式会社","voltage":"154000","frequency":"60","note":"other synchronous system (region grid is 50 Hz); present geographically, not part of this AC solve"}},{"type":"Feature","geometry":{"type":"LineString","coordinates":[[139.034118,35.144895],[139.0332098,35.1431052],[139.0337033,35.1418681],[139.0349778,35.1395129],[139.0372634,35.1381171],[139.0387006,35.1372354],[139.0402938,35.1352002],[139.040778,35.134345],[139.0419206,35.1331067],[139.0431077,35.1322171],[139.0457906,35.1302207],[139.0500503,35.1300619],[139.0531471,35.1285076],[139.052637,35.1263521],[139.0549865,35.1246085],[139.0577965,35.1254635],[139.0598676,35.1260775],[139.0612116,35.1261455],[139.0628446,35.1260794],[139.0642917,35.1261159],[139.0675223,35.1269221],[139.0707663,35.1269507],[139.0733378,35.1270109],[139.0764219,35.1266022],[139.0785535,35.126314],[139.080884,35.125581],[139.0831179,35.1248628],[139.0853772,35.1246322],[139.08706,35.121898],[139.0879663,35.1208341],[139.088344,35.118642],[139.088442,35.117988],[139.0887503,35.1159916]]},"properties":{"name":"JR熱海分岐線","operator":"東海旅客鉄道","voltage":"77000","frequency":"60","note":"other synchronous system (region grid is 50 Hz); present geographically, not part of this AC solve"}},{"type":"Feature","geometry":{"type":"LineString","coordinates":[[138.4558911,35.0162651],[138.4567792,35.0151157],[138.4577151,35.0150095],[138.4595026,35.0144397],[138.463148,35.0132776],[138.4648571,35.0123398],[138.465533,35.0117498],[138.4668776,35.0103033],[138.4682732,35.0088139],[138.469768,35.0072642],[138.4713205,35.0055063],[138.4727985,35.0038336],[138.4742234,35.0022758],[138.4752156,35.0013118],[138.4760358,35.0005026],[138.4770231,34.9995037],[138.4777557,34.9987599],[138.4789509,34.9974992],[138.4801531,34.9967743],[138.4813653,34.9959915],[138.4825797,34.9954864],[138.4839005,34.9932608],[138.4848771,34.9920146],[138.4858647,34.9907384],[138.4867693,34.9895332],[138.4876877,34.9882991],[138.4886803,34.9869509],[138.489516,34.985836],[138.4902511,34.9846077],[138.4910344,34.9834307],[138.4918214,34.9822383],[138.4925947,34.9810791],[138.4934814,34.9799062],[138.4943775,34.9787387],[138.4954199,34.9773881],[138.4965812,34.9762917],[138.4982685,34.9755848],[138.500286,34.9759907],[138.5031154,34.9777592],[138.5057425,34.9794126],[138.5076783,34.9817016],[138.5092468,34.9835856],[138.5110738,34.9858473],[138.5127376,34.9878599],[138.5132647,34.9893421],[138.5142383,34.9905803],[138.5153286,34.9919855],[138.5163988,34.9933654],[138.5166375,34.9947783],[138.5158235,34.9965174],[138.5152334,34.9978149],[138.5141726,34.9992365],[138.513262,35.0004702],[138.5124607,35.0013834],[138.5123199,35.0017141],[138.511823,35.0033791],[138.5113629,35.0048918]]},"properties":{"name":"清水変電所~清水区変電所線","operator":"東京電力パワーグリッド","voltage":"77000","frequency":"60","note":"other synchronous system (region grid is 50 Hz); present geographically, not part of this AC solve"}},{"type":"Feature","geometry":{"type":"LineString","coordinates":[[138.620667,35.1321737],[138.6198354,35.1321764],[138.6177718,35.1322075],[138.6170059,35.1305473],[138.6145877,35.1292399]]},"properties":{"name":"富士市変電所~蒲原一丁目変電所線","operator":"東京電力パワーグリッド","voltage":"154000;77000","frequency":"60","note":"other synchronous system (region grid is 50 Hz); present geographically, not part of this AC solve"}},{"type":"Feature","geometry":{"type":"LineString","coordinates":[[138.507533,35.0513401],[138.5120805,35.0523783],[138.5135593,35.0528469],[138.515857,35.053575],[138.5190944,35.055999],[138.5194726,35.0571885],[138.5212953,35.0586805],[138.5219845,35.059137],[138.5230742,35.0592638],[138.5241283,35.0595482],[138.5257182,35.0609182],[138.5269889,35.061956],[138.5296,35.064022],[138.531279,35.0654391],[138.5341684,35.06786],[138.5374864,35.0714383],[138.5382951,35.0742075],[138.5366066,35.0825042],[138.5371363,35.0890355],[138.5366696,35.0922825],[138.5369821,35.0976944],[138.540139,35.101279],[138.5428568,35.1070929],[138.544615,35.110845],[138.5457002,35.1134496],[138.5470358,35.1155914],[138.5520592,35.1178901],[138.553585,35.1190855],[138.5572844,35.1227667],[138.5598439,35.1244794],[138.5616993,35.1248942],[138.5666674,35.1258912],[138.5673957,35.1258797],[138.5751754,35.1253998],[138.5783373,35.1257077],[138.5824371,35.126971],[138.5856301,35.128308],[138.595469,35.13187],[138.5981405,35.131632],[138.6000046,35.13136],[138.6017702,35.131201],[138.6056339,35.1316084],[138.60865,35.1315651]]},"properties":{"name":"東清水変電所~富士市変電所線","operator":"中部電力パワーグリッド","voltage":"77000","frequency":"60","note":"other synchronous system (region grid is 50 Hz); present geographically, not part of this AC solve"}},{"type":"Feature","geometry":{"type":"LineString","coordinates":[[138.5994234,35.1406113],[138.6017373,35.1386808],[138.6030838,35.1358962],[138.6043646,35.1329646],[138.6054066,35.1305758],[138.6070676,35.1288057],[138.6094427,35.1267847],[138.6111735,35.1256692],[138.6122782,35.1250117],[138.6127552,35.1242352]]},"properties":{"name":"富士市変電所~蒲原一丁目変電所線","operator":"東京電力パワーグリッド","voltage":"77000","frequency":"60","note":"other synchronous system (region grid is 50 Hz); present geographically, not part of this AC solve"}},{"type":"Feature","geometry":{"type":"LineString","coordinates":[[139.1204889,35.2918275],[139.1202844,35.2925187]]},"properties":{"name":"東海旅客鉄道 77.0kV線","operator":"東海旅客鉄道","voltage":"77000","frequency":"60","note":"other synchronous system (region grid is 50 Hz); present geographically, not part of this AC solve"}},{"type":"Feature","geometry":{"type":"LineString","coordinates":[[139.1207479,35.29185],[139.1205076,35.2925683]]},"properties":{"name":"東海旅客鉄道 77.0kV線","operator":"東海旅客鉄道","voltage":"77000","frequency":"60","note":"other synchronous system (region grid is 50 Hz); present geographically, not part of this AC solve"}},{"type":"Feature","geometry":{"type":"LineString","coordinates":[[139.1207479,35.29185],[139.1204335,35.2925535]]},"properties":{"name":"東海旅客鉄道 77.0kV線","operator":"東海旅客鉄道","voltage":"77000","frequency":"60","note":"other synchronous system (region grid is 50 Hz); present geographically, not part of this AC solve"}},{"type":"Feature","geometry":{"type":"LineString","coordinates":[[139.1207479,35.29185],[139.1206577,35.2926034]]},"properties":{"name":"東海旅客鉄道 77.0kV線","operator":"東海旅客鉄道","voltage":"77000","frequency":"60","note":"other synchronous system (region grid is 50 Hz); present geographically, not part of this AC solve"}},{"type":"Feature","geometry":{"type":"LineString","coordinates":[[139.1204889,35.2918275],[139.119488,35.290687],[139.117719,35.288692],[139.116551,35.287366],[139.116095,35.286686],[139.115553,35.285885],[139.1130532,35.2831826],[139.1109975,35.2808657],[139.1095967,35.2796693],[139.1071887,35.2775168],[139.1059652,35.2755525],[139.1041988,35.2726703],[139.103239,35.271086],[139.1015295,35.2684349],[139.1007335,35.2671092],[139.0994413,35.265062],[139.0988364,35.2633809],[139.0983323,35.2617279],[139.0983111,35.2597023],[139.0982887,35.2585345],[139.098291,35.25558],[139.097431,35.252165],[139.096681,35.249908],[139.095656,35.248739],[139.093625,35.247221],[139.090651,35.244981],[139.0859,35.241486],[139.085414,35.240342],[139.085143,35.239347],[139.084883,35.238229],[139.083277,35.231971],[139.079671,35.230392],[139.075712,35.229112],[139.073341,35.228906],[139.069532,35.228562],[139.0671732,35.2270655],[139.065524,35.22631],[139.06218,35.223245],[139.060791,35.22196],[139.058951,35.220254],[139.056778,35.218084],[139.053429,35.214725],[139.054298,35.212809],[139.054925,35.210124],[139.055477,35.207859],[139.056352,35.205725],[139.056464,35.203326],[139.0559474,35.2023896],[139.055257,35.20042],[139.053242,35.198195],[139.051413,35.195279],[139.049574,35.193118],[139.047761,35.189949],[139.047362,35.189505],[139.048224,35.188078],[139.049798,35.186956],[139.051417,35.186258],[139.052199,35.184522],[139.049269,35.183266],[139.047034,35.180457],[139.043502,35.175989],[139.041087,35.171165],[139.039605,35.168012],[139.041399,35.165408],[139.042554,35.163687],[139.043717,35.161966],[139.044886,35.159963],[139.0422041,35.1582074],[139.037545,35.155072],[139.036132,35.154572],[139.031419,35.153427],[139.031609,35.150339],[139.031685,35.148501],[139.034118,35.144895],[139.030622,35.144856],[139.028534,35.144834],[139.02531,35.145618],[139.023826,35.147475],[139.023227,35.149301],[139.022625,35.15099],[139.021902,35.152815],[139.021207,35.154791],[139.020148,35.157486],[139.019916,35.159465],[139.020034,35.161645],[139.020228,35.165462],[139.016956,35.169113],[139.015408,35.17088],[139.010391,35.173296],[139.006955,35.173037],[139.005349,35.173599],[139.003138,35.175821],[139.00216,35.176802],[138.99984,35.179044],[138.998255,35.180936],[138.997147,35.182168],[138.995612,35.183952],[138.992457,35.183336],[138.989508,35.182019],[138.987696,35.180856],[138.984177,35.178604],[138.982282,35.17718],[138.979695,35.175297],[138.978014,35.174019],[138.976485,35.172883],[138.974335,35.171695],[138.969808,35.16971],[138.966714,35.168347],[138.964931,35.168316],[138.961609,35.167181],[138.959192,35.166362],[138.956718,35.165543],[138.95405,35.164824],[138.950132,35.16531],[138.94853,35.167096],[138.945408,35.166947],[138.942866,35.165534],[138.93908,35.16453],[138.938252,35.163218],[138.935338,35.162649],[138.932656,35.162194],[138.930808,35.161907],[138.928754,35.161577],[138.926353,35.161184],[138.922199,35.160509],[138.919661,35.160352],[138.916498,35.160138],[138.915474,35.160116],[138.913098,35.1596394],[138.91076,35.157176],[138.909712,35.156945],[138.9084531,35.1562277],[138.908271,35.156124],[138.908096,35.154946],[138.9074377,35.1545666],[138.907018,35.152842],[138.905331,35.151502],[138.9046447,35.150875],[138.901488,35.150948],[138.898845,35.151325],[138.899367,35.156119],[138.899696,35.157331],[138.899467,35.158188],[138.897939,35.159195],[138.895589,35.161275],[138.893295,35.163427],[138.891779,35.164659],[138.888819,35.167127],[138.886834,35.168799],[138.883983,35.169837],[138.881356,35.17209],[138.879273,35.173586],[138.876546,35.172869],[138.874468,35.171524],[138.873151,35.170711],[138.869846,35.16993],[138.867456,35.169613],[138.865399,35.16933],[138.86341,35.167204],[138.8600549,35.1636216],[138.8581884,35.1632745],[138.855034,35.162704],[138.852664,35.1623],[138.850504,35.161859],[138.848272,35.161445],[138.845744,35.16094]]},"properties":{"name":"JR 西相模-沼津線","operator":"東海旅客鉄道","voltage":"77000","frequency":"60","note":"other synchronous system (region grid is 50 Hz); present geographically, not part of this AC solve"}},{"type":"Feature","geometry":{"type":"LineString","coordinates":[[139.1204889,35.2918275],[139.1203588,35.2925352]]},"properties":{"name":"東海旅客鉄道 77.0kV線","operator":"東海旅客鉄道","voltage":"77000","frequency":"60","note":"other synchronous system (region grid is 50 Hz); present geographically, not part of this AC solve"}},{"type":"Feature","geometry":{"type":"LineString","coordinates":[[139.1207479,35.29185],[139.120587,35.2925866]]},"properties":{"name":"東海旅客鉄道 77.0kV線","operator":"東海旅客鉄道","voltage":"77000","frequency":"60","note":"other synchronous system (region grid is 50 Hz); present geographically, not part of this AC solve"}},{"type":"Feature","geometry":{"type":"LineString","coordinates":[[139.1428469,35.2823361],[139.1414804,35.2815581],[139.1398764,35.2804589],[139.136749,35.2793675],[139.1330631,35.279953],[139.1305957,35.2810098],[139.1272759,35.2834929],[139.1254179,35.285509],[139.1244389,35.2877959],[139.1228766,35.2887877],[139.1207479,35.29185]]},"properties":{"name":"JR 西相模-平塚線;JR 西相模-鴨宮線","operator":"ＪＲ東海","voltage":"77000;77000","frequency":"60","note":"other synchronous system (region grid is 50 Hz); present geographically, not part of this AC solve"}},{"type":"Feature","geometry":{"type":"LineString","coordinates":[[139.1717175,35.273166],[139.171481,35.273429]]},"properties":{"name":"JR 西相模-鴨宮線","operator":"東海旅客鉄道株式会社","voltage":"77000","frequency":"60","note":"other synchronous system (region grid is 50 Hz); present geographically, not part of this AC solve"}},{"type":"Feature","geometry":{"type":"LineString","coordinates":[[139.1717175,35.273166],[139.171428,35.273377]]},"properties":{"name":"JR 西相模-鴨宮線","operator":"東海旅客鉄道株式会社","voltage":"77000","frequency":"60","note":"other synchronous system (region grid is 50 Hz); present geographically, not part of this AC solve"}},{"type":"Feature","geometry":{"type":"LineString","coordinates":[[138.845744,35.16094],[138.845418,35.158914],[138.84471,35.158174],[138.847167,35.155393],[138.848152,35.152584],[138.848509,35.150117],[138.848667,35.146969],[138.848607,35.145095],[138.848486,35.142594],[138.848385,35.140793],[138.848153,35.138915],[138.847687,35.136934],[138.847241,35.135134],[138.848309,35.13316],[138.848959,35.130919],[138.849833,35.128965],[138.850123,35.126332]]},"properties":{"name":"JR 西相模-沼津線","operator":"東海旅客鉄道","voltage":"77000","frequency":"60","note":"other synchronous system (region grid is 50 Hz); present geographically, not part of this AC solve"}},{"type":"Feature","geometry":{"type":"LineString","coordinates":[[138.850123,35.126332],[138.8501867,35.1262323]]},"properties":{"name":"JR 西相模-沼津線","operator":"ＪＲ東海","voltage":"77000","frequency":"60","note":"other synchronous system (region grid is 50 Hz); present geographically, not part of this AC solve"}},{"type":"Feature","geometry":{"type":"LineString","coordinates":[[138.850123,35.126332],[138.8501148,35.1262151]]},"properties":{"name":"JR 西相模-沼津線","operator":"ＪＲ東海","voltage":"77000","frequency":"60","note":"other synchronous system (region grid is 50 Hz); present geographically, not part of this AC solve"}},{"type":"Feature","geometry":{"type":"LineString","coordinates":[[138.850123,35.126332],[138.8500565,35.1262011]]},"properties":{"name":"JR 西相模-沼津線","operator":"東海旅客鉄道","voltage":"77000","frequency":"60","note":"other synchronous system (region grid is 50 Hz); present geographically, not part of this AC solve"}},{"type":"Feature","geometry":{"type":"LineString","coordinates":[[138.850123,35.126332],[138.8502656,35.1262512]]},"properties":{"name":"JR 西相模-沼津線","operator":"ＪＲ東海","voltage":"77000","frequency":"60","note":"other synchronous system (region grid is 50 Hz); present geographically, not part of this AC solve"}},{"type":"Feature","geometry":{"type":"LineString","coordinates":[[138.926534,35.2184132],[138.9299932,35.2195577],[138.931397,35.2206664],[138.9340889,35.2215863],[138.9379897,35.2222238],[138.9416494,35.2237873],[138.9445728,35.2253556],[138.9472357,35.2261355],[138.9495998,35.2268845],[138.952621,35.2271389],[138.9528943,35.2271621]]},"properties":{"name":"深良線;岩波線","operator":"東京電力パワーグリッド","voltage":"66000;66000","frequency":"60","note":"other synchronous system (region grid is 50 Hz); present geographically, not part of this AC solve"}},{"type":"Feature","geometry":{"type":"LineString","coordinates":[[138.5927192,35.145265],[138.5937879,35.1484957],[138.5946295,35.1498127],[138.5965874,35.151815],[138.5979849,35.1532141],[138.5992885,35.1544466],[138.601166,35.1562174],[138.603124,35.1580693],[138.6058398,35.1608027],[138.6028376,35.1628998],[138.6012009,35.1642223],[138.5987185,35.1661245],[138.5969073,35.1682294],[138.5936397,35.1728337],[138.5910138,35.1767089],[138.5880312,35.1803493],[138.5890532,35.1826248],[138.5901864,35.1840377],[138.5918815,35.1852686]]},"properties":{"name":"富士市変電所~中野台二丁目変電所線","operator":"東京電力パワーグリッド","voltage":null,"frequency":"60","note":"other synchronous system (region grid is 50 Hz); present geographically, not part of this AC solve"}},{"type":"Feature","geometry":{"type":"LineString","coordinates":[[138.4480481,35.025859],[138.4465957,35.0290366],[138.4465622,35.0308957],[138.4465085,35.0332557],[138.4478563,35.0359592],[138.4529874,35.0407522],[138.458227,35.0456097],[138.4630497,35.048147],[138.4661034,35.0506799],[138.4711218,35.0546629],[138.4722832,35.0556224],[138.4761898,35.0592561],[138.4772667,35.0610137],[138.4794474,35.0632003],[138.4845985,35.0658096],[138.4889169,35.0679764],[138.4926921,35.0697447],[138.4938116,35.0702581],[138.4967369,35.0715997],[138.5000394,35.0759203],[138.5040468,35.0811305],[138.5058349,35.084321],[138.5087961,35.0893943],[138.5170439,35.0957829],[138.5224693,35.0993134],[138.5247163,35.1021348],[138.527597,35.1058784],[138.5300365,35.1082213],[138.5321018,35.1101824],[138.5356705,35.1136085],[138.5388784,35.1167876],[138.5410376,35.118465],[138.5429876,35.1202717],[138.5471141,35.1214103],[138.5501742,35.1218603],[138.5570616,35.1228732],[138.5599536,35.1248906],[138.5661729,35.1269691],[138.5671403,35.1274626],[138.5728966,35.1305203],[138.5749655,35.131549],[138.5836135,35.1334053],[138.5863384,35.1339652],[138.5903803,35.1345482],[138.5937709,35.1350887],[138.5976869,35.1333756],[138.6019068,35.1315868]]},"properties":{"name":"清水変電所~富士市変電所線","operator":"東京電力パワーグリッド","voltage":"77000","frequency":"60","note":"other synchronous system (region grid is 50 Hz); present geographically, not part of this AC solve"}},{"type":"Feature","geometry":{"type":"LineString","coordinates":[[138.4547684,35.018746],[138.4534534,35.018118],[138.4534297,35.0177368]]},"properties":{"name":"東京電力パワーグリッド 77.0kV線","operator":"東京電力パワーグリッド","voltage":"77000","frequency":"60","note":"other synchronous system (region grid is 50 Hz); present geographically, not part of this AC solve"}},{"type":"Feature","geometry":{"type":"LineString","coordinates":[[138.507533,35.0513401],[138.5023762,35.048494],[138.4979265,35.047261],[138.4960932,35.0453429],[138.494001,35.0443273],[138.4925084,35.0435894],[138.4910171,35.0428648],[138.4889665,35.0427714],[138.4866941,35.0426394],[138.484388,35.0423158],[138.4814201,35.0402504],[138.4794956,35.0388032],[138.4782699,35.0371825],[138.4767759,35.0352345],[138.4750164,35.0341935],[138.4731737,35.0331634],[138.4712599,35.0320807],[138.4695593,35.0311282],[138.4676953,35.0301369],[138.4658512,35.0291914],[138.4655522,35.0293715]]},"properties":{"name":"東清水変電所~清水変電所線","operator":"中部電力パワーグリッド","voltage":"77000","frequency":"60","note":"other synchronous system (region grid is 50 Hz); present geographically, not part of this AC solve"}},{"type":"Feature","geometry":{"type":"LineString","coordinates":[[138.6117661,35.1354005],[138.6095291,35.1352097],[138.6059559,35.1348264]]},"properties":{"name":"東海鉄道岩渕線","operator":null,"voltage":"154000;77000","frequency":"60","note":"other synchronous system (region grid is 50 Hz); present geographically, not part of this AC solve"}},{"type":"Feature","geometry":{"type":"LineString","coordinates":[[138.5927192,35.145265],[138.59128,35.1446169],[138.5893769,35.1428366],[138.5849816,35.1387378],[138.5834172,35.1370544],[138.5792768,35.1341066],[138.5780226,35.1332136],[138.5741193,35.1294883],[138.5678986,35.1235789],[138.5609382,35.117583],[138.557108,35.1151389],[138.5550699,35.1138613],[138.551836,35.1115379],[138.5490695,35.1095592],[138.5456926,35.1070381],[138.5475727,35.0923637],[138.5460573,35.0905663],[138.5450407,35.0891902],[138.5419435,35.0879628],[138.5392472,35.0879085],[138.5371363,35.0890355]]},"properties":{"name":"富士市変電所~清水区変電所線","operator":"東京電力パワーグリッド","voltage":null,"frequency":"60","note":"other synchronous system (region grid is 50 Hz); present geographically, not part of this AC solve"}},{"type":"Feature","geometry":{"type":"LineString","coordinates":[[138.6033104,35.1359266],[138.6047776,35.1334187],[138.6055366,35.1306167],[138.607137,35.129144],[138.6098206,35.1266838],[138.6115144,35.125631],[138.6127552,35.1242352]]},"properties":{"name":"富士市変電所~蒲原一丁目変電所線","operator":"東京電力パワーグリッド","voltage":"77000","frequency":"60","note":"other synchronous system (region grid is 50 Hz); present geographically, not part of this AC solve"}},{"type":"Feature","geometry":{"type":"LineString","coordinates":[[138.6033104,35.1359266],[138.6019017,35.1388018],[138.6009662,35.14258],[138.5998504,35.1451698],[138.5985831,35.1481196],[138.5986287,35.1496844],[138.5966827,35.15336],[138.595689,35.1552437],[138.5945222,35.1569224],[138.5934232,35.158543],[138.5930161,35.159152],[138.5926916,35.1605187],[138.5923027,35.1622839],[138.5916173,35.1635645],[138.5910394,35.1646893],[138.5898082,35.1671846],[138.5889539,35.1689223],[138.5871193,35.1726824],[138.5851479,35.1744134],[138.5834098,35.1759043],[138.5826641,35.1766234],[138.5818326,35.1773951],[138.5805037,35.1786162],[138.5788929,35.1829153],[138.5774889,35.1857412],[138.5772461,35.1862299],[138.5769152,35.1869552],[138.576827,35.1871487],[138.5766882,35.187453],[138.575594,35.1900062],[138.5747328,35.1913965],[138.5723779,35.1958966],[138.5710308,35.1974648],[138.5697708,35.1986637],[138.568494,35.1998977],[138.5671315,35.2011919],[138.5645793,35.2036138],[138.5626428,35.2054777],[138.5616356,35.2077975],[138.5605815,35.2096855],[138.5587844,35.2113828],[138.5573736,35.2126757],[138.555834,35.2141615],[138.5532645,35.216641],[138.5522184,35.2193483],[138.5515505,35.2211232],[138.5496676,35.2225255],[138.5473689,35.2241382],[138.5461459,35.2250234],[138.5439733,35.2266119],[138.5406057,35.2287437],[138.5388771,35.2293156],[138.533704,35.229835],[138.5323647,35.2301],[138.5297146,35.2309632],[138.5285613,35.2316183],[138.5268313,35.2326107],[138.5254634,35.2335353],[138.5198683,35.2352266],[138.5188651,35.2355114],[138.5146809,35.2368171],[138.5126947,35.2372684],[138.5107313,35.2381359],[138.5099253,35.238424]]},"properties":{"name":"富士市変電所~富士川第一変電所線","operator":"Nippon Light Metal","voltage":null,"frequency":"60","note":"other synchronous system (region grid is 50 Hz); present geographically, not part of this AC solve"}},{"type":"Feature","geometry":{"type":"LineString","coordinates":[[138.6145877,35.1292399],[138.6126874,35.1272272],[138.6117158,35.1258939],[138.6115144,35.125631]]},"properties":{"name":"東京電力パワーグリッド 77.0kV線","operator":"東京電力パワーグリッド","voltage":"77000","frequency":"60","note":"other synchronous system (region grid is 50 Hz); present geographically, not part of this AC solve"}},{"type":"Feature","geometry":{"type":"LineString","coordinates":[[138.4534534,35.018118],[138.4541112,35.017283]]},"properties":{"name":"東京電力パワーグリッド 154.0kV線","operator":"東京電力パワーグリッド","voltage":"154000","frequency":"60","note":"other synchronous system (region grid is 50 Hz); present geographically, not part of this AC solve"}},{"type":"Feature","geometry":{"type":"LineString","coordinates":[[138.4480481,35.025859],[138.4490445,35.0245515],[138.4501681,35.0230792],[138.4516583,35.0210711],[138.4534534,35.018118]]},"properties":{"name":"東京電力パワーグリッド 154.0kV線","operator":"東京電力パワーグリッド","voltage":"154000;77000","frequency":"60","note":"other synchronous system (region grid is 50 Hz); present geographically, not part of this AC solve"}},{"type":"Feature","geometry":{"type":"LineString","coordinates":[[138.4997398,35.0564563],[138.4999783,35.0566346]]},"properties":{"name":"中部電力パワーグリッド 77.0kV線","operator":"中部電力パワーグリッド","voltage":"77000","frequency":null,"note":"other synchronous system (region grid is 50 Hz); present geographically, not part of this AC solve"}},{"type":"Feature","geometry":{"type":"LineString","coordinates":[[138.4997398,35.0564563],[138.4997954,35.0566311]]},"properties":{"name":"中部電力パワーグリッド 77.0kV線","operator":"中部電力パワーグリッド","voltage":"77000","frequency":null,"note":"other synchronous system (region grid is 50 Hz); present geographically, not part of this AC solve"}},{"type":"Feature","geometry":{"type":"LineString","coordinates":[[138.4995371,35.0564425],[138.4996253,35.0566278]]},"properties":{"name":"中部電力パワーグリッド 77.0kV線","operator":"中部電力パワーグリッド","voltage":"77000","frequency":null,"note":"other synchronous system (region grid is 50 Hz); present geographically, not part of this AC solve"}},{"type":"Feature","geometry":{"type":"LineString","coordinates":[[138.4995371,35.0564425],[138.499454,35.0566245]]},"properties":{"name":"中部電力パワーグリッド 77.0kV線","operator":"中部電力パワーグリッド","voltage":"77000","frequency":null,"note":"other synchronous system (region grid is 50 Hz); present geographically, not part of this AC solve"}},{"type":"Feature","geometry":{"type":"LineString","coordinates":[[138.4998664,35.0566325],[138.4997398,35.0564563]]},"properties":{"name":"中部電力パワーグリッド 77.0kV線","operator":"中部電力パワーグリッド","voltage":"77000","frequency":null,"note":"other synchronous system (region grid is 50 Hz); present geographically, not part of this AC solve"}},{"type":"Feature","geometry":{"type":"LineString","coordinates":[[138.4997085,35.0566294],[138.4997398,35.0564563]]},"properties":{"name":"中部電力パワーグリッド 77.0kV線","operator":"中部電力パワーグリッド","voltage":"77000","frequency":null,"note":"other synchronous system (region grid is 50 Hz); present geographically, not part of this AC solve"}},{"type":"Feature","geometry":{"type":"LineString","coordinates":[[138.4995411,35.0566262],[138.4995371,35.0564425]]},"properties":{"name":"中部電力パワーグリッド 77.0kV線","operator":"中部電力パワーグリッド","voltage":"77000","frequency":null,"note":"other synchronous system (region grid is 50 Hz); present geographically, not part of this AC solve"}},{"type":"Feature","geometry":{"type":"LineString","coordinates":[[138.4993534,35.0566225],[138.4995371,35.0564425]]},"properties":{"name":"中部電力パワーグリッド 77.0kV線","operator":"中部電力パワーグリッド","voltage":"77000","frequency":null,"note":"other synchronous system (region grid is 50 Hz); present geographically, not part of this AC solve"}},{"type":"Feature","geometry":{"type":"LineString","coordinates":[[138.501588,35.0556523],[138.4995371,35.0564425]]},"properties":{"name":"中部電力パワーグリッド 77.0kV線","operator":"中部電力パワーグリッド","voltage":"77000","frequency":"60","note":"other synchronous system (region grid is 50 Hz); present geographically, not part of this AC solve"}},{"type":"Feature","geometry":{"type":"LineString","coordinates":[[138.501588,35.0556523],[138.4997398,35.0564563]]},"properties":{"name":"中部電力パワーグリッド 77.0kV線","operator":"中部電力パワーグリッド","voltage":"77000","frequency":"60","note":"other synchronous system (region grid is 50 Hz); present geographically, not part of this AC solve"}},{"type":"Feature","geometry":{"type":"LineString","coordinates":[[138.60865,35.1315651],[138.6059559,35.1348264]]},"properties":{"name":"東京電力パワーグリッド 154.0kV線","operator":"東京電力パワーグリッド","voltage":"154000","frequency":"60","note":"other synchronous system (region grid is 50 Hz); present geographically, not part of this AC solve"}},{"type":"Feature","geometry":{"type":"LineString","coordinates":[[138.6019068,35.1315868],[138.6046816,35.1293474],[138.6068553,35.1276433],[138.6104555,35.1244404],[138.6127552,35.1242352]]},"properties":{"name":"富士市変電所~蒲原一丁目変電所線","operator":"東京電力パワーグリッド","voltage":"154000","frequency":"60","note":"other synchronous system (region grid is 50 Hz); present geographically, not part of this AC solve"}},{"type":"Feature","geometry":{"type":"LineString","coordinates":[[138.6059559,35.1348264],[138.6035669,35.1358281],[138.597766,35.1361993],[138.5940851,35.1370317],[138.5895188,35.138656],[138.5842046,35.1387384],[138.5795297,35.1400679],[138.574399,35.1410991],[138.5690054,35.1419744],[138.5637824,35.1428428],[138.5574138,35.1441892],[138.5547287,35.1448709],[138.5515167,35.1451682],[138.5456487,35.1457733],[138.5412402,35.1441081],[138.5348858,35.1427501],[138.5305621,35.1416946],[138.5254699,35.1410179],[138.5206954,35.1404001],[138.5179551,35.1400058],[138.5140762,35.1395668],[138.5091493,35.1385667],[138.5059439,35.1379156],[138.502468,35.1368438],[138.4975767,35.1352425],[138.4944889,35.1343235],[138.4907375,35.1332944],[138.4877466,35.1324119],[138.4852201,35.1308866],[138.4831929,35.1296857],[138.4786144,35.1288151],[138.4743767,35.1279195],[138.469343,35.1273505],[138.4661818,35.1269617],[138.4619563,35.1255992],[138.4600091,35.124949],[138.4570278,35.1238681],[138.4517288,35.123106],[138.4473177,35.1223822],[138.4443222,35.1228158],[138.4400723,35.1228039],[138.4361715,35.1226951],[138.4243544,35.1208514],[138.4202313,35.1180466],[138.4172598,35.115533],[138.4125013,35.1124946],[138.4088338,35.1101532],[138.4035075,35.1078668],[138.3999128,35.106197],[138.397528,35.1045166],[138.3932719,35.1024587],[138.3887068,35.0986099],[138.3851746,35.0956809],[138.3808017,35.0947932],[138.3785713,35.0942062],[138.3763258,35.0951603],[138.3681773,35.092222],[138.3644239,35.0918896],[138.3624438,35.0897602],[138.3600138,35.0862115],[138.3588589,35.0836887],[138.3571648,35.0799369],[138.3556508,35.0755136],[138.3551258,35.0728688],[138.3544973,35.0704334],[138.3544067,35.0653632],[138.3569982,35.0635507],[138.3608698,35.0646967],[138.3608803,35.0643969]]},"properties":{"name":"富士市変電所~清水変電所線","operator":"東京電力パワーグリッド","voltage":"154000","frequency":"60","note":"other synchronous system (region grid is 50 Hz); present geographically, not part of this AC solve"}},{"type":"Feature","geometry":{"type":"LineString","coordinates":[[138.6059559,35.1348264],[138.6049445,35.1339785],[138.602318,35.1317548],[138.6019068,35.1315868]]},"properties":{"name":"東京送電線_49","operator":"東京電力パワーグリッド","voltage":null,"frequency":"60","note":"other synchronous system (region grid is 50 Hz); present geographically, not part of this AC solve"}},{"type":"Feature","geometry":{"type":"LineString","coordinates":[[138.5994234,35.1406113],[138.5970515,35.1424545],[138.5945154,35.1444462],[138.5927192,35.145265]]},"properties":{"name":"東京送電線_50","operator":"東京電力パワーグリッド","voltage":null,"frequency":"60","note":"other synchronous system (region grid is 50 Hz); present geographically, not part of this AC solve"}},{"type":"Feature","geometry":{"type":"LineString","coordinates":[[138.5011963,35.0578954],[138.5008273,35.0582341]]},"properties":{"name":"中部電力パワーグリッド 275.0kV線","operator":"中部電力パワーグリッド","voltage":"275000","frequency":"60","note":"other synchronous system (region grid is 50 Hz); present geographically, not part of this AC solve"}},{"type":"Feature","geometry":{"type":"LineString","coordinates":[[138.5008384,35.0580411],[138.5011963,35.0578954]]},"properties":{"name":"中部電力パワーグリッド 275.0kV線","operator":"中部電力パワーグリッド","voltage":"275000","frequency":"60","note":"other synchronous system (region grid is 50 Hz); present geographically, not part of this AC solve"}},{"type":"Feature","geometry":{"type":"LineString","coordinates":[[139.1575069,35.2780482],[139.1589581,35.279425]]},"properties":{"name":"JR 西相模-平塚線","operator":"東海旅客鉄道","voltage":"77000","frequency":"60","note":"other synchronous system (region grid is 50 Hz); present geographically, not part of this AC solve"}},{"type":"Feature","geometry":{"type":"LineString","coordinates":[[139.1589581,35.279425],[139.1620641,35.2816102]]},"properties":{"name":"JR 西相模-平塚線","operator":"東海旅客鉄道株式会社","voltage":"77000","frequency":"60","note":"other synchronous system (region grid is 50 Hz); present geographically, not part of this AC solve"}},{"type":"Feature","geometry":{"type":"LineString","coordinates":[[139.1620641,35.2816102],[139.165322,35.283328],[139.166694,35.284628],[139.168738,35.28553],[139.171058,35.286286],[139.172251,35.286886],[139.174396,35.287688],[139.176422,35.289189],[139.178509,35.290735],[139.181082,35.290741],[139.184047,35.290624],[139.186097,35.290537],[139.189022,35.290303],[139.191825,35.290356],[139.194046,35.290595],[139.195609,35.290725],[139.197504,35.290853],[139.199015,35.290889],[139.202104,35.291139],[139.203504,35.29233],[139.204305,35.293496],[139.205332,35.29568],[139.206111,35.29732],[139.2061,35.298672],[139.2060372,35.2999925],[139.206006,35.300647],[139.205459,35.302336],[139.205818,35.303746],[139.206898,35.305032],[139.209684,35.3093859],[139.209901,35.309725],[139.212245,35.311173],[139.2148319,35.3123695],[139.217289,35.313669],[139.221213,35.314749],[139.223045,35.315258],[139.22456,35.316622],[139.227153,35.317338],[139.2277524,35.3178107],[139.2278533,35.3178903],[139.22915,35.318913],[139.230585,35.319687],[139.232116,35.320633],[139.235105,35.322604],[139.237021,35.324343],[139.239754,35.325932],[139.242227,35.325274],[139.245084,35.324457],[139.247246,35.323291],[139.25118,35.321532],[139.254122,35.32184],[139.258604,35.322059],[139.259938,35.322381],[139.261677,35.323512],[139.263746,35.324894],[139.266371,35.327055],[139.268602,35.328829],[139.27174,35.331428],[139.273751,35.332208],[139.27586,35.3330272]]},"properties":{"name":"JR 西相模-平塚線","operator":"東海旅客鉄道","voltage":"77000","frequency":"60","note":"other synchronous system (region grid is 50 Hz); present geographically, not part of this AC solve"}},{"type":"Feature","geometry":{"type":"LineString","coordinates":[[139.27586,35.3330272],[139.2772687,35.3335898],[139.2798051,35.3346509],[139.2823279,35.3356881],[139.2843419,35.3365811],[139.2867586,35.3381797],[139.289022,35.338603],[139.292369,35.339212],[139.294528,35.339627],[139.2975451,35.3402639],[139.2991236,35.3408931],[139.3013009,35.3417902],[139.304591,35.343115],[139.307188,35.343965],[139.30957,35.34474],[139.311121,35.346351],[139.313089,35.348432],[139.314701,35.350201],[139.316848,35.352472],[139.318576,35.354239],[139.320059,35.355145],[139.32039,35.355811],[139.3215487,35.3563521],[139.3225999,35.3575104],[139.324735,35.3586938],[139.3263089,35.36017],[139.3287788,35.361928],[139.330803,35.3634],[139.3327725,35.3648004],[139.3350707,35.36649],[139.336868,35.3677388],[139.3389027,35.3691858],[139.3409115,35.370626],[139.3427878,35.3719741],[139.3445973,35.373296],[139.3464567,35.3746224],[139.3470021,35.3765876],[139.3474543,35.3784001],[139.3491411,35.3795394],[139.3512507,35.3808164],[139.352785,35.3808763],[139.3552172,35.3808855],[139.3570145,35.3821865],[139.3585133,35.3832713],[139.3598259,35.3842468],[139.3598746,35.3847873]]},"properties":{"name":"JR 西相模-平塚線","operator":"東海旅客鉄道株式会社","voltage":"77000","frequency":"60","note":"other synchronous system (region grid is 50 Hz); present geographically, not part of this AC solve"}},{"type":"Feature","geometry":{"type":"LineString","coordinates":[[138.6021747,35.6586661],[138.6020574,35.6584911]]},"properties":{"name":"東日本旅客鉄道 1.5kV線","operator":"東日本旅客鉄道","voltage":"1500","frequency":"0","note":"other synchronous system (region grid is 50 Hz); present geographically, not part of this AC solve"}},{"type":"Feature","geometry":{"type":"LineString","coordinates":[[138.6123253,35.1353446],[138.6117661,35.1354005],[138.6123763,35.1352349]]},"properties":{"name":"東京電力パワーグリッド 154.0kV線","operator":"東京電力パワーグリッド","voltage":"154000","frequency":"60","note":"other synchronous system (region grid is 50 Hz); present geographically, not part of this AC solve"}},{"type":"Feature","geometry":{"type":"LineString","coordinates":[[138.6122382,35.1355244],[138.6117661,35.1354005],[138.612261,35.1354674]]},"properties":{"name":"東京電力パワーグリッド 77.0kV線","operator":"東京電力パワーグリッド","voltage":"77000","frequency":"60","note":"other synchronous system (region grid is 50 Hz); present geographically, not part of this AC solve"}},{"type":"Feature","geometry":{"type":"LineString","coordinates":[[138.6145877,35.1292399],[138.6110513,35.1305946],[138.60865,35.1315651]]},"properties":{"name":"蒲原一丁目変電所~富士市変電所線","operator":"東京電力パワーグリッド","voltage":"154000;77000","frequency":"60","note":"other synchronous system (region grid is 50 Hz); present geographically, not part of this AC solve"}},{"type":"Feature","geometry":{"type":"LineString","coordinates":[[138.4740318,36.0614228],[138.4737996,36.0617106],[138.4753,36.0626929],[138.4771294,36.0644027],[138.4784199,36.0656784],[138.4795404,36.0673989],[138.4806323,36.0694957],[138.4812527,36.072722],[138.4811816,36.0753612],[138.4817197,36.0771668],[138.4823244,36.0789663],[138.4829097,36.080747],[138.4831152,36.0813004],[138.4834614,36.081866],[138.4841006,36.0832967],[138.4863808,36.0850874],[138.4859195,36.0867858],[138.4854727,36.0886563],[138.4856553,36.0924159],[138.4859743,36.0948993],[138.4861649,36.0965864],[138.4863131,36.0987662],[138.4865006,36.1002971],[138.4866689,36.1023346],[138.4858776,36.1041984],[138.4851273,36.1058181],[138.4844241,36.1072815],[138.4836626,36.1089764],[138.4823737,36.110333],[138.4808172,36.1119757],[138.4806839,36.1130212],[138.4804656,36.1152677],[138.4791203,36.1171385],[138.4780126,36.1187847],[138.4769895,36.1201596],[138.4768718,36.1219082],[138.4767216,36.1235523],[138.4768938,36.1247501],[138.4771293,36.1264637],[138.4775983,36.1282146],[138.4771028,36.1291246],[138.478039,36.1307368],[138.4788759,36.132242],[138.479722,36.1337348],[138.4801217,36.1349897],[138.4806702,36.1365672],[138.4812022,36.1381932],[138.481744,36.1397841],[138.4828122,36.1429943],[138.4833366,36.1445938],[138.483869,36.1461448],[138.4843974,36.1477377],[138.484935,36.1493235],[138.4854559,36.1508942],[138.4859839,36.1524234],[138.4865728,36.1537418],[138.4850137,36.1555],[138.484856,36.1567247],[138.4845688,36.1570086]]},"properties":{"name":"小海町変電所~東京電力海瀬発電所線","operator":"中部電力株式会社","voltage":"77000","frequency":null,"note":"other synchronous system (region grid is 50 Hz); present geographically, not part of this AC solve"}},{"type":"Feature","geometry":{"type":"LineString","coordinates":[[138.4865728,36.1537418],[138.488194,36.15596],[138.4892508,36.1572626],[138.4898416,36.1583948],[138.4904196,36.1595171],[138.4914335,36.1614655],[138.4921599,36.1628226],[138.4925158,36.1634942],[138.4920099,36.1645683],[138.4913374,36.1659756],[138.4916271,36.1691618],[138.4919478,36.1724415],[138.4921009,36.1741151],[138.4922592,36.1757486],[138.4923916,36.1772108],[138.4925344,36.1787407],[138.4925613,36.1804083],[138.492596,36.1820487],[138.4926229,36.1836904],[138.4926529,36.1853337],[138.4926787,36.1869728],[138.4927196,36.189587],[138.4927455,36.1912336],[138.4927729,36.1928688],[138.4927941,36.1941796],[138.4928199,36.195558],[138.4932027,36.1971977],[138.4935659,36.1987222],[138.4939383,36.2003501],[138.4943273,36.2019534],[138.4946697,36.2034047],[138.495023,36.2049161],[138.4953913,36.206463],[138.495771,36.2080398],[138.4962267,36.2094698],[138.4967507,36.2110562],[138.4972416,36.2125954],[138.4977299,36.2140724],[138.4982281,36.2156091],[138.4987391,36.217197],[138.4990945,36.2183088],[138.4995988,36.2198182],[138.5000887,36.2213235],[138.5005077,36.2226363],[138.5014388,36.2241411],[138.5020181,36.2250841],[138.5028292,36.2263051],[138.5032462,36.2300347],[138.5018324,36.23231],[138.5008367,36.2339593],[138.4998104,36.2357852],[138.4983651,36.2383169],[138.4978686,36.2402669],[138.4988586,36.2430254],[138.4978851,36.2454618],[138.4993262,36.2464947],[138.5010477,36.2487608],[138.4988276,36.2506205],[138.4992828,36.2538775],[138.4997701,36.2577217],[138.5000846,36.2601651],[138.4995621,36.2627244],[138.4989577,36.2655841],[138.4985954,36.2673563],[138.4980472,36.2700019],[138.4975319,36.2724803],[138.4969947,36.2749912],[138.4973744,36.2775217],[138.4976781,36.2796249],[138.4981542,36.2825081],[138.4984378,36.2838324],[138.4977763,36.2864754],[138.4974687,36.2884995],[138.4977044,36.2906132],[138.4985722,36.2928227],[138.5010113,36.2953676],[138.5025033,36.29694],[138.5044148,36.298873],[138.5055228,36.3000326],[138.507011,36.3015736],[138.5082144,36.3028214],[138.5117387,36.3041104]]},"properties":{"name":"東京電力海瀬発電所~大字御代田変電所線","operator":"中部電力","voltage":"77000","frequency":null,"note":"other synchronous system (region grid is 50 Hz); present geographically, not part of this AC solve"}},{"type":"Feature","geometry":{"type":"LineString","coordinates":[[138.4727553,36.1562112],[138.4740588,36.153895],[138.4792301,36.1500259],[138.4831461,36.1470816],[138.4844255,36.146946],[138.486397,36.1467576],[138.491381,36.1462726],[138.495656,36.1456811],[138.4987094,36.1452749],[138.5054632,36.1443338],[138.5094542,36.1437628],[138.5141728,36.1431174],[138.5183062,36.1425491],[138.5210273,36.1421773],[138.5234898,36.1418495],[138.527298,36.1413427],[138.5301294,36.1409046],[138.534936,36.1402849],[138.5371708,36.1399644],[138.5425926,36.1392598],[138.5451739,36.138926],[138.5473132,36.1381969],[138.5515269,36.136749],[138.5555266,36.1353727],[138.5593034,36.1340812],[138.5617427,36.1332525],[138.5662379,36.1317133],[138.5713587,36.1299596],[138.574587,36.1288487],[138.5806518,36.1267707],[138.5840022,36.1256222],[138.5865552,36.1247394],[138.5902307,36.1233012],[138.592976,36.1222285],[138.6005927,36.1199377],[138.6035692,36.118878],[138.6072194,36.117569],[138.6110226,36.1162471],[138.6156873,36.1145808]]},"properties":{"name":"東京電力海瀬発電所~小海町変電所線","operator":"中部電力","voltage":"154000","frequency":null,"note":"other synchronous system (region grid is 50 Hz); present geographically, not part of this AC solve"}},{"type":"Feature","geometry":{"type":"LineString","coordinates":[[138.4167367,36.2984921],[138.4201089,36.2979133],[138.4259534,36.296934],[138.4285827,36.2963573],[138.4303509,36.2951634],[138.433206,36.2932481],[138.4348208,36.2928341],[138.4347269,36.2919661],[138.437098,36.2920352],[138.4382969,36.2928513],[138.439693,36.29274],[138.4423953,36.2925304],[138.445142,36.2923292],[138.4481701,36.2918861],[138.4502024,36.2914818],[138.451716,36.2902409],[138.4520525,36.2877639],[138.4523556,36.2856656],[138.4527237,36.282902],[138.4530538,36.2806723],[138.455666,36.2800448],[138.4586234,36.279054],[138.4613071,36.278204]]},"properties":{"name":"小諸市変電所~佐久平駅東変電所線","operator":"中部電力パワーグリッド","voltage":"77000","frequency":null,"note":"other synchronous system (region grid is 50 Hz); present geographically, not part of this AC solve"}},{"type":"Feature","geometry":{"type":"LineString","coordinates":[[138.4577298,36.7235213],[138.4596443,36.7228894],[138.4613139,36.7229445],[138.4641985,36.7238079],[138.4666873,36.724665],[138.469661,36.7253591],[138.471214,36.7262556],[138.4726807,36.7277712],[138.4754549,36.7296795],[138.4770587,36.7310511],[138.4805027,36.7313736],[138.4829504,36.7313487],[138.4883949,36.7312741],[138.4909748,36.7311445],[138.4929595,36.7312665],[138.4951849,36.7332471],[138.4974424,36.7352989],[138.499189,36.7364685],[138.502465,36.7386142],[138.5045233,36.7385467],[138.5075315,36.7378952]]},"properties":{"name":"中部電力パワーグリッド 77.0kV線","operator":"中部電力パワーグリッド","voltage":"77000","frequency":null,"note":"other synchronous system (region grid is 50 Hz); present geographically, not part of this AC solve"}},{"type":"Feature","geometry":{"type":"LineString","coordinates":[[138.3063951,36.7231127],[138.3106488,36.7249346],[138.3136659,36.7261906],[138.3173357,36.7280038],[138.3197862,36.7292648],[138.3219623,36.7303834],[138.3236008,36.7308969],[138.3253696,36.7314845],[138.3272335,36.7320951],[138.3294073,36.7321539],[138.331977,36.7322749],[138.3340691,36.7323134],[138.3362863,36.7323718],[138.3385069,36.732443],[138.3406283,36.7324718],[138.3427146,36.732528],[138.3450183,36.732563],[138.347163,36.7326419],[138.349227,36.7327046],[138.3513957,36.73275],[138.3530962,36.7329106],[138.3559529,36.7324691],[138.3579499,36.7321488],[138.3614124,36.7316325],[138.3645633,36.7311588],[138.3664299,36.7308788],[138.367606,36.7307003],[138.3697981,36.7303755],[138.3720039,36.7300423],[138.3740927,36.729727],[138.3758684,36.7294698],[138.378028,36.7291289],[138.3806059,36.7287486],[138.3826804,36.7281872],[138.3845354,36.7276764],[138.3861125,36.7272467],[138.3882621,36.726968],[138.3899701,36.7267435],[138.3909213,36.726606],[138.3939038,36.7266947],[138.3952164,36.7267658],[138.3973376,36.7268818],[138.3992815,36.7269839],[138.4013129,36.7270814],[138.4037676,36.7272098],[138.4061432,36.7273322],[138.4081417,36.7274377],[138.4103663,36.7275577],[138.4127341,36.727622],[138.4142456,36.7276524],[138.4161017,36.7277072],[138.4176436,36.7280288],[138.4197752,36.7284999],[138.4215929,36.7288654],[138.4228222,36.7290986],[138.4246204,36.7294199],[138.4270543,36.7298697],[138.4310338,36.7303627],[138.4347947,36.7284613],[138.4377705,36.7267878],[138.4404786,36.7270888],[138.4432492,36.7266368],[138.4472203,36.7255784],[138.4488984,36.7249784],[138.4521617,36.7240166],[138.454809,36.7237727],[138.4577298,36.7235213]]},"properties":{"name":"中部電力パワーグリッド 77.0kV線","operator":"中部電力株式会社","voltage":"77000","frequency":null,"note":"other synchronous system (region grid is 50 Hz); present geographically, not part of this AC solve"}},{"type":"Feature","geometry":{"type":"LineString","coordinates":[[138.3055814,36.3782508],[138.3083489,36.3773038],[138.3115488,36.3758727],[138.313823,36.3750088],[138.3168159,36.3740928],[138.3193935,36.3730233],[138.3223944,36.3716009],[138.3239662,36.3698858],[138.3258522,36.3678309],[138.3289212,36.3662064],[138.3315775,36.365257],[138.334609,36.3642172],[138.3379252,36.3632196],[138.3409162,36.3622198],[138.3440311,36.3611819],[138.3467249,36.3600797],[138.3500128,36.3587839],[138.3530191,36.3574615],[138.3559774,36.3566004],[138.3573341,36.3569527],[138.357968,36.3569531],[138.3609497,36.3567293],[138.3648792,36.3562653],[138.368909,36.3561696],[138.3723202,36.3544919],[138.3750696,36.353131],[138.3781678,36.3518686],[138.3814526,36.3511978],[138.3846488,36.3509563],[138.3876451,36.350597],[138.3904914,36.3502088],[138.3938389,36.3488981],[138.3970583,36.3468987],[138.3997313,36.3451949],[138.4020508,36.3437366],[138.4044628,36.3420504],[138.4082529,36.3413081],[138.4110587,36.3404144],[138.4137277,36.3395502],[138.4173222,36.3383731],[138.4197834,36.3374655],[138.4231781,36.3368306],[138.425539,36.3358219],[138.4278884,36.3347301],[138.4300929,36.3334874],[138.432418,36.3321962],[138.434526,36.3312811],[138.4358692,36.3294475],[138.438655,36.3290608],[138.4406986,36.3286297],[138.443505,36.3276926]]},"properties":{"name":"中部電力パワーグリッド 77.0kV線","operator":"中部電力","voltage":"77000","frequency":null,"note":"other synchronous system (region grid is 50 Hz); present geographically, not part of this AC solve"}},{"type":"Feature","geometry":{"type":"LineString","coordinates":[[138.4613071,36.278204],[138.4621042,36.2804251],[138.460625,36.281437],[138.4580916,36.2836964],[138.4563321,36.2851645],[138.4549668,36.2866282],[138.4536284,36.2882043],[138.4523973,36.290176],[138.4529378,36.2918488],[138.4524868,36.2938563],[138.4517135,36.2959016],[138.4518233,36.2989746],[138.4510814,36.3016307],[138.4505974,36.3044913],[138.4505988,36.3064481],[138.4505043,36.3081827],[138.4503829,36.3106361],[138.4501412,36.3121504],[138.4490365,36.3142317],[138.4475384,36.3168494],[138.4459063,36.3185377],[138.4438145,36.3200925],[138.4419874,36.3213721],[138.440523,36.3224169]]},"properties":{"name":"佐久平駅東変電所~小諸市変電所線","operator":"中部電力パワーグリッド","voltage":"77000","frequency":null,"note":"other synchronous system (region grid is 50 Hz); present geographically, not part of this AC solve"}},{"type":"Feature","geometry":{"type":"LineString","coordinates":[[138.6131448,36.3326217],[138.6133781,36.3340786],[138.6136933,36.3362998],[138.6110352,36.340641],[138.6095613,36.3433049],[138.6086661,36.3452136],[138.6083114,36.3459946],[138.6074719,36.3480578],[138.6073217,36.3484639],[138.6069924,36.3492778],[138.6063983,36.3507879],[138.6061288,36.3514602],[138.6058706,36.3520673],[138.6056037,36.3526494],[138.6053462,36.3532727],[138.6051585,36.3537781],[138.6048393,36.3546174],[138.6045872,36.355273],[138.6044557,36.3556542],[138.6043082,36.3567429],[138.6041553,36.3575486],[138.6040762,36.3581977],[138.6039837,36.358647],[138.6037745,36.3595996],[138.6035223,36.3606936],[138.6038335,36.3611948],[138.6071111,36.3664444],[138.6092274,36.3698514],[138.6102097,36.3716051],[138.6107448,36.3725575],[138.6117232,36.3743252],[138.6120518,36.374905],[138.613703,36.3775032],[138.6149421,36.3797434],[138.6162346,36.3839057],[138.6164641,36.3846645],[138.6169889,36.3863992],[138.6174788,36.3878575],[138.6180409,36.3898735],[138.6185258,36.391621],[138.6184456,36.394592],[138.6183228,36.3963462],[138.6182801,36.3979928],[138.6183869,36.3996308],[138.6184296,36.4008346],[138.6185899,36.4028336],[138.6187234,36.4045016],[138.6189531,36.4062943],[138.6190706,36.408031],[138.6192148,36.4099353],[138.619108,36.4107563],[138.6187982,36.4116805],[138.6183281,36.4122135],[138.6176124,36.413215],[138.6169501,36.4147109],[138.6169821,36.4159058],[138.6179222,36.4172211],[138.6191116,36.4190203],[138.6197698,36.421348],[138.6218308,36.4290106],[138.6221784,36.4321182],[138.6179877,36.4452464],[138.6089497,36.4555377],[138.6063233,36.4627058],[138.6031348,36.468488],[138.6029087,36.4688872],[138.6029815,36.4705323],[138.603123,36.472586],[138.6031347,36.4744744],[138.6031113,36.476553],[138.6030145,36.4797147],[138.6029091,36.4815558],[138.6029316,36.4840835],[138.6033531,36.4874513],[138.6036355,36.490005],[138.6045741,36.4925062],[138.6055821,36.4954928],[138.6065598,36.4982524],[138.6082066,36.5004844],[138.6094972,36.5023635],[138.6101185,36.5041099],[138.6112657,36.5065478],[138.6113395,36.5085176],[138.6114438,36.5120415],[138.6114829,36.5140775],[138.6109354,36.5171576],[138.6120478,36.5175732],[138.612215,36.5185201],[138.6131372,36.520088],[138.6136996,36.5210327],[138.6141844,36.5213522],[138.615048,36.5219174],[138.6160633,36.5225906],[138.6171822,36.5233169],[138.6202941,36.5247067]]},"properties":{"name":"軽井沢変電所~大津変電所線","operator":"中部電力パワーグリッド","voltage":null,"frequency":null,"note":"other synchronous system (region grid is 50 Hz); present geographically, not part of this AC solve"}},{"type":"Feature","geometry":{"type":"LineString","coordinates":[[138.5203081,36.3054529],[138.5221343,36.304004],[138.5243126,36.3059479],[138.5266543,36.3078522],[138.5287168,36.3090258],[138.5314863,36.3106177],[138.5340143,36.3108966],[138.5369754,36.3126699],[138.5397836,36.3141396],[138.5402689,36.3154417],[138.5404021,36.315799],[138.5404134,36.3158296],[138.5408887,36.3171048],[138.5437882,36.3195513],[138.5464355,36.3214357]]},"properties":{"name":"中部電力パワーグリッド 77.0kV線","operator":"中部電力","voltage":"77000","frequency":null,"note":"other synchronous system (region grid is 50 Hz); present geographically, not part of this AC solve"}},{"type":"Feature","geometry":{"type":"LineString","coordinates":[[138.443505,36.3276926],[138.4459971,36.3278932],[138.4483951,36.3281306],[138.4501653,36.3282714],[138.4533697,36.3286663],[138.4571457,36.3291433],[138.4604377,36.3284856],[138.4633051,36.3273964],[138.4662662,36.3265537],[138.4699944,36.3254549],[138.4733419,36.3244727],[138.476446,36.3235654],[138.4792629,36.3227957],[138.4822226,36.3220286],[138.4843658,36.3209686],[138.4871553,36.319216],[138.4898168,36.317174],[138.4922134,36.3157919],[138.4958839,36.3135885],[138.4981263,36.31196],[138.5010177,36.3099088],[138.5037938,36.3088487],[138.5068917,36.3076469],[138.5095686,36.3060496],[138.5117387,36.3041104],[138.5131057,36.3034875],[138.5162768,36.304623],[138.5203081,36.3054529]]},"properties":{"name":"小諸市変電所~大字御代田変電所線","operator":"中部電力パワーグリッド","voltage":"77000","frequency":null,"note":"other synchronous system (region grid is 50 Hz); present geographically, not part of this AC solve"}},{"type":"Feature","geometry":{"type":"LineString","coordinates":[[138.5203081,36.3054529],[138.5200908,36.3072362],[138.5200318,36.310353],[138.5185433,36.3109171],[138.5196269,36.3125921],[138.5206032,36.3142693],[138.5175991,36.3153694],[138.5192634,36.3161971]]},"properties":{"name":"中部電力パワーグリッド 77.0kV線","operator":"中部電力","voltage":"77000","frequency":null,"note":"other synchronous system (region grid is 50 Hz); present geographically, not part of this AC solve"}},{"type":"Feature","geometry":{"type":"LineString","coordinates":[[138.5464355,36.3214357],[138.5509168,36.321881],[138.5527279,36.3219911],[138.5559561,36.3223378],[138.5570669,36.322446],[138.5587965,36.3224563],[138.5617919,36.322698],[138.5640095,36.3230205],[138.5658867,36.3231616],[138.5675625,36.3232877],[138.5694693,36.323434],[138.5717856,36.3236093],[138.5738364,36.3236467],[138.5767179,36.3231062]]},"properties":{"name":"大字御代田変電所~軽井沢町変電所線","operator":"中部電力パワーグリッド","voltage":"77000","frequency":null,"note":"other synchronous system (region grid is 50 Hz); present geographically, not part of this AC solve"}},{"type":"Feature","geometry":{"type":"LineString","coordinates":[[138.5464355,36.3214357],[138.5482863,36.3234652],[138.5496186,36.3248707],[138.5508484,36.3261724],[138.5521721,36.3275751],[138.5556529,36.3298532],[138.5572106,36.3308358],[138.5601658,36.3326541],[138.5621774,36.3338858],[138.564183,36.3341089],[138.5661129,36.3343063],[138.5677122,36.3344767],[138.5690546,36.3344022],[138.5713673,36.3342623],[138.574765,36.3340548],[138.5770745,36.3339106],[138.578501,36.3338177],[138.5804714,36.3342618],[138.5824791,36.3346906],[138.5842701,36.3346636],[138.5855871,36.3346388],[138.5896996,36.3342153],[138.5939495,36.3337794],[138.5977086,36.3337075],[138.6008837,36.3338755],[138.604093,36.3341191],[138.6062568,36.3342596],[138.6097866,36.3334266],[138.6131448,36.3326217]]},"properties":{"name":"大字御代田変電所~軽井沢変電所線","operator":"中部電力パワーグリッド","voltage":"77000","frequency":null,"note":"other synchronous system (region grid is 50 Hz); present geographically, not part of this AC solve"}},{"type":"Feature","geometry":{"type":"LineString","coordinates":[[138.3315624,36.3272682],[138.3329156,36.3266751],[138.3347932,36.3258389],[138.3361718,36.3252359],[138.3413163,36.322955],[138.3476369,36.320138],[138.350193,36.3190088],[138.3512552,36.3172572],[138.3523804,36.315364],[138.3535699,36.3133658],[138.3545248,36.3117638],[138.355823,36.3096278],[138.3573277,36.307087],[138.358367,36.3053416],[138.3595727,36.3032871],[138.3604257,36.3018496],[138.3619947,36.2991735],[138.3635786,36.2965665],[138.3642733,36.2939334],[138.3650458,36.2911748],[138.3661187,36.2871558],[138.3670655,36.2836575],[138.36807,36.2799386],[138.3686426,36.2778055],[138.3697691,36.2736527],[138.3704639,36.272697],[138.3732157,36.2689688],[138.3775905,36.2629784],[138.3800045,36.2596791],[138.3819383,36.2570567],[138.383655,36.2547143],[138.3861119,36.2513855],[138.388039,36.2487574],[138.3898455,36.2462525],[138.3928795,36.2434385],[138.3956136,36.240825],[138.398678,36.2379315],[138.4002256,36.2364885],[138.4026678,36.2341963],[138.4052964,36.2317147],[138.4076443,36.2295203],[138.409496,36.2277326],[138.4102564,36.2270056],[138.4149805,36.2226013],[138.4158964,36.221712],[138.4169117,36.2207653],[138.4210691,36.2168583],[138.4219985,36.21597],[138.4237164,36.2143227],[138.4256858,36.2124686],[138.427548,36.2107146],[138.429628,36.208769],[138.4323625,36.2061881],[138.4339263,36.204724],[138.4390949,36.1997936],[138.4405097,36.1984624],[138.4422599,36.1967968],[138.4453431,36.1939136],[138.4471261,36.1922425],[138.4486147,36.1908572],[138.4525019,36.1870851],[138.453792,36.185876],[138.4547295,36.1849895],[138.4590619,36.1808881],[138.4611869,36.1770441],[138.4638812,36.1721769],[138.4657829,36.1687239],[138.4671736,36.1663425],[138.4681191,36.1645788],[138.4697331,36.1616425],[138.4712854,36.1588565],[138.4727553,36.1562112]]},"properties":{"name":"小諸市変電所~東京電力海瀬発電所線","operator":"中部電力パワーグリッド","voltage":"154000","frequency":null,"note":"other synchronous system (region grid is 50 Hz); present geographically, not part of this AC solve"}},{"type":"Feature","geometry":{"type":"LineString","coordinates":[[138.3709419,36.2772217],[138.3711361,36.2768489],[138.3728714,36.2776981],[138.3762131,36.278062],[138.3804087,36.2799593],[138.382906,36.281114],[138.3854875,36.2833147],[138.38807,36.2845261],[138.3918633,36.2855631],[138.3956241,36.2875401],[138.3989951,36.28977],[138.4048699,36.2894656],[138.4075838,36.2916183],[138.411051,36.2933281],[138.4145297,36.2947687],[138.4164519,36.2968355],[138.4167367,36.2984921]]},"properties":{"name":"中部電力パワーグリッド 77.0kV線","operator":"中部電力パワーグリッド","voltage":"77000","frequency":null,"note":"other synchronous system (region grid is 50 Hz); present geographically, not part of this AC solve"}},{"type":"Feature","geometry":{"type":"LineString","coordinates":[[138.4691611,36.201636],[138.4674384,36.203953],[138.4679883,36.2062049],[138.4681942,36.2080029],[138.4682934,36.2089221],[138.4684014,36.2102211],[138.4687601,36.2127737],[138.4673291,36.2136816],[138.4655502,36.2154155],[138.4639891,36.2175308],[138.4616737,36.2193642],[138.460407,36.2216021],[138.4586374,36.2239277],[138.456949,36.225848],[138.4570469,36.2292612],[138.4561712,36.2312582],[138.4557635,36.2338285],[138.4555046,36.2367762],[138.4547764,36.2395096],[138.4556642,36.2415972],[138.4565909,36.244469],[138.4573299,36.2466018],[138.4581064,36.2488839],[138.4596151,36.251007],[138.4614632,36.2536501],[138.463564,36.256576],[138.4646945,36.2586253],[138.4664722,36.2616646],[138.4673922,36.2645869],[138.4684389,36.2673767],[138.4696305,36.2703647],[138.4694561,36.2723055],[138.470073,36.2740711],[138.47104,36.2740939]]},"properties":{"name":"勝間変電所~佐久平駅東変電所線","operator":"中部電力パワーグリッド","voltage":"77000","frequency":null,"note":"other synchronous system (region grid is 50 Hz); present geographically, not part of this AC solve"}},{"type":"Feature","geometry":{"type":"LineString","coordinates":[[138.7006652,36.0889478],[138.7167183,36.0871704],[138.7391308,36.0843048],[138.7485373,36.0825837],[138.7566175,36.080706],[138.7580906,36.080685],[138.7646838,36.0805695],[138.7663117,36.080542],[138.7728797,36.0804385],[138.7809143,36.0802715],[138.7871255,36.0801626],[138.7900364,36.079325],[138.7933523,36.0783838],[138.7949758,36.0779309],[138.7966111,36.0774283],[138.7994899,36.0767644],[138.8024578,36.0759249],[138.8041569,36.0754373],[138.8093844,36.0739286],[138.8124374,36.0730813],[138.8151659,36.072306],[138.8221059,36.070312],[138.8277969,36.0686999],[138.8341386,36.066861],[138.8384351,36.0644723],[138.8398907,36.0636335],[138.8428169,36.0620098],[138.8451811,36.0607231],[138.8544248,36.0584516],[138.8582182,36.0575235],[138.8729998,36.0539435],[138.8845897,36.0511634],[138.9022896,36.0447183],[138.9106956,36.0416972],[138.9217466,36.0389502]]},"properties":{"name":"新羽変電所~新秩父開閉所線","operator":"中部電力パワーグリッド","voltage":"154000","frequency":null,"note":"other synchronous system (region grid is 50 Hz); present geographically, not part of this AC solve"}},{"type":"Feature","geometry":{"type":"LineString","coordinates":[[138.6156873,36.1145808],[138.6202338,36.1130727],[138.6278835,36.1103554],[138.6335188,36.1086912],[138.6376387,36.1074647],[138.6399722,36.1067496],[138.6462861,36.1048599],[138.647705,36.1044482],[138.6558831,36.1021077],[138.6608398,36.1007251],[138.6653041,36.095981],[138.6689669,36.0917828],[138.6784472,36.091086],[138.6975507,36.089375],[138.7006652,36.0889478]]},"properties":{"name":"小海町変電所~新羽変電所線","operator":"中部電力パワーグリッド","voltage":"154000","frequency":null,"note":"other synchronous system (region grid is 50 Hz); present geographically, not part of this AC solve"}},{"type":"Feature","geometry":{"type":"LineString","coordinates":[[138.4708338,36.274906],[138.4699296,36.2752349],[138.4669242,36.2763184],[138.4636726,36.2774118],[138.4613071,36.278204]]},"properties":{"name":"中部電力パワーグリッド 77.0kV線","operator":"中部電力","voltage":"77000","frequency":null,"note":"other synchronous system (region grid is 50 Hz); present geographically, not part of this AC solve"}},{"type":"Feature","geometry":{"type":"LineString","coordinates":[[138.440523,36.3224169],[138.4411213,36.3237848],[138.4412392,36.3248516],[138.4430211,36.3262555],[138.443505,36.3276926]]},"properties":{"name":"中部電力パワーグリッド 77.0kV線","operator":"中部電力","voltage":"77000","frequency":null,"note":"other synchronous system (region grid is 50 Hz); present geographically, not part of this AC solve"}},{"type":"Feature","geometry":{"type":"LineString","coordinates":[[138.3514315,36.3378202],[138.352465,36.3367435],[138.3541803,36.3365754],[138.3562694,36.3359484],[138.3594884,36.3351335],[138.3619537,36.3345404],[138.3634987,36.3341665],[138.3658571,36.3347856],[138.3676777,36.3352441],[138.3697471,36.3359047],[138.3720952,36.3366689],[138.3744835,36.3374148],[138.3784593,36.3387149],[138.3807331,36.3385802],[138.3835166,36.3384325],[138.3876445,36.3372495],[138.3896301,36.3369995],[138.3920055,36.3366919],[138.3936202,36.3355737],[138.3955498,36.335242],[138.4005339,36.3329677],[138.4033301,36.3316792],[138.4053255,36.3301061],[138.4073521,36.3285588],[138.4091878,36.3271486],[138.4127134,36.3244483],[138.4145782,36.3233419],[138.4161584,36.3216329],[138.4172922,36.3204357],[138.4186412,36.3190055],[138.4217594,36.317005],[138.4230392,36.3161463],[138.4271242,36.3149498],[138.4300409,36.3136249],[138.4330099,36.312286],[138.4359252,36.310956],[138.4386731,36.3097002],[138.4403716,36.3089589],[138.4436077,36.3075496],[138.4457481,36.3065596],[138.4484263,36.3054335],[138.4505974,36.3044913],[138.453387,36.3032763],[138.4559861,36.3021404],[138.4599678,36.3005116],[138.4639516,36.2989125],[138.4660886,36.2980451],[138.4693596,36.2967124],[138.4723636,36.2954996],[138.474498,36.2950262],[138.4776892,36.2942966],[138.4809467,36.2935594],[138.4843384,36.2927849],[138.488017,36.2919618],[138.4915535,36.29115],[138.4954521,36.2908149],[138.4977044,36.2906132]]},"properties":{"name":"小諸市変電所~佐久平駅東変電所線","operator":"中部電力パワーグリッド","voltage":null,"frequency":null,"note":"other synchronous system (region grid is 50 Hz); present geographically, not part of this AC solve"}},{"type":"Feature","geometry":{"type":"LineString","coordinates":[[138.4752572,36.130175],[138.4760671,36.129751],[138.4771028,36.1291246]]},"properties":{"name":"中部電力パワーグリッド 77.0kV線","operator":"中部電力株式会社","voltage":"77000","frequency":null,"note":"other synchronous system (region grid is 50 Hz); present geographically, not part of this AC solve"}},{"type":"Feature","geometry":{"type":"LineString","coordinates":[[138.4856553,36.0924159],[138.4852482,36.0918098],[138.484584,36.0924744]]},"properties":{"name":"中部電力パワーグリッド 77.0kV線","operator":"中部電力株式会社","voltage":"77000","frequency":null,"note":"other synchronous system (region grid is 50 Hz); present geographically, not part of this AC solve"}},{"type":"Feature","geometry":{"type":"LineString","coordinates":[[138.63718,36.3285562],[138.6348532,36.328755],[138.6328322,36.3289284],[138.6312215,36.3290683],[138.628778,36.3292687],[138.6262245,36.3295231],[138.6241016,36.3300191],[138.6205,36.3308747],[138.6167403,36.3317661],[138.6131448,36.3326217]]},"properties":{"name":"東京送電線_261","operator":"中部電力パワーグリッド","voltage":null,"frequency":null,"note":"other synchronous system (region grid is 50 Hz); present geographically, not part of this AC solve"}},{"type":"Feature","geometry":{"type":"LineString","coordinates":[[139.3436994,36.1679328],[139.3434264,36.1677655],[139.3433653,36.1676882]]},"properties":{"name":"東日本旅客鉄道 1.5kV線","operator":"東日本旅客鉄道","voltage":"1500","frequency":"0","note":"other synchronous system (region grid is 50 Hz); present geographically, not part of this AC solve"}},{"type":"Feature","geometry":{"type":"LineString","coordinates":[[138.5767179,36.3231062],[138.5767016,36.3236123],[138.5767854,36.3248874],[138.5773145,36.3261921],[138.5806203,36.3272326],[138.5819601,36.3294821],[138.5807551,36.3316856],[138.5805439,36.3340565],[138.5827406,36.3345167],[138.5826454,36.3358855],[138.5820539,36.3383978],[138.5830598,36.3393522],[138.5812774,36.3412956],[138.5797995,36.343023]]},"properties":{"name":"中部電力パワーグリッド 77.0kV線","operator":"中部電力パワーグリッド","voltage":"77000","frequency":null,"note":"other synchronous system (region grid is 50 Hz); present geographically, not part of this AC solve"}},{"type":"Feature","geometry":{"type":"LineString","coordinates":[[138.6379198,36.3279688],[138.6367727,36.3275931],[138.6351166,36.3272986],[138.6322915,36.3267325],[138.6294069,36.3260393],[138.6268894,36.3252779],[138.625005,36.3245914],[138.6230837,36.3235853],[138.6197736,36.3213402],[138.6121755,36.3221054],[138.6097718,36.3223295],[138.6077676,36.3225535],[138.6055482,36.3228105],[138.6033686,36.3230239],[138.6015895,36.32133],[138.5997616,36.3196538],[138.5969713,36.3199994],[138.5940445,36.3203691],[138.5924045,36.3205772],[138.5892514,36.3209752],[138.5878088,36.3211635],[138.5855926,36.3214369],[138.5834457,36.3216957],[138.5808059,36.322233],[138.5788725,36.3226448],[138.5767179,36.3231062]]},"properties":{"name":"軽井沢変電所~軽井沢町変電所線","operator":"中部電力パワーグリッド","voltage":null,"frequency":null,"note":"other synchronous system (region grid is 50 Hz); present geographically, not part of this AC solve"}}]}