{"type": "FeatureCollection", "features": [{"type": "Feature", "geometry": {"type": "LineString", "coordinates": [[136.1747962, 36.1182192], [136.1746225, 36.1198247]]}, "properties": {"power": "line", "voltage": null, "name": "manual_connection", "source": "manual", "supplement_source": "editor", "edit_id": "e_ab7642d229"}}, {"type": "Feature", "geometry": {"type": "LineString", "coordinates": [[136.1744823, 36.1171874], [136.1743199, 36.1188157]]}, "properties": {"power": "line", "voltage": null, "name": "manual_connection", "source": "manual", "supplement_source": "editor", "edit_id": "e_51c343bff9"}}, {"type": "Feature", "geometry": {"type": "LineString", "coordinates": [[136.1743199, 36.1188157], [136.1744202, 36.1206139]]}, "properties": {"power": "line", "voltage": null, "name": "manual_connection", "source": "manual", "supplement_source": "editor", "edit_id": "e_ced4944375"}}, {"type": "Feature", "geometry": {"type": "LineString", "coordinates": [[136.1744202, 36.1206139], [136.1744936, 36.1210798]]}, "properties": {"power": "line", "voltage": null, "name": "manual_connection", "source": "manual", "supplement_source": "editor", "edit_id": "e_7426e8fbd3"}}, {"type": "Feature", "geometry": {"type": "LineString", "coordinates": [[136.175159, 36.1182318], [136.1767228, 36.12018]]}, "properties": {"power": "line", "voltage": null, "name": "manual_connection", "source": "manual", "supplement_source": "editor", "edit_id": "e_fc7bb185d8"}}, {"type": "Feature", "geometry": {"type": "LineString", "coordinates": [[136.1849054, 36.0445916], [136.1848765, 36.046425]]}, "properties": {"power": "line", "voltage": null, "name": "manual_connection", "source": "manual", "supplement_source": "editor", "edit_id": "e_adb91e429d"}}, {"type": "Feature", "geometry": {"type": "LineString", "coordinates": [[136.1863437, 36.0464814], [136.1889723, 36.0449587]]}, "properties": {"power": "line", "voltage": null, "name": "manual_connection", "source": "manual", "supplement_source": "editor", "edit_id": "e_ce10e769e7"}}, {"type": "Feature", "geometry": {"type": "LineString", "coordinates": [[136.1852379, 36.0477409], [136.1854308, 36.0499712]]}, "properties": {"power": "line", "voltage": null, "name": "manual_connection", "source": "manual", "supplement_source": "editor", "edit_id": "e_74de6b1a4e"}}, {"type": "Feature", "geometry": {"type": "LineString", "coordinates": [[136.1851264, 36.0468375], [136.1848765, 36.046425]]}, "properties": {"power": "line", "voltage": null, "name": "manual_connection", "source": "manual", "supplement_source": "editor", "edit_id": "e_d72641aee8"}}, {"type": "Feature", "geometry": {"type": "LineString", "coordinates": [[136.1856471, 36.0468978], [136.1863437, 36.0464814]]}, "properties": {"power": "line", "voltage": null, "name": "manual_connection", "source": "manual", "supplement_source": "editor", "edit_id": "e_4f20ebbefb"}}, {"type": "Feature", "geometry": {"type": "LineString", "coordinates": [[136.02758646011355, 35.65103692768292], [136.0293373, 35.6518337]]}, "properties": {"power": "line", "voltage": null, "name": "manual_connection", "source": "manual", "supplement_source": "editor", "edit_id": "e_0f4225e603"}}, {"type": "Feature", "geometry": {"type": "LineString", "coordinates": [[136.03037595748904, 35.647549628346134], [136.03185653686526, 35.64632903761307]]}, "properties": {"power": "line", "voltage": null, "name": "manual_connection", "source": "manual", "supplement_source": "editor", "edit_id": "e_2790bdc5d6"}}, {"type": "Feature", "geometry": {"type": "LineString", "coordinates": [[136.03035449981692, 35.647549628346134], [136.02758646011355, 35.65103692768292]]}, "properties": {"power": "line", "voltage": null, "name": "manual_connection", "source": "manual", "supplement_source": "editor", "edit_id": "e_871be27a7f"}}, {"type": "Feature", "geometry": {"type": "LineString", "coordinates": [[136.03187799453738, 35.646276726164935], [136.0354828834534, 35.64326004138373]]}, "properties": {"power": "line", "voltage": null, "name": "manual_connection", "source": "manual", "supplement_source": "editor", "edit_id": "e_7ee15cc0a2"}}, {"type": "Feature", "geometry": {"type": "LineString", "coordinates": [[136.0354828834534, 35.64326004138373], [136.03640556335452, 35.642824094857644]]}, "properties": {"power": "line", "voltage": null, "name": "manual_connection", "source": "manual", "supplement_source": "editor", "edit_id": "e_09653f1345"}}, {"type": "Feature", "geometry": {"type": "LineString", "coordinates": [[136.03640556335452, 35.642824094857644], [136.0385084152222, 35.645265364768406]]}, "properties": {"power": "line", "voltage": null, "name": "manual_connection", "source": "manual", "supplement_source": "editor", "edit_id": "e_70559cf026"}}, {"type": "Feature", "geometry": {"type": "LineString", "coordinates": [[136.03848695755008, 35.64524792739067], [136.04172706604007, 35.64535255159995]]}, "properties": {"power": "line", "voltage": null, "name": "manual_connection", "source": "manual", "supplement_source": "editor", "edit_id": "e_64023fb06d"}}, {"type": "Feature", "geometry": {"type": "LineString", "coordinates": [[136.04459166526797, 35.645570518262566], [136.0416948795319, 35.64537870763086]]}, "properties": {"power": "line", "voltage": null, "name": "manual_connection", "source": "manual", "supplement_source": "editor", "edit_id": "e_3e0c34cfd8"}}, {"type": "Feature", "geometry": {"type": "LineString", "coordinates": [[136.03640556335452, 35.64281537590287], [136.03814363479617, 35.640801271854635]]}, "properties": {"power": "line", "voltage": null, "name": "manual_connection", "source": "manual", "supplement_source": "editor", "edit_id": "e_76f9b8ff2b"}}, {"type": "Feature", "geometry": {"type": "LineString", "coordinates": [[136.0402357578278, 35.638481937639625], [136.038111448288, 35.64078383350269]]}, "properties": {"power": "line", "voltage": null, "name": "manual_connection", "source": "manual", "supplement_source": "editor", "edit_id": "e_64d5611ed8"}}, {"type": "Feature", "geometry": {"type": "LineString", "coordinates": [[136.04024648666385, 35.638508095919626], [136.04123353958133, 35.63582246782279]]}, "properties": {"power": "line", "voltage": null, "name": "manual_connection", "source": "manual", "supplement_source": "editor", "edit_id": "e_40407e86c4"}}, {"type": "Feature", "geometry": {"type": "LineString", "coordinates": [[136.08966350555423, 35.650182553425296], [136.08756065368655, 35.648613270778846]]}, "properties": {"power": "line", "voltage": null, "name": "manual_connection", "source": "manual", "supplement_source": "editor", "edit_id": "e_e3eaaf319e"}}, {"type": "Feature", "geometry": {"type": "LineString", "coordinates": [[136.08756065368655, 35.648613270778846], [136.0919809341431, 35.6509846193175]]}, "properties": {"power": "line", "voltage": null, "name": "manual_connection", "source": "manual", "supplement_source": "editor", "edit_id": "e_8e0d0f3fa8"}}, {"type": "Feature", "geometry": {"type": "LineString", "coordinates": [[136.04123353958133, 35.63582246782279], [136.04408740997317, 35.63115728241717]]}, "properties": {"power": "line", "voltage": null, "name": "manual_connection", "source": "manual", "supplement_source": "editor", "edit_id": "e_64d7457c3f"}}, {"type": "Feature", "geometry": {"type": "LineString", "coordinates": [[136.04408740997317, 35.63115728241717], [136.04552507400516, 35.62880278640272]]}, "properties": {"power": "line", "voltage": null, "name": "manual_connection", "source": "manual", "supplement_source": "editor", "edit_id": "e_9facdb5637"}}, {"type": "Feature", "geometry": {"type": "LineString", "coordinates": [[136.04552507400516, 35.62880278640272], [136.04666233062747, 35.62683193271991]]}, "properties": {"power": "line", "voltage": null, "name": "manual_connection", "source": "manual", "supplement_source": "editor", "edit_id": "e_ff0fdc4bc7"}}, {"type": "Feature", "geometry": {"type": "LineString", "coordinates": [[136.04666233062747, 35.62683193271991], [136.0479283332825, 35.624808704951676]]}, "properties": {"power": "line", "voltage": null, "name": "manual_connection", "source": "manual", "supplement_source": "editor", "edit_id": "e_5bf9b9f714"}}, {"type": "Feature", "geometry": {"type": "LineString", "coordinates": [[136.0479283332825, 35.624808704951676], [136.05026721954349, 35.6242505641438]]}, "properties": {"power": "line", "voltage": null, "name": "manual_connection", "source": "manual", "supplement_source": "editor", "edit_id": "e_13ad308ef5"}}, {"type": "Feature", "geometry": {"type": "LineString", "coordinates": [[136.05026721954349, 35.6242505641438], [136.05329275131228, 35.62459940260531]]}, "properties": {"power": "line", "voltage": null, "name": "manual_connection", "source": "manual", "supplement_source": "editor", "edit_id": "e_f8f941bca4"}}, {"type": "Feature", "geometry": {"type": "LineString", "coordinates": [[136.05329275131228, 35.62459940260531], [136.0562109947205, 35.62482614678916]]}, "properties": {"power": "line", "voltage": null, "name": "manual_connection", "source": "manual", "supplement_source": "editor", "edit_id": "e_6d0d0bed22"}}, {"type": "Feature", "geometry": {"type": "LineString", "coordinates": [[136.0562109947205, 35.62482614678916], [136.05917215347293, 35.62524474974696]]}, "properties": {"power": "line", "voltage": null, "name": "manual_connection", "source": "manual", "supplement_source": "editor", "edit_id": "e_8253d5a9ff"}}, {"type": "Feature", "geometry": {"type": "LineString", "coordinates": [[136.05917215347293, 35.62524474974696], [136.06234788894656, 35.625576142200956]]}, "properties": {"power": "line", "voltage": null, "name": "manual_connection", "source": "manual", "supplement_source": "editor", "edit_id": "e_9226856401"}}, {"type": "Feature", "geometry": {"type": "LineString", "coordinates": [[136.06234788894656, 35.625576142200956], [136.06513738632205, 35.62592497487918]]}, "properties": {"power": "line", "voltage": null, "name": "manual_connection", "source": "manual", "supplement_source": "editor", "edit_id": "e_420668b3d4"}}, {"type": "Feature", "geometry": {"type": "LineString", "coordinates": [[136.06513738632205, 35.62592497487918], [136.06771230697635, 35.62515754097814]]}, "properties": {"power": "line", "voltage": null, "name": "manual_connection", "source": "manual", "supplement_source": "editor", "edit_id": "e_cc7a53af87"}}, {"type": "Feature", "geometry": {"type": "LineString", "coordinates": [[136.06771230697635, 35.62515754097814], [136.07026576995852, 35.62449475122664]]}, "properties": {"power": "line", "voltage": null, "name": "manual_connection", "source": "manual", "supplement_source": "editor", "edit_id": "e_2b0e4aac5f"}}, {"type": "Feature", "geometry": {"type": "LineString", "coordinates": [[136.07026576995852, 35.62449475122664], [136.07286214828494, 35.62381451392674]]}, "properties": {"power": "line", "voltage": null, "name": "manual_connection", "source": "manual", "supplement_source": "editor", "edit_id": "e_e187fa2f23"}}, {"type": "Feature", "geometry": {"type": "LineString", "coordinates": [[136.07286214828494, 35.62381451392674], [136.07554435729983, 35.62309938642296]]}, "properties": {"power": "line", "voltage": null, "name": "manual_connection", "source": "manual", "supplement_source": "editor", "edit_id": "e_974451e4c5"}}, {"type": "Feature", "geometry": {"type": "LineString", "coordinates": [[136.07554435729983, 35.62309938642296], [136.07837677001956, 35.62227959824562]]}, "properties": {"power": "line", "voltage": null, "name": "manual_connection", "source": "manual", "supplement_source": "editor", "edit_id": "e_5a6cd71d3d"}}, {"type": "Feature", "geometry": {"type": "LineString", "coordinates": [[136.07837677001956, 35.62227959824562], [136.08024358749392, 35.62350055629802]]}, "properties": {"power": "line", "voltage": null, "name": "manual_connection", "source": "manual", "supplement_source": "editor", "edit_id": "e_52a5b1120f"}}, {"type": "Feature", "geometry": {"type": "LineString", "coordinates": [[136.08024358749392, 35.62350055629802], [136.08116626739505, 35.6249482395449]]}, "properties": {"power": "line", "voltage": null, "name": "manual_connection", "source": "manual", "supplement_source": "editor", "edit_id": "e_3b1b9322c7"}}, {"type": "Feature", "geometry": {"type": "LineString", "coordinates": [[136.08116626739505, 35.6249482395449], [136.0829043388367, 35.62763423300284]]}, "properties": {"power": "line", "voltage": null, "name": "manual_connection", "source": "manual", "supplement_source": "editor", "edit_id": "e_f8926e4ce3"}}, {"type": "Feature", "geometry": {"type": "LineString", "coordinates": [[136.0829043388367, 35.62763423300284], [136.08466386795047, 35.63049454240354]]}, "properties": {"power": "line", "voltage": null, "name": "manual_connection", "source": "manual", "supplement_source": "editor", "edit_id": "e_dedea4ccc8"}}, {"type": "Feature", "geometry": {"type": "LineString", "coordinates": [[136.08466386795047, 35.63049454240354], [136.08562946319583, 35.63201186011372]]}, "properties": {"power": "line", "voltage": null, "name": "manual_connection", "source": "manual", "supplement_source": "editor", "edit_id": "e_afea4d7688"}}, {"type": "Feature", "geometry": {"type": "LineString", "coordinates": [[136.08562946319583, 35.63201186011372], [136.08846187591556, 35.63447090006676]]}, "properties": {"power": "line", "voltage": null, "name": "manual_connection", "source": "manual", "supplement_source": "editor", "edit_id": "e_9fdc33adae"}}, {"type": "Feature", "geometry": {"type": "LineString", "coordinates": [[136.08846187591556, 35.63447090006676], [136.08713150024417, 35.63734840394896]]}, "properties": {"power": "line", "voltage": null, "name": "manual_connection", "source": "manual", "supplement_source": "editor", "edit_id": "e_3627f946df"}}, {"type": "Feature", "geometry": {"type": "LineString", "coordinates": [[136.08713150024417, 35.63734840394896], [136.08644485473636, 35.638795836434426]]}, "properties": {"power": "line", "voltage": null, "name": "manual_connection", "source": "manual", "supplement_source": "editor", "edit_id": "e_7a6f3a761f"}}, {"type": "Feature", "geometry": {"type": "LineString", "coordinates": [[136.08644485473636, 35.638795836434426], [136.0850286483765, 35.641289544164486]]}, "properties": {"power": "line", "voltage": null, "name": "manual_connection", "source": "manual", "supplement_source": "editor", "edit_id": "e_e9a40d129b"}}, {"type": "Feature", "geometry": {"type": "LineString", "coordinates": [[136.0850286483765, 35.641289544164486], [136.08421325683597, 35.64284153276434]]}, "properties": {"power": "line", "voltage": null, "name": "manual_connection", "source": "manual", "supplement_source": "editor", "edit_id": "e_f58230af26"}}, {"type": "Feature", "geometry": {"type": "LineString", "coordinates": [[136.08421325683597, 35.64284153276434], [136.08193874359134, 35.64692189829827]]}, "properties": {"power": "line", "voltage": null, "name": "manual_connection", "source": "manual", "supplement_source": "editor", "edit_id": "e_bfe8019ce1"}}, {"type": "Feature", "geometry": {"type": "LineString", "coordinates": [[136.08193874359134, 35.64692189829827], [136.08193874359134, 35.64692189829827]]}, "properties": {"power": "line", "voltage": null, "name": "manual_connection", "source": "manual", "supplement_source": "editor", "edit_id": "e_5bfb8c9099"}}, {"type": "Feature", "geometry": {"type": "LineString", "coordinates": [[136.08193874359134, 35.64692189829827], [136.08193874359134, 35.64692189829827]]}, "properties": {"power": "line", "voltage": null, "name": "manual_connection", "source": "manual", "supplement_source": "editor", "edit_id": "e_b972511f8d"}}, {"type": "Feature", "geometry": {"type": "LineString", "coordinates": [[136.08193874359134, 35.64692189829827], [136.08193874359134, 35.64692189829827]]}, "properties": {"power": "line", "voltage": null, "name": "manual_connection", "source": "manual", "supplement_source": "editor", "edit_id": "e_d620fdf565"}}, {"type": "Feature", "geometry": {"type": "LineString", "coordinates": [[136.08193874359134, 35.64692189829827], [136.08193874359134, 35.64692189829827]]}, "properties": {"power": "line", "voltage": null, "name": "manual_connection", "source": "manual", "supplement_source": "editor", "edit_id": "e_b3afaea99f"}}, {"type": "Feature", "geometry": {"type": "LineString", "coordinates": [[136.08193874359134, 35.64692189829827], [136.08193874359134, 35.64692189829827]]}, "properties": {"power": "line", "voltage": null, "name": "manual_connection", "source": "manual", "supplement_source": "editor", "edit_id": "e_13fa7f36cc"}}, {"type": "Feature", "geometry": {"type": "LineString", "coordinates": [[136.9817073, 36.4772548], [136.9775916, 36.4786633]]}, "properties": {"power": "line", "voltage": null, "name": "manual_connection", "source": "manual", "supplement_source": "editor", "edit_id": "e_90dbcecefb"}}, {"type": "Feature", "geometry": {"type": "LineString", "coordinates": [[136.9775916, 36.4786633], [136.9747127, 36.4805657]]}, "properties": {"power": "line", "voltage": null, "name": "manual_connection", "source": "manual", "supplement_source": "editor", "edit_id": "e_d7edca9418"}}, {"type": "Feature", "geometry": {"type": "LineString", "coordinates": [[136.9747127, 36.4805657], [136.9737799, 36.4811576]]}, "properties": {"power": "line", "voltage": null, "name": "manual_connection", "source": "manual", "supplement_source": "editor", "edit_id": "e_8c099a7e99"}}, {"type": "Feature", "geometry": {"type": "LineString", "coordinates": [[136.9737799, 36.4811576], [136.9705239, 36.4825673]]}, "properties": {"power": "line", "voltage": null, "name": "manual_connection", "source": "manual", "supplement_source": "editor", "edit_id": "e_57b74e5ee0"}}, {"type": "Feature", "geometry": {"type": "LineString", "coordinates": [[136.9705239, 36.4825673], [136.9593452, 36.4887157]]}, "properties": {"power": "line", "voltage": null, "name": "manual_connection", "source": "manual", "supplement_source": "editor", "edit_id": "e_68477e6dd4"}}, {"type": "Feature", "geometry": {"type": "LineString", "coordinates": [[136.9593452, 36.4887157], [136.9544774, 36.4913654]]}, "properties": {"power": "line", "voltage": null, "name": "manual_connection", "source": "manual", "supplement_source": "editor", "edit_id": "e_c40590483f"}}, {"type": "Feature", "geometry": {"type": "LineString", "coordinates": [[136.9544774, 36.4913654], [136.9531739, 36.4920252]]}, "properties": {"power": "line", "voltage": null, "name": "manual_connection", "source": "manual", "supplement_source": "editor", "edit_id": "e_f2e39aa526"}}, {"type": "Feature", "geometry": {"type": "LineString", "coordinates": [[136.9531739, 36.4920252], [136.9503361, 36.4934829]]}, "properties": {"power": "line", "voltage": null, "name": "manual_connection", "source": "manual", "supplement_source": "editor", "edit_id": "e_c7503ca97d"}}, {"type": "Feature", "geometry": {"type": "LineString", "coordinates": [[136.9503361, 36.4934829], [136.9474339, 36.4949837]]}, "properties": {"power": "line", "voltage": null, "name": "manual_connection", "source": "manual", "supplement_source": "editor", "edit_id": "e_3eaf0f61ae"}}, {"type": "Feature", "geometry": {"type": "LineString", "coordinates": [[136.9474339, 36.4949837], [136.9394839, 36.4990373]]}, "properties": {"power": "line", "voltage": null, "name": "manual_connection", "source": "manual", "supplement_source": "editor", "edit_id": "e_c7ce7b02a5"}}, {"type": "Feature", "geometry": {"type": "LineString", "coordinates": [[136.9394839, 36.4990373], [136.936689, 36.5004258]]}, "properties": {"power": "line", "voltage": null, "name": "manual_connection", "source": "manual", "supplement_source": "editor", "edit_id": "e_432b4da032"}}, {"type": "Feature", "geometry": {"type": "LineString", "coordinates": [[136.936689, 36.5004258], [136.935128, 36.5012624]]}, "properties": {"power": "line", "voltage": null, "name": "manual_connection", "source": "manual", "supplement_source": "editor", "edit_id": "e_08d875b210"}}, {"type": "Feature", "geometry": {"type": "LineString", "coordinates": [[136.935128, 36.5012624], [136.9318074, 36.5030218]]}, "properties": {"power": "line", "voltage": null, "name": "manual_connection", "source": "manual", "supplement_source": "editor", "edit_id": "e_a4685ab5ab"}}, {"type": "Feature", "geometry": {"type": "LineString", "coordinates": [[136.9318074, 36.5030218], [136.9291735, 36.5041817]]}, "properties": {"power": "line", "voltage": null, "name": "manual_connection", "source": "manual", "supplement_source": "editor", "edit_id": "e_a34b161155"}}, {"type": "Feature", "geometry": {"type": "LineString", "coordinates": [[136.9168393, 36.4946581], [136.9173051, 36.4937201]]}, "properties": {"power": "line", "voltage": null, "name": "manual_connection", "source": "manual", "supplement_source": "editor", "edit_id": "e_46f7f2f742"}}, {"type": "Feature", "geometry": {"type": "LineString", "coordinates": [[136.9173051, 36.4937201], [136.914121, 36.4910352]]}, "properties": {"power": "line", "voltage": null, "name": "manual_connection", "source": "manual", "supplement_source": "editor", "edit_id": "e_0a92e88361"}}, {"type": "Feature", "geometry": {"type": "LineString", "coordinates": [[136.914121, 36.4910352], [136.911884, 36.489103]]}, "properties": {"power": "line", "voltage": null, "name": "manual_connection", "source": "manual", "supplement_source": "editor", "edit_id": "e_5620eec2fe"}}, {"type": "Feature", "geometry": {"type": "LineString", "coordinates": [[136.911884, 36.489103], [136.9096148, 36.4873865]]}, "properties": {"power": "line", "voltage": null, "name": "manual_connection", "source": "manual", "supplement_source": "editor", "edit_id": "e_665e658757"}}, {"type": "Feature", "geometry": {"type": "LineString", "coordinates": [[136.9096148, 36.4873865], [136.9074208, 36.4854629]]}, "properties": {"power": "line", "voltage": null, "name": "manual_connection", "source": "manual", "supplement_source": "editor", "edit_id": "e_e192581a39"}}, {"type": "Feature", "geometry": {"type": "LineString", "coordinates": [[136.9074208, 36.4854629], [136.9034458, 36.4819305]]}, "properties": {"power": "line", "voltage": null, "name": "manual_connection", "source": "manual", "supplement_source": "editor", "edit_id": "e_e46a106f7f"}}, {"type": "Feature", "geometry": {"type": "LineString", "coordinates": [[136.9034458, 36.4819305], [136.9022978, 36.4794288]]}, "properties": {"power": "line", "voltage": null, "name": "manual_connection", "source": "manual", "supplement_source": "editor", "edit_id": "e_eecb7e525d"}}, {"type": "Feature", "geometry": {"type": "LineString", "coordinates": [[136.9022978, 36.4794288], [136.9011525, 36.475346]]}, "properties": {"power": "line", "voltage": null, "name": "manual_connection", "source": "manual", "supplement_source": "editor", "edit_id": "e_f49945f5db"}}, {"type": "Feature", "geometry": {"type": "LineString", "coordinates": [[136.9011525, 36.475346], [136.9002378, 36.4726263]]}, "properties": {"power": "line", "voltage": null, "name": "manual_connection", "source": "manual", "supplement_source": "editor", "edit_id": "e_81a643e510"}}, {"type": "Feature", "geometry": {"type": "LineString", "coordinates": [[136.9002378, 36.4726263], [136.8997577, 36.4706721]]}, "properties": {"power": "line", "voltage": null, "name": "manual_connection", "source": "manual", "supplement_source": "editor", "edit_id": "e_2c1ecba246"}}, {"type": "Feature", "geometry": {"type": "LineString", "coordinates": [[136.8997577, 36.4706721], [136.8985266, 36.4663625]]}, "properties": {"power": "line", "voltage": null, "name": "manual_connection", "source": "manual", "supplement_source": "editor", "edit_id": "e_5591e007ff"}}, {"type": "Feature", "geometry": {"type": "LineString", "coordinates": [[136.8985266, 36.4663625], [136.8971533, 36.4614572]]}, "properties": {"power": "line", "voltage": null, "name": "manual_connection", "source": "manual", "supplement_source": "editor", "edit_id": "e_8e9c62fc51"}}, {"type": "Feature", "geometry": {"type": "LineString", "coordinates": [[136.8971533, 36.4614572], [136.896236, 36.4565904]]}, "properties": {"power": "line", "voltage": null, "name": "manual_connection", "source": "manual", "supplement_source": "editor", "edit_id": "e_e5c1a9c3f3"}}, {"type": "Feature", "geometry": {"type": "LineString", "coordinates": [[136.896236, 36.4565904], [136.8954528, 36.4540749]]}, "properties": {"power": "line", "voltage": null, "name": "manual_connection", "source": "manual", "supplement_source": "editor", "edit_id": "e_055d4d1467"}}, {"type": "Feature", "geometry": {"type": "LineString", "coordinates": [[136.8954528, 36.4540749], [136.8942619, 36.4503382]]}, "properties": {"power": "line", "voltage": null, "name": "manual_connection", "source": "manual", "supplement_source": "editor", "edit_id": "e_672c8503e5"}}, {"type": "Feature", "geometry": {"type": "LineString", "coordinates": [[136.8942619, 36.4503382], [136.8945408, 36.4463036]]}, "properties": {"power": "line", "voltage": null, "name": "manual_connection", "source": "manual", "supplement_source": "editor", "edit_id": "e_88a8cd824c"}}, {"type": "Feature", "geometry": {"type": "LineString", "coordinates": [[136.8945408, 36.4463036], [136.8948573, 36.4443963]]}, "properties": {"power": "line", "voltage": null, "name": "manual_connection", "source": "manual", "supplement_source": "editor", "edit_id": "e_79707922cd"}}, {"type": "Feature", "geometry": {"type": "LineString", "coordinates": [[136.8948573, 36.4443963], [136.8940849, 36.4411727]]}, "properties": {"power": "line", "voltage": null, "name": "manual_connection", "source": "manual", "supplement_source": "editor", "edit_id": "e_00e8df9534"}}, {"type": "Feature", "geometry": {"type": "LineString", "coordinates": [[136.8940849, 36.4411727], [136.8924809, 36.4363651]]}, "properties": {"power": "line", "voltage": null, "name": "manual_connection", "source": "manual", "supplement_source": "editor", "edit_id": "e_b64618dd17"}}, {"type": "Feature", "geometry": {"type": "LineString", "coordinates": [[136.8924809, 36.4363651], [136.8909038, 36.4315183]]}, "properties": {"power": "line", "voltage": null, "name": "manual_connection", "source": "manual", "supplement_source": "editor", "edit_id": "e_1fd7d94f66"}}, {"type": "Feature", "geometry": {"type": "LineString", "coordinates": [[136.8372014, 36.563601], [136.8318999, 36.5641439]]}, "properties": {"power": "line", "voltage": null, "name": "manual_connection", "source": "manual", "supplement_source": "editor", "edit_id": "e_4833fe52fd"}}, {"type": "Feature", "geometry": {"type": "LineString", "coordinates": [[136.8318999, 36.5641439], [136.8306954, 36.5641196]]}, "properties": {"power": "line", "voltage": null, "name": "manual_connection", "source": "manual", "supplement_source": "editor", "edit_id": "e_709ecd38a1"}}, {"type": "Feature", "geometry": {"type": "LineString", "coordinates": [[136.8306954, 36.5641196], [136.8278724, 36.5641509]]}, "properties": {"power": "line", "voltage": null, "name": "manual_connection", "source": "manual", "supplement_source": "editor", "edit_id": "e_c288a5af7e"}}, {"type": "Feature", "geometry": {"type": "LineString", "coordinates": [[136.8278724, 36.5641509], [136.8243886, 36.564184]]}, "properties": {"power": "line", "voltage": null, "name": "manual_connection", "source": "manual", "supplement_source": "editor", "edit_id": "e_475bb4b038"}}, {"type": "Feature", "geometry": {"type": "LineString", "coordinates": [[136.8243886, 36.564184], [136.8211519, 36.5642031]]}, "properties": {"power": "line", "voltage": null, "name": "manual_connection", "source": "manual", "supplement_source": "editor", "edit_id": "e_85ab1c0788"}}, {"type": "Feature", "geometry": {"type": "LineString", "coordinates": [[136.8211519, 36.5642031], [136.8194295, 36.5642135]]}, "properties": {"power": "line", "voltage": null, "name": "manual_connection", "source": "manual", "supplement_source": "editor", "edit_id": "e_1f0a1d77b6"}}, {"type": "Feature", "geometry": {"type": "LineString", "coordinates": [[136.8194295, 36.5642135], [136.8172023, 36.5642344]]}, "properties": {"power": "line", "voltage": null, "name": "manual_connection", "source": "manual", "supplement_source": "editor", "edit_id": "e_5bcfd6993c"}}, {"type": "Feature", "geometry": {"type": "LineString", "coordinates": [[136.8172023, 36.5642344], [136.8141887, 36.564257]]}, "properties": {"power": "line", "voltage": null, "name": "manual_connection", "source": "manual", "supplement_source": "editor", "edit_id": "e_173f686239"}}, {"type": "Feature", "geometry": {"type": "LineString", "coordinates": [[136.8141887, 36.564257], [136.8110949, 36.5642849]]}, "properties": {"power": "line", "voltage": null, "name": "manual_connection", "source": "manual", "supplement_source": "editor", "edit_id": "e_35cb57b9b0"}}, {"type": "Feature", "geometry": {"type": "LineString", "coordinates": [[136.8110949, 36.5642849], [136.8078755, 36.564318]]}, "properties": {"power": "line", "voltage": null, "name": "manual_connection", "source": "manual", "supplement_source": "editor", "edit_id": "e_43088ca3bb"}}, {"type": "Feature", "geometry": {"type": "LineString", "coordinates": [[136.8078755, 36.564318], [136.8061271, 36.5643319]]}, "properties": {"power": "line", "voltage": null, "name": "manual_connection", "source": "manual", "supplement_source": "editor", "edit_id": "e_cd40c7b851"}}, {"type": "Feature", "geometry": {"type": "LineString", "coordinates": [[136.8061271, 36.5643319], [136.8038436, 36.564351]]}, "properties": {"power": "line", "voltage": null, "name": "manual_connection", "source": "manual", "supplement_source": "editor", "edit_id": "e_78bbb44683"}}, {"type": "Feature", "geometry": {"type": "LineString", "coordinates": [[136.8038436, 36.564351], [136.8023206, 36.5643475]]}, "properties": {"power": "line", "voltage": null, "name": "manual_connection", "source": "manual", "supplement_source": "editor", "edit_id": "e_920c4e91c8"}}, {"type": "Feature", "geometry": {"type": "LineString", "coordinates": [[136.8023206, 36.5643475], [136.7998963, 36.5643876]]}, "properties": {"power": "line", "voltage": null, "name": "manual_connection", "source": "manual", "supplement_source": "editor", "edit_id": "e_17ec101fa2"}}, {"type": "Feature", "geometry": {"type": "LineString", "coordinates": [[136.7998963, 36.5643876], [136.7948875, 36.5644258]]}, "properties": {"power": "line", "voltage": null, "name": "manual_connection", "source": "manual", "supplement_source": "editor", "edit_id": "e_05436e83f3"}}, {"type": "Feature", "geometry": {"type": "LineString", "coordinates": [[136.7948875, 36.5644258], [136.7933049, 36.5643189]]}, "properties": {"power": "line", "voltage": null, "name": "manual_connection", "source": "manual", "supplement_source": "editor", "edit_id": "e_24555746ce"}}, {"type": "Feature", "geometry": {"type": "LineString", "coordinates": [[136.7933049, 36.5643189], [136.7887416, 36.5625831]]}, "properties": {"power": "line", "voltage": null, "name": "manual_connection", "source": "manual", "supplement_source": "editor", "edit_id": "e_25dde45934"}}, {"type": "Feature", "geometry": {"type": "LineString", "coordinates": [[136.7887416, 36.5625831], [136.7871298, 36.5619618]]}, "properties": {"power": "line", "voltage": null, "name": "manual_connection", "source": "manual", "supplement_source": "editor", "edit_id": "e_08d9433591"}}, {"type": "Feature", "geometry": {"type": "LineString", "coordinates": [[136.7871298, 36.5619618], [136.781668, 36.5598719]]}, "properties": {"power": "line", "voltage": null, "name": "manual_connection", "source": "manual", "supplement_source": "editor", "edit_id": "e_87b16f7161"}}, {"type": "Feature", "geometry": {"type": "LineString", "coordinates": [[136.781668, 36.5598719], [136.7790638, 36.5588799]]}, "properties": {"power": "line", "voltage": null, "name": "manual_connection", "source": "manual", "supplement_source": "editor", "edit_id": "e_258b9f630b"}}, {"type": "Feature", "geometry": {"type": "LineString", "coordinates": [[136.7790638, 36.5588799], [136.7762502, 36.5577997]]}, "properties": {"power": "line", "voltage": null, "name": "manual_connection", "source": "manual", "supplement_source": "editor", "edit_id": "e_5819165f22"}}, {"type": "Feature", "geometry": {"type": "LineString", "coordinates": [[136.7762502, 36.5577997], [136.7716119, 36.5560355]]}, "properties": {"power": "line", "voltage": null, "name": "manual_connection", "source": "manual", "supplement_source": "editor", "edit_id": "e_a546dd6c9d"}}, {"type": "Feature", "geometry": {"type": "LineString", "coordinates": [[136.7716119, 36.5560355], [136.7694259, 36.5553742]]}, "properties": {"power": "line", "voltage": null, "name": "manual_connection", "source": "manual", "supplement_source": "editor", "edit_id": "e_3a118ab263"}}, {"type": "Feature", "geometry": {"type": "LineString", "coordinates": [[136.7694259, 36.5553742], [136.7675237, 36.5548434]]}, "properties": {"power": "line", "voltage": null, "name": "manual_connection", "source": "manual", "supplement_source": "editor", "edit_id": "e_3821e47fef"}}, {"type": "Feature", "geometry": {"type": "LineString", "coordinates": [[136.7675237, 36.5548434], [136.764047, 36.5539005]]}, "properties": {"power": "line", "voltage": null, "name": "manual_connection", "source": "manual", "supplement_source": "editor", "edit_id": "e_6d2095ce53"}}, {"type": "Feature", "geometry": {"type": "LineString", "coordinates": [[136.764047, 36.5539005], [136.7628722, 36.5534659]]}, "properties": {"power": "line", "voltage": null, "name": "manual_connection", "source": "manual", "supplement_source": "editor", "edit_id": "e_f08bf87a81"}}, {"type": "Feature", "geometry": {"type": "LineString", "coordinates": [[136.7628722, 36.5534659], [136.7612548, 36.5529312]]}, "properties": {"power": "line", "voltage": null, "name": "manual_connection", "source": "manual", "supplement_source": "editor", "edit_id": "e_ffc1847c2d"}}, {"type": "Feature", "geometry": {"type": "LineString", "coordinates": [[136.7612548, 36.5529312], [136.7569369, 36.5508496]]}, "properties": {"power": "line", "voltage": null, "name": "manual_connection", "source": "manual", "supplement_source": "editor", "edit_id": "e_e4234eb0ae"}}, {"type": "Feature", "geometry": {"type": "LineString", "coordinates": [[136.7569369, 36.5508496], [136.755181, 36.5507768]]}, "properties": {"power": "line", "voltage": null, "name": "manual_connection", "source": "manual", "supplement_source": "editor", "edit_id": "e_908ed6f001"}}, {"type": "Feature", "geometry": {"type": "LineString", "coordinates": [[136.755181, 36.5507768], [136.7513282, 36.5493062]]}, "properties": {"power": "line", "voltage": null, "name": "manual_connection", "source": "manual", "supplement_source": "editor", "edit_id": "e_594fea1e82"}}, {"type": "Feature", "geometry": {"type": "LineString", "coordinates": [[136.7295501, 36.5391578], [136.726479, 36.5380428]]}, "properties": {"power": "line", "voltage": null, "name": "manual_connection", "source": "manual", "supplement_source": "editor", "edit_id": "e_16e71a09ae"}}, {"type": "Feature", "geometry": {"type": "LineString", "coordinates": [[136.726479, 36.5380428], [136.7251405, 36.5372928]]}, "properties": {"power": "line", "voltage": null, "name": "manual_connection", "source": "manual", "supplement_source": "editor", "edit_id": "e_38b9ceb4de"}}, {"type": "Feature", "geometry": {"type": "LineString", "coordinates": [[136.7251405, 36.5372928], [136.7230905, 36.5360515]]}, "properties": {"power": "line", "voltage": null, "name": "manual_connection", "source": "manual", "supplement_source": "editor", "edit_id": "e_6c636586e6"}}, {"type": "Feature", "geometry": {"type": "LineString", "coordinates": [[136.8535566, 36.4598741], [136.8546241, 36.4561657]]}, "properties": {"power": "line", "voltage": null, "name": "manual_connection", "source": "manual", "supplement_source": "editor", "edit_id": "e_f0e033339b"}}, {"type": "Feature", "geometry": {"type": "LineString", "coordinates": [[136.8546241, 36.4561657], [136.8544364, 36.4485931]]}, "properties": {"power": "line", "voltage": null, "name": "manual_connection", "source": "manual", "supplement_source": "editor", "edit_id": "e_d5a27bb0e8"}}, {"type": "Feature", "geometry": {"type": "LineString", "coordinates": [[136.8544364, 36.4485931], [136.8516362, 36.4414815]]}, "properties": {"power": "line", "voltage": null, "name": "manual_connection", "source": "manual", "supplement_source": "editor", "edit_id": "e_a9df8cc0ca"}}, {"type": "Feature", "geometry": {"type": "LineString", "coordinates": [[136.8516362, 36.4414815], [136.8509066, 36.4374767]]}, "properties": {"power": "line", "voltage": null, "name": "manual_connection", "source": "manual", "supplement_source": "editor", "edit_id": "e_405a01e3bd"}}, {"type": "Feature", "geometry": {"type": "LineString", "coordinates": [[136.8509066, 36.4374767], [136.8522799, 36.4303209]]}, "properties": {"power": "line", "voltage": null, "name": "manual_connection", "source": "manual", "supplement_source": "editor", "edit_id": "e_47a151d022"}}, {"type": "Feature", "geometry": {"type": "LineString", "coordinates": [[136.8522799, 36.4303209], [136.8540501, 36.4278175]]}, "properties": {"power": "line", "voltage": null, "name": "manual_connection", "source": "manual", "supplement_source": "editor", "edit_id": "e_f26263a966"}}, {"type": "Feature", "geometry": {"type": "LineString", "coordinates": [[136.8540501, 36.4278175], [136.8589318, 36.4231299]]}, "properties": {"power": "line", "voltage": null, "name": "manual_connection", "source": "manual", "supplement_source": "editor", "edit_id": "e_9ef659a68a"}}, {"type": "Feature", "geometry": {"type": "LineString", "coordinates": [[136.8589318, 36.4231299], [136.8594253, 36.4206091]]}, "properties": {"power": "line", "voltage": null, "name": "manual_connection", "source": "manual", "supplement_source": "editor", "edit_id": "e_20d93e9fd3"}}, {"type": "Feature", "geometry": {"type": "LineString", "coordinates": [[136.8594253, 36.4206091], [136.8592214, 36.4145914]]}, "properties": {"power": "line", "voltage": null, "name": "manual_connection", "source": "manual", "supplement_source": "editor", "edit_id": "e_75fac0a1b1"}}, {"type": "Feature", "geometry": {"type": "LineString", "coordinates": [[136.8592214, 36.4145914], [136.8587816, 36.4080898]]}, "properties": {"power": "line", "voltage": null, "name": "manual_connection", "source": "manual", "supplement_source": "editor", "edit_id": "e_88965c3499"}}, {"type": "Feature", "geometry": {"type": "LineString", "coordinates": [[136.8587816, 36.4080898], [136.8596721, 36.4046445]]}, "properties": {"power": "line", "voltage": null, "name": "manual_connection", "source": "manual", "supplement_source": "editor", "edit_id": "e_f66d935ded"}}, {"type": "Feature", "geometry": {"type": "LineString", "coordinates": [[136.8596721, 36.4046445], [136.8600637, 36.4004995]]}, "properties": {"power": "line", "voltage": null, "name": "manual_connection", "source": "manual", "supplement_source": "editor", "edit_id": "e_dc5fd10b0d"}}, {"type": "Feature", "geometry": {"type": "LineString", "coordinates": [[136.8600637, 36.4004995], [136.8613672, 36.3953267]]}, "properties": {"power": "line", "voltage": null, "name": "manual_connection", "source": "manual", "supplement_source": "editor", "edit_id": "e_4ba791355c"}}, {"type": "Feature", "geometry": {"type": "LineString", "coordinates": [[136.8613672, 36.3953267], [136.8579662, 36.3892035]]}, "properties": {"power": "line", "voltage": null, "name": "manual_connection", "source": "manual", "supplement_source": "editor", "edit_id": "e_cae8b2052d"}}, {"type": "Feature", "geometry": {"type": "LineString", "coordinates": [[136.8579662, 36.3892035], [136.8566465, 36.386051]]}, "properties": {"power": "line", "voltage": null, "name": "manual_connection", "source": "manual", "supplement_source": "editor", "edit_id": "e_7459449f06"}}, {"type": "Feature", "geometry": {"type": "LineString", "coordinates": [[136.8566465, 36.386051], [136.8553913, 36.3790373]]}, "properties": {"power": "line", "voltage": null, "name": "manual_connection", "source": "manual", "supplement_source": "editor", "edit_id": "e_694ae19f3e"}}, {"type": "Feature", "geometry": {"type": "LineString", "coordinates": [[136.8553913, 36.3790373], [136.8552089, 36.3746664]]}, "properties": {"power": "line", "voltage": null, "name": "manual_connection", "source": "manual", "supplement_source": "editor", "edit_id": "e_26f5bbef21"}}, {"type": "Feature", "geometry": {"type": "LineString", "coordinates": [[136.8552089, 36.3746664], [136.8544364, 36.3706754]]}, "properties": {"power": "line", "voltage": null, "name": "manual_connection", "source": "manual", "supplement_source": "editor", "edit_id": "e_9029411cfc"}}, {"type": "Feature", "geometry": {"type": "LineString", "coordinates": [[136.8544364, 36.3706754], [136.8557882, 36.3658029]]}, "properties": {"power": "line", "voltage": null, "name": "manual_connection", "source": "manual", "supplement_source": "editor", "edit_id": "e_33df2d5e26"}}, {"type": "Feature", "geometry": {"type": "LineString", "coordinates": [[136.8557882, 36.3658029], [136.8570113, 36.3617855]]}, "properties": {"power": "line", "voltage": null, "name": "manual_connection", "source": "manual", "supplement_source": "editor", "edit_id": "e_2631957289"}}, {"type": "Feature", "geometry": {"type": "LineString", "coordinates": [[136.8570113, 36.3617855], [136.8588567, 36.3573704]]}, "properties": {"power": "line", "voltage": null, "name": "manual_connection", "source": "manual", "supplement_source": "editor", "edit_id": "e_beb39d1fd6"}}, {"type": "Feature", "geometry": {"type": "LineString", "coordinates": [[136.8588567, 36.3573704], [136.8604553, 36.3536982]]}, "properties": {"power": "line", "voltage": null, "name": "manual_connection", "source": "manual", "supplement_source": "editor", "edit_id": "e_c5de6e3435"}}, {"type": "Feature", "geometry": {"type": "LineString", "coordinates": [[136.8604553, 36.3536982], [136.8613887, 36.3521429]]}, "properties": {"power": "line", "voltage": null, "name": "manual_connection", "source": "manual", "supplement_source": "editor", "edit_id": "e_cec513b619"}}, {"type": "Feature", "geometry": {"type": "LineString", "coordinates": [[136.8613887, 36.3521429], [136.8663025, 36.3463792]]}, "properties": {"power": "line", "voltage": null, "name": "manual_connection", "source": "manual", "supplement_source": "editor", "edit_id": "e_33b2490add"}}, {"type": "Feature", "geometry": {"type": "LineString", "coordinates": [[136.8663025, 36.3463792], [136.8681478, 36.3437176]]}, "properties": {"power": "line", "voltage": null, "name": "manual_connection", "source": "manual", "supplement_source": "editor", "edit_id": "e_17e9cd621b"}}, {"type": "Feature", "geometry": {"type": "LineString", "coordinates": [[136.8681478, 36.3437176], [136.8744028, 36.3364581]]}, "properties": {"power": "line", "voltage": null, "name": "manual_connection", "source": "manual", "supplement_source": "editor", "edit_id": "e_d5c8ae548c"}}, {"type": "Feature", "geometry": {"type": "LineString", "coordinates": [[136.8744028, 36.3364581], [136.8835866, 36.3290164]]}, "properties": {"power": "line", "voltage": null, "name": "manual_connection", "source": "manual", "supplement_source": "editor", "edit_id": "e_9fe5fb92f0"}}, {"type": "Feature", "geometry": {"type": "LineString", "coordinates": [[136.8835866, 36.3290164], [136.8960106, 36.3259825]]}, "properties": {"power": "line", "voltage": null, "name": "manual_connection", "source": "manual", "supplement_source": "editor", "edit_id": "e_e1127de6f7"}}, {"type": "Feature", "geometry": {"type": "LineString", "coordinates": [[136.8960106, 36.3259825], [136.9013429, 36.3230695]]}, "properties": {"power": "line", "voltage": null, "name": "manual_connection", "source": "manual", "supplement_source": "editor", "edit_id": "e_4d03b203f2"}}, {"type": "Feature", "geometry": {"type": "LineString", "coordinates": [[136.9013429, 36.3230695], [136.9038212, 36.3176495]]}, "properties": {"power": "line", "voltage": null, "name": "manual_connection", "source": "manual", "supplement_source": "editor", "edit_id": "e_81790c154c"}}, {"type": "Feature", "geometry": {"type": "LineString", "coordinates": [[136.9038212, 36.3176495], [136.909014, 36.3123674]]}, "properties": {"power": "line", "voltage": null, "name": "manual_connection", "source": "manual", "supplement_source": "editor", "edit_id": "e_4ce32b0e0e"}}, {"type": "Feature", "geometry": {"type": "LineString", "coordinates": [[136.909014, 36.3123674], [136.9115782, 36.3093069]]}, "properties": {"power": "line", "voltage": null, "name": "manual_connection", "source": "manual", "supplement_source": "editor", "edit_id": "e_a2ae3be3e3"}}, {"type": "Feature", "geometry": {"type": "LineString", "coordinates": [[136.9115782, 36.3093069], [136.9142389, 36.3073789]]}, "properties": {"power": "line", "voltage": null, "name": "manual_connection", "source": "manual", "supplement_source": "editor", "edit_id": "e_3a7ce43823"}}, {"type": "Feature", "geometry": {"type": "LineString", "coordinates": [[136.9142389, 36.3073789], [136.9175112, 36.3064883]]}, "properties": {"power": "line", "voltage": null, "name": "manual_connection", "source": "manual", "supplement_source": "editor", "edit_id": "e_12d6cde4c9"}}, {"type": "Feature", "geometry": {"type": "LineString", "coordinates": [[136.9175112, 36.3064883], [136.9217598, 36.3074221]]}, "properties": {"power": "line", "voltage": null, "name": "manual_connection", "source": "manual", "supplement_source": "editor", "edit_id": "e_6758dbf1ba"}}, {"type": "Feature", "geometry": {"type": "LineString", "coordinates": [[136.9217598, 36.3074221], [136.9289482, 36.3079841]]}, "properties": {"power": "line", "voltage": null, "name": "manual_connection", "source": "manual", "supplement_source": "editor", "edit_id": "e_d3afd8a7ec"}}, {"type": "Feature", "geometry": {"type": "LineString", "coordinates": [[136.9289482, 36.3079841], [136.9348061, 36.3045257]]}, "properties": {"power": "line", "voltage": null, "name": "manual_connection", "source": "manual", "supplement_source": "editor", "edit_id": "e_ffb4dbf309"}}, {"type": "Feature", "geometry": {"type": "LineString", "coordinates": [[136.9348061, 36.3045257], [136.9410717, 36.3002025]]}, "properties": {"power": "line", "voltage": null, "name": "manual_connection", "source": "manual", "supplement_source": "editor", "edit_id": "e_0534d72d56"}}, {"type": "Feature", "geometry": {"type": "LineString", "coordinates": [[136.9410717, 36.3002025], [136.947037, 36.2970637]]}, "properties": {"power": "line", "voltage": null, "name": "manual_connection", "source": "manual", "supplement_source": "editor", "edit_id": "e_01cc224269"}}, {"type": "Feature", "geometry": {"type": "LineString", "coordinates": [[136.947037, 36.2970637], [136.9518971, 36.2946771]]}, "properties": {"power": "line", "voltage": null, "name": "manual_connection", "source": "manual", "supplement_source": "editor", "edit_id": "e_b8a8776dc2"}}, {"type": "Feature", "geometry": {"type": "LineString", "coordinates": [[136.9518971, 36.2946771], [136.9545579, 36.29095]]}, "properties": {"power": "line", "voltage": null, "name": "manual_connection", "source": "manual", "supplement_source": "editor", "edit_id": "e_f8b9b08c76"}}, {"type": "Feature", "geometry": {"type": "LineString", "coordinates": [[136.9545579, 36.29095], [136.9558346, 36.2872919]]}, "properties": {"power": "line", "voltage": null, "name": "manual_connection", "source": "manual", "supplement_source": "editor", "edit_id": "e_ff52d09ec9"}}, {"type": "Feature", "geometry": {"type": "LineString", "coordinates": [[136.9558346, 36.2872919], [136.9569933, 36.2841526]]}, "properties": {"power": "line", "voltage": null, "name": "manual_connection", "source": "manual", "supplement_source": "editor", "edit_id": "e_582cc20121"}}, {"type": "Feature", "geometry": {"type": "LineString", "coordinates": [[136.9569933, 36.2841526], [136.9582271, 36.2812381]]}, "properties": {"power": "line", "voltage": null, "name": "manual_connection", "source": "manual", "supplement_source": "editor", "edit_id": "e_12f8f52295"}}, {"type": "Feature", "geometry": {"type": "LineString", "coordinates": [[136.9600725, 36.2768184], [136.9582271, 36.2812381]]}, "properties": {"power": "line", "voltage": null, "name": "manual_connection", "source": "manual", "supplement_source": "editor", "edit_id": "e_db4a08bd34"}}, {"type": "Feature", "geometry": {"type": "LineString", "coordinates": [[136.9600725, 36.2768184], [136.9612419, 36.2737219]]}, "properties": {"power": "line", "voltage": null, "name": "manual_connection", "source": "manual", "supplement_source": "editor", "edit_id": "e_5ead293b69"}}, {"type": "Feature", "geometry": {"type": "LineString", "coordinates": [[136.9612419, 36.2737219], [136.9632375, 36.2684888]]}, "properties": {"power": "line", "voltage": null, "name": "manual_connection", "source": "manual", "supplement_source": "editor", "edit_id": "e_1c4c21561b"}}, {"type": "Feature", "geometry": {"type": "LineString", "coordinates": [[136.9632375, 36.2684888], [136.9643533, 36.2659196]]}, "properties": {"power": "line", "voltage": null, "name": "manual_connection", "source": "manual", "supplement_source": "editor", "edit_id": "e_db46a179cb"}}, {"type": "Feature", "geometry": {"type": "LineString", "coordinates": [[136.9643533, 36.2659196], [136.9672286, 36.2638002]]}, "properties": {"power": "line", "voltage": null, "name": "manual_connection", "source": "manual", "supplement_source": "editor", "edit_id": "e_40248f0a57"}}, {"type": "Feature", "geometry": {"type": "LineString", "coordinates": [[136.9672286, 36.2638002], [136.9726574, 36.2593363]]}, "properties": {"power": "line", "voltage": null, "name": "manual_connection", "source": "manual", "supplement_source": "editor", "edit_id": "e_67037ee041"}}, {"type": "Feature", "geometry": {"type": "LineString", "coordinates": [[136.9726574, 36.2593363], [136.9769704, 36.257684]]}, "properties": {"power": "line", "voltage": null, "name": "manual_connection", "source": "manual", "supplement_source": "editor", "edit_id": "e_2e6c90936a"}}, {"type": "Feature", "geometry": {"type": "LineString", "coordinates": [[136.9769704, 36.257684], [136.9804251, 36.2542233]]}, "properties": {"power": "line", "voltage": null, "name": "manual_connection", "source": "manual", "supplement_source": "editor", "edit_id": "e_8184b3d55b"}}, {"type": "Feature", "geometry": {"type": "LineString", "coordinates": [[136.9804251, 36.2542233], [136.9797599, 36.2500877]]}, "properties": {"power": "line", "voltage": null, "name": "manual_connection", "source": "manual", "supplement_source": "editor", "edit_id": "e_5052505cfa"}}, {"type": "Feature", "geometry": {"type": "LineString", "coordinates": [[136.9797599, 36.2500877], [136.9800603, 36.2441347]]}, "properties": {"power": "line", "voltage": null, "name": "manual_connection", "source": "manual", "supplement_source": "editor", "edit_id": "e_d09e683b7c"}}, {"type": "Feature", "geometry": {"type": "LineString", "coordinates": [[136.9800603, 36.2441347], [136.9813049, 36.2412706]]}, "properties": {"power": "line", "voltage": null, "name": "manual_connection", "source": "manual", "supplement_source": "editor", "edit_id": "e_0026b85494"}}, {"type": "Feature", "geometry": {"type": "LineString", "coordinates": [[136.9813049, 36.2412706], [136.9828391, 36.2377833]]}, "properties": {"power": "line", "voltage": null, "name": "manual_connection", "source": "manual", "supplement_source": "editor", "edit_id": "e_718e13a7d8"}}, {"type": "Feature", "geometry": {"type": "LineString", "coordinates": [[136.9828391, 36.2377833], [136.9839442, 36.2336814]]}, "properties": {"power": "line", "voltage": null, "name": "manual_connection", "source": "manual", "supplement_source": "editor", "edit_id": "e_c78a92ac3a"}}, {"type": "Feature", "geometry": {"type": "LineString", "coordinates": [[136.9839442, 36.2336814], [136.9882035, 36.2294668]]}, "properties": {"power": "line", "voltage": null, "name": "manual_connection", "source": "manual", "supplement_source": "editor", "edit_id": "e_beb54ddded"}}, {"type": "Feature", "geometry": {"type": "LineString", "coordinates": [[136.9882035, 36.2294668], [136.9911969, 36.2245249]]}, "properties": {"power": "line", "voltage": null, "name": "manual_connection", "source": "manual", "supplement_source": "editor", "edit_id": "e_28001af810"}}, {"type": "Feature", "geometry": {"type": "LineString", "coordinates": [[136.9911969, 36.2245249], [136.9952202, 36.2170466]]}, "properties": {"power": "line", "voltage": null, "name": "manual_connection", "source": "manual", "supplement_source": "editor", "edit_id": "e_69b61f54bf"}}, {"type": "Feature", "geometry": {"type": "LineString", "coordinates": [[136.9952202, 36.2170466], [136.9999194, 36.2129176]]}, "properties": {"power": "line", "voltage": null, "name": "manual_connection", "source": "manual", "supplement_source": "editor", "edit_id": "e_f28244e18b"}}, {"type": "Feature", "geometry": {"type": "LineString", "coordinates": [[136.9999194, 36.2129176], [137.0029235, 36.2111777]]}, "properties": {"power": "line", "voltage": null, "name": "manual_connection", "source": "manual", "supplement_source": "editor", "edit_id": "e_50ca23c00f"}}, {"type": "Feature", "geometry": {"type": "LineString", "coordinates": [[137.0029235, 36.2111777], [137.0064211, 36.208018]]}, "properties": {"power": "line", "voltage": null, "name": "manual_connection", "source": "manual", "supplement_source": "editor", "edit_id": "e_cbbda68097"}}, {"type": "Feature", "geometry": {"type": "LineString", "coordinates": [[137.0064211, 36.208018], [137.0100582, 36.204434]]}, "properties": {"power": "line", "voltage": null, "name": "manual_connection", "source": "manual", "supplement_source": "editor", "edit_id": "e_bcdae78565"}}, {"type": "Feature", "geometry": {"type": "LineString", "coordinates": [[137.0100582, 36.204434], [137.0113134, 36.2030921]]}, "properties": {"power": "line", "voltage": null, "name": "manual_connection", "source": "manual", "supplement_source": "editor", "edit_id": "e_94d786bdbd"}}, {"type": "Feature", "geometry": {"type": "LineString", "coordinates": [[137.0113134, 36.2030921], [137.0161307, 36.1980707]]}, "properties": {"power": "line", "voltage": null, "name": "manual_connection", "source": "manual", "supplement_source": "editor", "edit_id": "e_f7721d096c"}}, {"type": "Feature", "geometry": {"type": "LineString", "coordinates": [[137.0161307, 36.1980707], [137.0172572, 36.1939927]]}, "properties": {"power": "line", "voltage": null, "name": "manual_connection", "source": "manual", "supplement_source": "editor", "edit_id": "e_6bc2898959"}}, {"type": "Feature", "geometry": {"type": "LineString", "coordinates": [[137.0172572, 36.1939927], [137.0177936, 36.188962]]}, "properties": {"power": "line", "voltage": null, "name": "manual_connection", "source": "manual", "supplement_source": "editor", "edit_id": "e_4e43783117"}}, {"type": "Feature", "geometry": {"type": "LineString", "coordinates": [[137.0177936, 36.188962], [137.0170963, 36.1844332]]}, "properties": {"power": "line", "voltage": null, "name": "manual_connection", "source": "manual", "supplement_source": "editor", "edit_id": "e_de98d5d45c"}}, {"type": "Feature", "geometry": {"type": "LineString", "coordinates": [[137.0170963, 36.1844332], [137.016592, 36.1798522]]}, "properties": {"power": "line", "voltage": null, "name": "manual_connection", "source": "manual", "supplement_source": "editor", "edit_id": "e_0eba366841"}}, {"type": "Feature", "geometry": {"type": "LineString", "coordinates": [[137.016592, 36.1798522], [137.0194459, 36.1745608]]}, "properties": {"power": "line", "voltage": null, "name": "manual_connection", "source": "manual", "supplement_source": "editor", "edit_id": "e_09a893848e"}}, {"type": "Feature", "geometry": {"type": "LineString", "coordinates": [[137.0194459, 36.1745608], [137.0196712, 36.1713043]]}, "properties": {"power": "line", "voltage": null, "name": "manual_connection", "source": "manual", "supplement_source": "editor", "edit_id": "e_25271cdcf4"}}, {"type": "Feature", "geometry": {"type": "LineString", "coordinates": [[137.0196712, 36.1713043], [137.0201754, 36.1647391]]}, "properties": {"power": "line", "voltage": null, "name": "manual_connection", "source": "manual", "supplement_source": "editor", "edit_id": "e_f97761f8ac"}}, {"type": "Feature", "geometry": {"type": "LineString", "coordinates": [[137.0201754, 36.1647391], [137.0200896, 36.1608499]]}, "properties": {"power": "line", "voltage": null, "name": "manual_connection", "source": "manual", "supplement_source": "editor", "edit_id": "e_7517f698e2"}}, {"type": "Feature", "geometry": {"type": "LineString", "coordinates": [[137.0200896, 36.1608499], [137.0206046, 36.156796]]}, "properties": {"power": "line", "voltage": null, "name": "manual_connection", "source": "manual", "supplement_source": "editor", "edit_id": "e_1b1e15850c"}}, {"type": "Feature", "geometry": {"type": "LineString", "coordinates": [[137.0206046, 36.156796], [137.0209372, 36.1541105]]}, "properties": {"power": "line", "voltage": null, "name": "manual_connection", "source": "manual", "supplement_source": "editor", "edit_id": "e_68ed1e5876"}}, {"type": "Feature", "geometry": {"type": "LineString", "coordinates": [[137.0209372, 36.1541105], [137.0225787, 36.1487134]]}, "properties": {"power": "line", "voltage": null, "name": "manual_connection", "source": "manual", "supplement_source": "editor", "edit_id": "e_becc08d5df"}}, {"type": "Feature", "geometry": {"type": "LineString", "coordinates": [[137.0225787, 36.1487134], [137.0249927, 36.1411932]]}, "properties": {"power": "line", "voltage": null, "name": "manual_connection", "source": "manual", "supplement_source": "editor", "edit_id": "e_26ad187bef"}}, {"type": "Feature", "geometry": {"type": "LineString", "coordinates": [[137.0249927, 36.1411932], [137.0264947, 36.1372595]]}, "properties": {"power": "line", "voltage": null, "name": "manual_connection", "source": "manual", "supplement_source": "editor", "edit_id": "e_12d3c9df30"}}, {"type": "Feature", "geometry": {"type": "LineString", "coordinates": [[137.0264947, 36.1372595], [137.027986, 36.1330397]]}, "properties": {"power": "line", "voltage": null, "name": "manual_connection", "source": "manual", "supplement_source": "editor", "edit_id": "e_6636025e9a"}}, {"type": "Feature", "geometry": {"type": "LineString", "coordinates": [[137.027986, 36.1330397], [137.028501, 36.1280224]]}, "properties": {"power": "line", "voltage": null, "name": "manual_connection", "source": "manual", "supplement_source": "editor", "edit_id": "e_c53b1a2d07"}}, {"type": "Feature", "geometry": {"type": "LineString", "coordinates": [[137.028501, 36.1280224], [137.0287156, 36.1249374]]}, "properties": {"power": "line", "voltage": null, "name": "manual_connection", "source": "manual", "supplement_source": "editor", "edit_id": "e_de29743e1e"}}, {"type": "Feature", "geometry": {"type": "LineString", "coordinates": [[137.0287156, 36.1249374], [137.029413, 36.1180996]]}, "properties": {"power": "line", "voltage": null, "name": "manual_connection", "source": "manual", "supplement_source": "editor", "edit_id": "e_a1771db2c8"}}, {"type": "Feature", "geometry": {"type": "LineString", "coordinates": [[137.029413, 36.1180996], [137.0350456, 36.1101171]]}, "properties": {"power": "line", "voltage": null, "name": "manual_connection", "source": "manual", "supplement_source": "editor", "edit_id": "e_1c819cebac"}}, {"type": "Feature", "geometry": {"type": "LineString", "coordinates": [[137.0350456, 36.1101171], [137.0362419, 36.1050637]]}, "properties": {"power": "line", "voltage": null, "name": "manual_connection", "source": "manual", "supplement_source": "editor", "edit_id": "e_ced1b9a0a7"}}, {"type": "Feature", "geometry": {"type": "LineString", "coordinates": [[137.0362419, 36.1050637], [137.0369822, 36.1025108]]}, "properties": {"power": "line", "voltage": null, "name": "manual_connection", "source": "manual", "supplement_source": "editor", "edit_id": "e_c834a5bf03"}}, {"type": "Feature", "geometry": {"type": "LineString", "coordinates": [[137.0369822, 36.1025108], [137.0382857, 36.0983021]]}, "properties": {"power": "line", "voltage": null, "name": "manual_connection", "source": "manual", "supplement_source": "editor", "edit_id": "e_39a59a46b3"}}, {"type": "Feature", "geometry": {"type": "LineString", "coordinates": [[137.0382857, 36.0983021], [137.0398897, 36.0949949]]}, "properties": {"power": "line", "voltage": null, "name": "manual_connection", "source": "manual", "supplement_source": "editor", "edit_id": "e_0a7d9f948f"}}, {"type": "Feature", "geometry": {"type": "LineString", "coordinates": [[137.0398897, 36.0949949], [137.0426202, 36.0904953]]}, "properties": {"power": "line", "voltage": null, "name": "manual_connection", "source": "manual", "supplement_source": "editor", "edit_id": "e_af51fa5628"}}, {"type": "Feature", "geometry": {"type": "LineString", "coordinates": [[137.0426202, 36.0904953], [137.0436662, 36.0879464]]}, "properties": {"power": "line", "voltage": null, "name": "manual_connection", "source": "manual", "supplement_source": "editor", "edit_id": "e_ca951c4c74"}}, {"type": "Feature", "geometry": {"type": "LineString", "coordinates": [[137.0436662, 36.0879464], [137.0449859, 36.0843438]]}, "properties": {"power": "line", "voltage": null, "name": "manual_connection", "source": "manual", "supplement_source": "editor", "edit_id": "e_2667c98f78"}}, {"type": "Feature", "geometry": {"type": "LineString", "coordinates": [[137.0449859, 36.0843438], [137.0471638, 36.0810403]]}, "properties": {"power": "line", "voltage": null, "name": "manual_connection", "source": "manual", "supplement_source": "editor", "edit_id": "e_ea74dff8e3"}}, {"type": "Feature", "geometry": {"type": "LineString", "coordinates": [[137.0471638, 36.0810403], [137.0490253, 36.0799478]]}, "properties": {"power": "line", "voltage": null, "name": "manual_connection", "source": "manual", "supplement_source": "editor", "edit_id": "e_ce6136ba1a"}}, {"type": "Feature", "geometry": {"type": "LineString", "coordinates": [[136.3272811, 36.2987925], [136.3247646, 36.2996904]]}, "properties": {"power": "line", "voltage": null, "name": "manual_connection", "source": "manual", "supplement_source": "editor", "edit_id": "e_11b1171f04"}}, {"type": "Feature", "geometry": {"type": "LineString", "coordinates": [[136.3273953, 36.3004882], [136.3250823, 36.2999447]]}, "properties": {"power": "line", "voltage": null, "name": "manual_connection", "source": "manual", "supplement_source": "editor", "edit_id": "e_773d978fbe"}}, {"type": "Feature", "geometry": {"type": "LineString", "coordinates": [[136.3217041, 36.2990719], [136.3237178, 36.2994956]]}, "properties": {"power": "line", "voltage": null, "name": "manual_connection", "source": "manual", "supplement_source": "editor", "edit_id": "e_2bfe71ff17"}}, {"type": "Feature", "geometry": {"type": "LineString", "coordinates": [[136.1423233, 35.7177545], [136.1417453, 35.7164359]]}, "properties": {"power": "line", "voltage": null, "name": "manual_connection", "source": "manual", "supplement_source": "editor", "edit_id": "e_e5d196dc61"}}, {"type": "Feature", "geometry": {"type": "LineString", "coordinates": [[136.1417453, 35.7164359], [136.1409849, 35.7138645]]}, "properties": {"power": "line", "voltage": null, "name": "manual_connection", "source": "manual", "supplement_source": "editor", "edit_id": "e_462f906852"}}, {"type": "Feature", "geometry": {"type": "LineString", "coordinates": [[136.1409849, 35.7138645], [136.140653, 35.7129422]]}, "properties": {"power": "line", "voltage": null, "name": "manual_connection", "source": "manual", "supplement_source": "editor", "edit_id": "e_f0f182fd04"}}, {"type": "Feature", "geometry": {"type": "LineString", "coordinates": [[136.140653, 35.7129422], [136.1395862, 35.7100789]]}, "properties": {"power": "line", "voltage": null, "name": "manual_connection", "source": "manual", "supplement_source": "editor", "edit_id": "e_082d16b278"}}, {"type": "Feature", "geometry": {"type": "LineString", "coordinates": [[136.1395862, 35.7100789], [136.1372768, 35.7047809]]}, "properties": {"power": "line", "voltage": null, "name": "manual_connection", "source": "manual", "supplement_source": "editor", "edit_id": "e_bfc9eef79e"}}, {"type": "Feature", "geometry": {"type": "LineString", "coordinates": [[136.1372768, 35.7047809], [136.1369723, 35.7032595]]}, "properties": {"power": "line", "voltage": null, "name": "manual_connection", "source": "manual", "supplement_source": "editor", "edit_id": "e_9c13a548ec"}}, {"type": "Feature", "geometry": {"type": "LineString", "coordinates": [[136.1369723, 35.7032595], [136.1360805, 35.7008948]]}, "properties": {"power": "line", "voltage": null, "name": "manual_connection", "source": "manual", "supplement_source": "editor", "edit_id": "e_4f115573c7"}}, {"type": "Feature", "geometry": {"type": "LineString", "coordinates": [[136.1360805, 35.7008948], [136.1346787, 35.6973354]]}, "properties": {"power": "line", "voltage": null, "name": "manual_connection", "source": "manual", "supplement_source": "editor", "edit_id": "e_fc5caff761"}}, {"type": "Feature", "geometry": {"type": "LineString", "coordinates": [[136.1346787, 35.6973354], [136.1331046, 35.6958439]]}, "properties": {"power": "line", "voltage": null, "name": "manual_connection", "source": "manual", "supplement_source": "editor", "edit_id": "e_54b6cd7aeb"}}, {"type": "Feature", "geometry": {"type": "LineString", "coordinates": [[136.1331046, 35.6958439], [136.1310822, 35.6939586]]}, "properties": {"power": "line", "voltage": null, "name": "manual_connection", "source": "manual", "supplement_source": "editor", "edit_id": "e_b91ae0332f"}}, {"type": "Feature", "geometry": {"type": "LineString", "coordinates": [[136.1310822, 35.6939586], [136.1298645, 35.6928443]]}, "properties": {"power": "line", "voltage": null, "name": "manual_connection", "source": "manual", "supplement_source": "editor", "edit_id": "e_12a275b239"}}, {"type": "Feature", "geometry": {"type": "LineString", "coordinates": [[136.1298645, 35.6928443], [136.1272413, 35.6904002]]}, "properties": {"power": "line", "voltage": null, "name": "manual_connection", "source": "manual", "supplement_source": "editor", "edit_id": "e_727b044be9"}}, {"type": "Feature", "geometry": {"type": "LineString", "coordinates": [[136.1272413, 35.6904002], [136.1235827, 35.6869897]]}, "properties": {"power": "line", "voltage": null, "name": "manual_connection", "source": "manual", "supplement_source": "editor", "edit_id": "e_01fe2d7cb9"}}, {"type": "Feature", "geometry": {"type": "LineString", "coordinates": [[136.1235827, 35.6869897], [136.1212291, 35.684809]]}, "properties": {"power": "line", "voltage": null, "name": "manual_connection", "source": "manual", "supplement_source": "editor", "edit_id": "e_5282f9d575"}}, {"type": "Feature", "geometry": {"type": "LineString", "coordinates": [[136.1212291, 35.684809], [136.1191544, 35.6828908]]}, "properties": {"power": "line", "voltage": null, "name": "manual_connection", "source": "manual", "supplement_source": "editor", "edit_id": "e_06051ea3d6"}}, {"type": "Feature", "geometry": {"type": "LineString", "coordinates": [[136.1191544, 35.6828908], [136.118174, 35.6820062]]}, "properties": {"power": "line", "voltage": null, "name": "manual_connection", "source": "manual", "supplement_source": "editor", "edit_id": "e_150086b620"}}, {"type": "Feature", "geometry": {"type": "LineString", "coordinates": [[136.118174, 35.6820062], [136.1136451, 35.6777795]]}, "properties": {"power": "line", "voltage": null, "name": "manual_connection", "source": "manual", "supplement_source": "editor", "edit_id": "e_27dae0ea3c"}}, {"type": "Feature", "geometry": {"type": "LineString", "coordinates": [[136.1136451, 35.6777795], [136.1127171, 35.6751158]]}, "properties": {"power": "line", "voltage": null, "name": "manual_connection", "source": "manual", "supplement_source": "editor", "edit_id": "e_94cf69c398"}}, {"type": "Feature", "geometry": {"type": "LineString", "coordinates": [[136.1127171, 35.6751158], [136.1121592, 35.6732774]]}, "properties": {"power": "line", "voltage": null, "name": "manual_connection", "source": "manual", "supplement_source": "editor", "edit_id": "e_8809058393"}}, {"type": "Feature", "geometry": {"type": "LineString", "coordinates": [[136.1121592, 35.6732774], [136.1112734, 35.6705918]]}, "properties": {"power": "line", "voltage": null, "name": "manual_connection", "source": "manual", "supplement_source": "editor", "edit_id": "e_8a08f20c11"}}, {"type": "Feature", "geometry": {"type": "LineString", "coordinates": [[136.1112734, 35.6705918], [136.1097948, 35.6680653]]}, "properties": {"power": "line", "voltage": null, "name": "manual_connection", "source": "manual", "supplement_source": "editor", "edit_id": "e_c0d23798b3"}}, {"type": "Feature", "geometry": {"type": "LineString", "coordinates": [[136.1097948, 35.6680653], [136.1078475, 35.6647918]]}, "properties": {"power": "line", "voltage": null, "name": "manual_connection", "source": "manual", "supplement_source": "editor", "edit_id": "e_1a005bc53e"}}, {"type": "Feature", "geometry": {"type": "LineString", "coordinates": [[136.1078475, 35.6647918], [136.1047387, 35.6595558]]}, "properties": {"power": "line", "voltage": null, "name": "manual_connection", "source": "manual", "supplement_source": "editor", "edit_id": "e_f3edc7e36e"}}, {"type": "Feature", "geometry": {"type": "LineString", "coordinates": [[136.1047387, 35.6595558], [136.1035468, 35.657312]]}, "properties": {"power": "line", "voltage": null, "name": "manual_connection", "source": "manual", "supplement_source": "editor", "edit_id": "e_1a213a7be5"}}, {"type": "Feature", "geometry": {"type": "LineString", "coordinates": [[136.1035468, 35.657312], [136.102902, 35.6560558]]}, "properties": {"power": "line", "voltage": null, "name": "manual_connection", "source": "manual", "supplement_source": "editor", "edit_id": "e_248ee4589b"}}, {"type": "Feature", "geometry": {"type": "LineString", "coordinates": [[136.102902, 35.6560558], [136.1017021, 35.6537713]]}, "properties": {"power": "line", "voltage": null, "name": "manual_connection", "source": "manual", "supplement_source": "editor", "edit_id": "e_c386dc6649"}}, {"type": "Feature", "geometry": {"type": "LineString", "coordinates": [[136.1017021, 35.6537713], [136.099585, 35.6497118]]}, "properties": {"power": "line", "voltage": null, "name": "manual_connection", "source": "manual", "supplement_source": "editor", "edit_id": "e_cf0d01a2be"}}, {"type": "Feature", "geometry": {"type": "LineString", "coordinates": [[136.099585, 35.6497118], [136.0994221, 35.6476805]]}, "properties": {"power": "line", "voltage": null, "name": "manual_connection", "source": "manual", "supplement_source": "editor", "edit_id": "e_08341c8195"}}, {"type": "Feature", "geometry": {"type": "LineString", "coordinates": [[136.0994221, 35.6476805], [136.0990249, 35.6430578]]}, "properties": {"power": "line", "voltage": null, "name": "manual_connection", "source": "manual", "supplement_source": "editor", "edit_id": "e_e074470bf3"}}, {"type": "Feature", "geometry": {"type": "LineString", "coordinates": [[136.0990249, 35.6430578], [136.0987554, 35.6399206]]}, "properties": {"power": "line", "voltage": null, "name": "manual_connection", "source": "manual", "supplement_source": "editor", "edit_id": "e_bc7ac71f13"}}, {"type": "Feature", "geometry": {"type": "LineString", "coordinates": [[136.0987554, 35.6399206], [136.0985546, 35.6375837]]}, "properties": {"power": "line", "voltage": null, "name": "manual_connection", "source": "manual", "supplement_source": "editor", "edit_id": "e_2cef5b6a5a"}}, {"type": "Feature", "geometry": {"type": "LineString", "coordinates": [[136.0985546, 35.6375837], [136.0982653, 35.6342169]]}, "properties": {"power": "line", "voltage": null, "name": "manual_connection", "source": "manual", "supplement_source": "editor", "edit_id": "e_371798f835"}}, {"type": "Feature", "geometry": {"type": "LineString", "coordinates": [[136.0982653, 35.6342169], [136.0990154, 35.631238]]}, "properties": {"power": "line", "voltage": null, "name": "manual_connection", "source": "manual", "supplement_source": "editor", "edit_id": "e_a20eaf45ad"}}, {"type": "Feature", "geometry": {"type": "LineString", "coordinates": [[136.0990154, 35.631238], [136.0994777, 35.6295535]]}, "properties": {"power": "line", "voltage": null, "name": "manual_connection", "source": "manual", "supplement_source": "editor", "edit_id": "e_3dfce4ff30"}}, {"type": "Feature", "geometry": {"type": "LineString", "coordinates": [[136.0994777, 35.6295535], [136.1000801, 35.6272022]]}, "properties": {"power": "line", "voltage": null, "name": "manual_connection", "source": "manual", "supplement_source": "editor", "edit_id": "e_9fac6f0f37"}}, {"type": "Feature", "geometry": {"type": "LineString", "coordinates": [[136.1000801, 35.6272022], [136.1006986, 35.6248555]]}, "properties": {"power": "line", "voltage": null, "name": "manual_connection", "source": "manual", "supplement_source": "editor", "edit_id": "e_65b6314d1f"}}, {"type": "Feature", "geometry": {"type": "LineString", "coordinates": [[136.1006986, 35.6248555], [136.101004, 35.6236464]]}, "properties": {"power": "line", "voltage": null, "name": "manual_connection", "source": "manual", "supplement_source": "editor", "edit_id": "e_f59e422aa3"}}, {"type": "Feature", "geometry": {"type": "LineString", "coordinates": [[136.101004, 35.6236464], [136.1012888, 35.6225325]]}, "properties": {"power": "line", "voltage": null, "name": "manual_connection", "source": "manual", "supplement_source": "editor", "edit_id": "e_d59a9ff181"}}, {"type": "Feature", "geometry": {"type": "LineString", "coordinates": [[136.1012888, 35.6225325], [136.1027983, 35.6168243]]}, "properties": {"power": "line", "voltage": null, "name": "manual_connection", "source": "manual", "supplement_source": "editor", "edit_id": "e_97c6d27db4"}}, {"type": "Feature", "geometry": {"type": "LineString", "coordinates": [[136.1027983, 35.6168243], [136.1027289, 35.6148011]]}, "properties": {"power": "line", "voltage": null, "name": "manual_connection", "source": "manual", "supplement_source": "editor", "edit_id": "e_d661f279ac"}}, {"type": "Feature", "geometry": {"type": "LineString", "coordinates": [[136.1027289, 35.6148011], [136.1026561, 35.6126792]]}, "properties": {"power": "line", "voltage": null, "name": "manual_connection", "source": "manual", "supplement_source": "editor", "edit_id": "e_ce89c6090d"}}, {"type": "Feature", "geometry": {"type": "LineString", "coordinates": [[136.1026561, 35.6126792], [136.1025698, 35.6101648]]}, "properties": {"power": "line", "voltage": null, "name": "manual_connection", "source": "manual", "supplement_source": "editor", "edit_id": "e_22406e58f1"}}, {"type": "Feature", "geometry": {"type": "LineString", "coordinates": [[136.1025698, 35.6101648], [136.1024818, 35.6075983]]}, "properties": {"power": "line", "voltage": null, "name": "manual_connection", "source": "manual", "supplement_source": "editor", "edit_id": "e_bc249178bb"}}, {"type": "Feature", "geometry": {"type": "LineString", "coordinates": [[136.1024818, 35.6075983], [136.1023828, 35.6045453]]}, "properties": {"power": "line", "voltage": null, "name": "manual_connection", "source": "manual", "supplement_source": "editor", "edit_id": "e_cc4fc1109a"}}, {"type": "Feature", "geometry": {"type": "LineString", "coordinates": [[136.1023828, 35.6045453], [136.1022529, 35.6006501]]}, "properties": {"power": "line", "voltage": null, "name": "manual_connection", "source": "manual", "supplement_source": "editor", "edit_id": "e_157b85169f"}}, {"type": "Feature", "geometry": {"type": "LineString", "coordinates": [[136.1022529, 35.6006501], [136.1021497, 35.5975558]]}, "properties": {"power": "line", "voltage": null, "name": "manual_connection", "source": "manual", "supplement_source": "editor", "edit_id": "e_3f14836122"}}, {"type": "Feature", "geometry": {"type": "LineString", "coordinates": [[136.1021497, 35.5975558], [136.1020929, 35.59585]]}, "properties": {"power": "line", "voltage": null, "name": "manual_connection", "source": "manual", "supplement_source": "editor", "edit_id": "e_70ea43df33"}}, {"type": "Feature", "geometry": {"type": "LineString", "coordinates": [[136.1020929, 35.59585], [136.1019731, 35.5920635]]}, "properties": {"power": "line", "voltage": null, "name": "manual_connection", "source": "manual", "supplement_source": "editor", "edit_id": "e_0663f7bfc4"}}, {"type": "Feature", "geometry": {"type": "LineString", "coordinates": [[136.1019731, 35.5920635], [136.1019245, 35.5904933]]}, "properties": {"power": "line", "voltage": null, "name": "manual_connection", "source": "manual", "supplement_source": "editor", "edit_id": "e_9fc418acf8"}}, {"type": "Feature", "geometry": {"type": "LineString", "coordinates": [[136.1019245, 35.5904933], [136.1018193, 35.5880961]]}, "properties": {"power": "line", "voltage": null, "name": "manual_connection", "source": "manual", "supplement_source": "editor", "edit_id": "e_37f3009a7f"}}, {"type": "Feature", "geometry": {"type": "LineString", "coordinates": [[136.1018193, 35.5880961], [136.1016875, 35.5844751]]}, "properties": {"power": "line", "voltage": null, "name": "manual_connection", "source": "manual", "supplement_source": "editor", "edit_id": "e_7417ebebcb"}}, {"type": "Feature", "geometry": {"type": "LineString", "coordinates": [[136.1016875, 35.5844751], [136.1016156, 35.5820885]]}, "properties": {"power": "line", "voltage": null, "name": "manual_connection", "source": "manual", "supplement_source": "editor", "edit_id": "e_1770238739"}}, {"type": "Feature", "geometry": {"type": "LineString", "coordinates": [[136.1016156, 35.5820885], [136.1015686, 35.5805528]]}, "properties": {"power": "line", "voltage": null, "name": "manual_connection", "source": "manual", "supplement_source": "editor", "edit_id": "e_2927f789d6"}}, {"type": "Feature", "geometry": {"type": "LineString", "coordinates": [[136.1015686, 35.5805528], [136.1013982, 35.5749139]]}, "properties": {"power": "line", "voltage": null, "name": "manual_connection", "source": "manual", "supplement_source": "editor", "edit_id": "e_3e164ae4e2"}}, {"type": "Feature", "geometry": {"type": "LineString", "coordinates": [[136.1013982, 35.5749139], [136.1011829, 35.5673624]]}, "properties": {"power": "line", "voltage": null, "name": "manual_connection", "source": "manual", "supplement_source": "editor", "edit_id": "e_b3a769f351"}}, {"type": "Feature", "geometry": {"type": "LineString", "coordinates": [[136.1011829, 35.5673624], [136.1009044, 35.5608504]]}, "properties": {"power": "line", "voltage": null, "name": "manual_connection", "source": "manual", "supplement_source": "editor", "edit_id": "e_ca4380cfc5"}}, {"type": "Feature", "geometry": {"type": "LineString", "coordinates": [[136.1009044, 35.5608504], [136.1009367, 35.5584717]]}, "properties": {"power": "line", "voltage": null, "name": "manual_connection", "source": "manual", "supplement_source": "editor", "edit_id": "e_db3f949085"}}, {"type": "Feature", "geometry": {"type": "LineString", "coordinates": [[136.1009367, 35.5584717], [136.100969, 35.5560889]]}, "properties": {"power": "line", "voltage": null, "name": "manual_connection", "source": "manual", "supplement_source": "editor", "edit_id": "e_3b7f97f567"}}, {"type": "Feature", "geometry": {"type": "LineString", "coordinates": [[136.100969, 35.5560889], [136.1010021, 35.5518947]]}, "properties": {"power": "line", "voltage": null, "name": "manual_connection", "source": "manual", "supplement_source": "editor", "edit_id": "e_633276b121"}}, {"type": "Feature", "geometry": {"type": "LineString", "coordinates": [[136.1010021, 35.5518947], [136.1010146, 35.5505189]]}, "properties": {"power": "line", "voltage": null, "name": "manual_connection", "source": "manual", "supplement_source": "editor", "edit_id": "e_737dfbd15f"}}, {"type": "Feature", "geometry": {"type": "LineString", "coordinates": [[136.1010146, 35.5505189], [136.1010629, 35.5485897]]}, "properties": {"power": "line", "voltage": null, "name": "manual_connection", "source": "manual", "supplement_source": "editor", "edit_id": "e_46dde9d9c0"}}, {"type": "Feature", "geometry": {"type": "LineString", "coordinates": [[136.1010629, 35.5485897], [136.1012118, 35.5445338]]}, "properties": {"power": "line", "voltage": null, "name": "manual_connection", "source": "manual", "supplement_source": "editor", "edit_id": "e_b815640968"}}, {"type": "Feature", "geometry": {"type": "LineString", "coordinates": [[136.1012118, 35.5445338], [136.1000383, 35.5419683]]}, "properties": {"power": "line", "voltage": null, "name": "manual_connection", "source": "manual", "supplement_source": "editor", "edit_id": "e_ce4c8f70ff"}}, {"type": "Feature", "geometry": {"type": "LineString", "coordinates": [[136.1000383, 35.5419683], [136.0990982, 35.5398469]]}, "properties": {"power": "line", "voltage": null, "name": "manual_connection", "source": "manual", "supplement_source": "editor", "edit_id": "e_1d8cf88deb"}}, {"type": "Feature", "geometry": {"type": "LineString", "coordinates": [[136.0990982, 35.5398469], [136.0980527, 35.5375649]]}, "properties": {"power": "line", "voltage": null, "name": "manual_connection", "source": "manual", "supplement_source": "editor", "edit_id": "e_43c4116600"}}, {"type": "Feature", "geometry": {"type": "LineString", "coordinates": [[136.0980527, 35.5375649], [136.0960494, 35.5330534]]}, "properties": {"power": "line", "voltage": null, "name": "manual_connection", "source": "manual", "supplement_source": "editor", "edit_id": "e_5bae3ad3f1"}}, {"type": "Feature", "geometry": {"type": "LineString", "coordinates": [[136.0960494, 35.5330534], [136.0954316, 35.531662]]}, "properties": {"power": "line", "voltage": null, "name": "manual_connection", "source": "manual", "supplement_source": "editor", "edit_id": "e_2c5bdfed63"}}, {"type": "Feature", "geometry": {"type": "LineString", "coordinates": [[136.0954316, 35.531662], [136.0932818, 35.5284216]]}, "properties": {"power": "line", "voltage": null, "name": "manual_connection", "source": "manual", "supplement_source": "editor", "edit_id": "e_0138cb6123"}}, {"type": "Feature", "geometry": {"type": "LineString", "coordinates": [[136.0932818, 35.5284216], [136.093035, 35.5272298]]}, "properties": {"power": "line", "voltage": null, "name": "manual_connection", "source": "manual", "supplement_source": "editor", "edit_id": "e_c85bc04d05"}}, {"type": "Feature", "geometry": {"type": "LineString", "coordinates": [[136.093035, 35.5272298], [136.0923886, 35.5250861]]}, "properties": {"power": "line", "voltage": null, "name": "manual_connection", "source": "manual", "supplement_source": "editor", "edit_id": "e_7824344ea2"}}, {"type": "Feature", "geometry": {"type": "LineString", "coordinates": [[136.0923886, 35.5250861], [136.0918736, 35.5236345]]}, "properties": {"power": "line", "voltage": null, "name": "manual_connection", "source": "manual", "supplement_source": "editor", "edit_id": "e_66a5c9a253"}}, {"type": "Feature", "geometry": {"type": "LineString", "coordinates": [[136.0918736, 35.5236345], [136.0907069, 35.5210323]]}, "properties": {"power": "line", "voltage": null, "name": "manual_connection", "source": "manual", "supplement_source": "editor", "edit_id": "e_8707202626"}}, {"type": "Feature", "geometry": {"type": "LineString", "coordinates": [[136.0907069, 35.5210323], [136.0903716, 35.5188754]]}, "properties": {"power": "line", "voltage": null, "name": "manual_connection", "source": "manual", "supplement_source": "editor", "edit_id": "e_b27367978d"}}, {"type": "Feature", "geometry": {"type": "LineString", "coordinates": [[136.0903716, 35.5188754], [136.0901597, 35.5171453]]}, "properties": {"power": "line", "voltage": null, "name": "manual_connection", "source": "manual", "supplement_source": "editor", "edit_id": "e_93ebc25af8"}}, {"type": "Feature", "geometry": {"type": "LineString", "coordinates": [[136.0901597, 35.5171453], [136.0893778, 35.5119721]]}, "properties": {"power": "line", "voltage": null, "name": "manual_connection", "source": "manual", "supplement_source": "editor", "edit_id": "e_2759de55f7"}}, {"type": "Feature", "geometry": {"type": "LineString", "coordinates": [[136.0893778, 35.5119721], [136.0892156, 35.5105639]]}, "properties": {"power": "line", "voltage": null, "name": "manual_connection", "source": "manual", "supplement_source": "editor", "edit_id": "e_d3303ef1e3"}}, {"type": "Feature", "geometry": {"type": "LineString", "coordinates": [[136.0892156, 35.5105639], [136.0889366, 35.5090093]]}, "properties": {"power": "line", "voltage": null, "name": "manual_connection", "source": "manual", "supplement_source": "editor", "edit_id": "e_b1df5342b3"}}, {"type": "Feature", "geometry": {"type": "LineString", "coordinates": [[136.0889366, 35.5090093], [136.0887408, 35.5075792]]}, "properties": {"power": "line", "voltage": null, "name": "manual_connection", "source": "manual", "supplement_source": "editor", "edit_id": "e_fc43437541"}}, {"type": "Feature", "geometry": {"type": "LineString", "coordinates": [[136.0887408, 35.5075792], [136.0884297, 35.5055922]]}, "properties": {"power": "line", "voltage": null, "name": "manual_connection", "source": "manual", "supplement_source": "editor", "edit_id": "e_a4eb7e434b"}}, {"type": "Feature", "geometry": {"type": "LineString", "coordinates": [[136.0884297, 35.5055922], [136.0881132, 35.5034197]]}, "properties": {"power": "line", "voltage": null, "name": "manual_connection", "source": "manual", "supplement_source": "editor", "edit_id": "e_259130c241"}}, {"type": "Feature", "geometry": {"type": "LineString", "coordinates": [[136.0881132, 35.5034197], [136.0879791, 35.502448]]}, "properties": {"power": "line", "voltage": null, "name": "manual_connection", "source": "manual", "supplement_source": "editor", "edit_id": "e_926209f83c"}}, {"type": "Feature", "geometry": {"type": "LineString", "coordinates": [[136.0879791, 35.502448], [136.0877484, 35.4996945]]}, "properties": {"power": "line", "voltage": null, "name": "manual_connection", "source": "manual", "supplement_source": "editor", "edit_id": "e_0a05bbfcb7"}}, {"type": "Feature", "geometry": {"type": "LineString", "coordinates": [[136.2011777, 36.2239623], [136.20155, 36.22542]]}, "properties": {"power": "line", "voltage": null, "name": "manual_connection", "source": "manual", "supplement_source": "editor", "edit_id": "e_6cd05bcd10"}}, {"type": "Feature", "geometry": {"type": "LineString", "coordinates": [[136.20155, 36.22542], [136.2019166, 36.2268725]]}, "properties": {"power": "line", "voltage": null, "name": "manual_connection", "source": "manual", "supplement_source": "editor", "edit_id": "e_8dfe9c3cb4"}}, {"type": "Feature", "geometry": {"type": "LineString", "coordinates": [[136.6627449, 35.7322509], [136.6619575, 35.7347927]]}, "properties": {"power": "line", "voltage": null, "name": "manual_connection", "source": "manual", "supplement_source": "editor", "edit_id": "e_83f8657d44"}}, {"type": "Feature", "geometry": {"type": "LineString", "coordinates": [[136.6619575, 35.7347927], [136.6612, 35.73485]]}, "properties": {"power": "line", "voltage": 500.0, "name": "manual_connection", "source": "manual", "supplement_source": "editor", "edit_id": "e_4319bdea20"}}, {"type": "Feature", "geometry": {"type": "LineString", "coordinates": [[136.6639787, 35.706361], [136.6630589, 35.7019393]]}, "properties": {"power": "line", "voltage": null, "name": "manual_connection", "source": "manual", "supplement_source": "editor", "edit_id": "e_020e07f074"}}, {"type": "Feature", "geometry": {"type": "LineString", "coordinates": [[136.6630589, 35.7019393], [136.6605954, 35.6999415]]}, "properties": {"power": "line", "voltage": null, "name": "manual_connection", "source": "manual", "supplement_source": "editor", "edit_id": "e_400e75f4b7"}}, {"type": "Feature", "geometry": {"type": "LineString", "coordinates": [[136.6605954, 35.6999415], [136.6539849, 35.6960676]]}, "properties": {"power": "line", "voltage": null, "name": "manual_connection", "source": "manual", "supplement_source": "editor", "edit_id": "e_3190d2d592"}}, {"type": "Feature", "geometry": {"type": "LineString", "coordinates": [[136.6539849, 35.6960676], [136.6535363, 35.6938655]]}, "properties": {"power": "line", "voltage": null, "name": "manual_connection", "source": "manual", "supplement_source": "editor", "edit_id": "e_7f78edcafd"}}, {"type": "Feature", "geometry": {"type": "LineString", "coordinates": [[136.6535363, 35.6938655], [136.6525418, 35.6888169]]}, "properties": {"power": "line", "voltage": null, "name": "manual_connection", "source": "manual", "supplement_source": "editor", "edit_id": "e_bb6c6a74a7"}}, {"type": "Feature", "geometry": {"type": "LineString", "coordinates": [[136.6525418, 35.6888169], [136.652428, 35.6864669]]}, "properties": {"power": "line", "voltage": null, "name": "manual_connection", "source": "manual", "supplement_source": "editor", "edit_id": "e_b25dd05af5"}}, {"type": "Feature", "geometry": {"type": "LineString", "coordinates": [[136.652428, 35.6864669], [136.6523978, 35.6833868]]}, "properties": {"power": "line", "voltage": null, "name": "manual_connection", "source": "manual", "supplement_source": "editor", "edit_id": "e_b4c51a26a9"}}, {"type": "Feature", "geometry": {"type": "LineString", "coordinates": [[136.6523978, 35.6833868], [136.6548034, 35.6794763]]}, "properties": {"power": "line", "voltage": null, "name": "manual_connection", "source": "manual", "supplement_source": "editor", "edit_id": "e_aad0965aff"}}, {"type": "Feature", "geometry": {"type": "LineString", "coordinates": [[136.6548034, 35.6794763], [136.6540762, 35.675361]]}, "properties": {"power": "line", "voltage": null, "name": "manual_connection", "source": "manual", "supplement_source": "editor", "edit_id": "e_5f56fb55f3"}}, {"type": "Feature", "geometry": {"type": "LineString", "coordinates": [[136.6626175, 35.7023044], [136.6592885, 35.7005164]]}, "properties": {"power": "line", "voltage": null, "name": "manual_connection", "source": "manual", "supplement_source": "editor", "edit_id": "e_37556db853"}}, {"type": "Feature", "geometry": {"type": "LineString", "coordinates": [[136.6592885, 35.7005164], [136.6526112, 35.6959922]]}, "properties": {"power": "line", "voltage": null, "name": "manual_connection", "source": "manual", "supplement_source": "editor", "edit_id": "e_15bdb3e550"}}, {"type": "Feature", "geometry": {"type": "LineString", "coordinates": [[136.6526112, 35.6959922], [136.6508114, 35.6938933]]}, "properties": {"power": "line", "voltage": null, "name": "manual_connection", "source": "manual", "supplement_source": "editor", "edit_id": "e_5aa112a4a9"}}, {"type": "Feature", "geometry": {"type": "LineString", "coordinates": [[136.6508114, 35.6938933], [136.6514597, 35.6885948]]}, "properties": {"power": "line", "voltage": null, "name": "manual_connection", "source": "manual", "supplement_source": "editor", "edit_id": "e_b94453818f"}}, {"type": "Feature", "geometry": {"type": "LineString", "coordinates": [[136.6514597, 35.6885948], [136.6518233, 35.6833254]]}, "properties": {"power": "line", "voltage": null, "name": "manual_connection", "source": "manual", "supplement_source": "editor", "edit_id": "e_cb2cd85086"}}, {"type": "Feature", "geometry": {"type": "LineString", "coordinates": [[136.6518233, 35.6833254], [136.6540982, 35.6793835]]}, "properties": {"power": "line", "voltage": null, "name": "manual_connection", "source": "manual", "supplement_source": "editor", "edit_id": "e_06b28d4778"}}, {"type": "Feature", "geometry": {"type": "LineString", "coordinates": [[136.6540982, 35.6793835], [136.6540762, 35.675361]]}, "properties": {"power": "line", "voltage": null, "name": "manual_connection", "source": "manual", "supplement_source": "editor", "edit_id": "e_fcb11e25c5"}}, {"type": "Feature", "geometry": {"type": "LineString", "coordinates": [[137.6464154, 36.1711623], [137.6462509, 36.1710023], [137.6465061, 36.1706916], [137.6490784, 36.1684808], [137.6516908, 36.1640721], [137.6567093, 36.1617486], [137.6668239, 36.1586497], [137.6718557, 36.15528], [137.6776707, 36.1501732], [137.6789367, 36.1492332], [137.6875547, 36.1443188], [137.6937774, 36.1410546], [137.7011508, 36.1390401], [137.7066815, 36.1369444], [137.7097473, 36.1365642], [137.7105197, 36.1365252], [137.7157956, 36.1362977], [137.7172306, 36.1363432], [137.7183491, 36.1372985], [137.7211922, 36.1402185], [137.7252129, 36.1432141], [137.7263796, 36.144022], [137.7302125, 36.1469049], [137.7312291, 36.1474225], [137.733179, 36.1483994], [137.7353436, 36.1494693], [137.7371782, 36.1503768], [137.7386829, 36.1511456], [137.7396271, 36.1512756], [137.7430361, 36.1500324], [137.7505919, 36.1503183], [137.7514341, 36.1505782], [137.7536657, 36.1512604], [137.7592474, 36.152954], [137.7615461, 36.154169], [137.7658001, 36.1564689], [137.7680853, 36.1580368], [137.7701694, 36.1594726], [137.7724358, 36.1610102], [137.7748659, 36.1626732], [137.7775991, 36.1647694], [137.7810591, 36.1673808], [137.7821669, 36.1682058], [137.7841142, 36.170724], [137.7863967, 36.1737012], [137.7878773, 36.1753597], [137.7912462, 36.1791053], [137.7920401, 36.1803025]]}, "properties": {"power": "line", "voltage": "154000", "name": "松本市変電所_3~竜島変電所線", "source": "osm_supplement", "note": "端点一致で接続: 両端点一致(松本市変電所_3 start=80m / 竜島変電所 end=148m)", "ref_line_idx": 478, "ref_line_name": "松本市変電所_3~竜島変電所線", "ref_substation": "hokuriku_sub_78/hokuriku_sub_77", "method": "island_classify osm_gap 解消 / 端点<=0.15km / build_network_snapped で成分減を実測検証"}}, {"type": "Feature", "geometry": {"type": "LineString", "coordinates": [[137.7920401, 36.1803025], [137.7944729, 36.1797266], [137.7970692, 36.1790944], [137.7989978, 36.1793824], [137.8014252, 36.1797807], [137.8038901, 36.1801748], [137.8056845, 36.1810884], [137.8074333, 36.1820193], [137.8093618, 36.1830195], [137.8119501, 36.1843769], [137.8135595, 36.1852472], [137.8163597, 36.1853554], [137.8189373, 36.185442], [137.8199726, 36.1854875], [137.8228265, 36.1863198], [137.826603, 36.1874098], [137.8290492, 36.188135], [137.8308007, 36.1880484], [137.8329974, 36.1879705], [137.8355388, 36.1878557], [137.8368209, 36.1876241], [137.8390807, 36.1871922], [137.8415456, 36.1867279], [137.8437504, 36.1863306], [137.8466995, 36.1857603], [137.8487192, 36.1853619], [137.8507952, 36.1849408], [137.8531865, 36.1844505], [137.8557433, 36.1839472], [137.8578032, 36.1832625], [137.8599107, 36.1825616], [137.8621383, 36.1818439], [137.8643511, 36.1811208], [137.8661334, 36.1793694], [137.867724, 36.1777998], [137.8693441, 36.1762063], [137.8710124, 36.1745684], [137.8725493, 36.1730495], [137.8741479, 36.17147], [137.8757894, 36.1698439], [137.8773182, 36.168339], [137.8786268, 36.1670557], [137.8787667, 36.1669185], [137.8791159, 36.1667026], [137.8808615, 36.1655771], [137.8828678, 36.1642562], [137.8848017, 36.1629938], [137.8867315, 36.1617464], [137.8887351, 36.1604666], [137.8906354, 36.1592365], [137.8925814, 36.1579675], [137.8944657, 36.1567071], [137.8964498, 36.1554581], [137.8982368, 36.1542924], [137.8999119, 36.1532209], [137.9019463, 36.151895], [137.903781, 36.1507027], [137.9056853, 36.1494422], [137.9077184, 36.1481416], [137.9097877, 36.1467955], [137.9117779, 36.1455079], [137.9136649, 36.1440372], [137.9154646, 36.1426325], [137.9172524, 36.1412138], [137.919038, 36.1398215], [137.9207003, 36.1385192], [137.9225859, 36.1370635], [137.9245158, 36.1355494], [137.9259092, 36.1344586], [137.927776, 36.1329856], [137.9297176, 36.1315501]]}, "properties": {"power": "line", "voltage": "154000", "name": "竜島変電所~新信濃変電所線", "source": "osm_supplement", "note": "端点一致で接続: 端点一致(竜島変電所 start=148m)。元OSM線の他端は新信濃変電所方面の回廊", "ref_line_idx": 420, "ref_line_name": "竜島変電所~新信濃変電所線", "ref_substation": "hokuriku_sub_77", "method": "island_classify osm_gap 解消 / 端点<=0.15km / build_network_snapped で成分減を実測検証"}}]}