{"type": "FeatureCollection", "features": [{"type": "Feature", "geometry": {"type": "LineString", "coordinates": [[135.9863715, 35.5338059], [135.9887218, 35.5337484]]}, "properties": {"power": "line", "voltage": null, "name": "manual_connection", "source": "manual", "supplement_source": "editor", "edit_id": "e_0f5f4212ea"}}, {"type": "Feature", "geometry": {"type": "LineString", "coordinates": [[135.9887218, 35.5337484], [135.9949692, 35.5326168]]}, "properties": {"power": "line", "voltage": null, "name": "manual_connection", "source": "manual", "supplement_source": "editor", "edit_id": "e_df4faccf19"}}, {"type": "Feature", "geometry": {"type": "LineString", "coordinates": [[135.9949692, 35.5326168], [135.9978257, 35.5313402]]}, "properties": {"power": "line", "voltage": null, "name": "manual_connection", "source": "manual", "supplement_source": "editor", "edit_id": "e_352b2919fd"}}, {"type": "Feature", "geometry": {"type": "LineString", "coordinates": [[135.9978257, 35.5313402], [136.0017885, 35.5295646]]}, "properties": {"power": "line", "voltage": null, "name": "manual_connection", "source": "manual", "supplement_source": "editor", "edit_id": "e_9cdaf50e67"}}, {"type": "Feature", "geometry": {"type": "LineString", "coordinates": [[136.0017885, 35.5295646], [136.0034428, 35.5288594]]}, "properties": {"power": "line", "voltage": null, "name": "manual_connection", "source": "manual", "supplement_source": "editor", "edit_id": "e_4d5ccaea8b"}}, {"type": "Feature", "geometry": {"type": "LineString", "coordinates": [[136.0034428, 35.5288594], [136.0077516, 35.5248399]]}, "properties": {"power": "line", "voltage": null, "name": "manual_connection", "source": "manual", "supplement_source": "editor", "edit_id": "e_926cee92f8"}}, {"type": "Feature", "geometry": {"type": "LineString", "coordinates": [[136.0077516, 35.5248399], [136.0111013, 35.5219519]]}, "properties": {"power": "line", "voltage": null, "name": "manual_connection", "source": "manual", "supplement_source": "editor", "edit_id": "e_a985da9b28"}}, {"type": "Feature", "geometry": {"type": "LineString", "coordinates": [[136.0111013, 35.5219519], [136.0167253, 35.5200898]]}, "properties": {"power": "line", "voltage": null, "name": "manual_connection", "source": "manual", "supplement_source": "editor", "edit_id": "e_6521af174a"}}, {"type": "Feature", "geometry": {"type": "LineString", "coordinates": [[136.0167253, 35.5200898], [136.0198352, 35.5191252]]}, "properties": {"power": "line", "voltage": null, "name": "manual_connection", "source": "manual", "supplement_source": "editor", "edit_id": "e_b81774325b"}}, {"type": "Feature", "geometry": {"type": "LineString", "coordinates": [[136.0198352, 35.5191252], [136.0224931, 35.517999]]}, "properties": {"power": "line", "voltage": null, "name": "manual_connection", "source": "manual", "supplement_source": "editor", "edit_id": "e_d59130408e"}}, {"type": "Feature", "geometry": {"type": "LineString", "coordinates": [[136.0224931, 35.517999], [136.0240549, 35.5160865]]}, "properties": {"power": "line", "voltage": null, "name": "manual_connection", "source": "manual", "supplement_source": "editor", "edit_id": "e_b284095fe9"}}, {"type": "Feature", "geometry": {"type": "LineString", "coordinates": [[136.0240549, 35.5160865], [136.028302, 35.5143859]]}, "properties": {"power": "line", "voltage": null, "name": "manual_connection", "source": "manual", "supplement_source": "editor", "edit_id": "e_4745cbc8d0"}}, {"type": "Feature", "geometry": {"type": "LineString", "coordinates": [[136.028302, 35.5143859], [136.0339191, 35.5113749]]}, "properties": {"power": "line", "voltage": null, "name": "manual_connection", "source": "manual", "supplement_source": "editor", "edit_id": "e_290b93de38"}}, {"type": "Feature", "geometry": {"type": "LineString", "coordinates": [[136.0339191, 35.5113749], [136.0368262, 35.5102585]]}, "properties": {"power": "line", "voltage": null, "name": "manual_connection", "source": "manual", "supplement_source": "editor", "edit_id": "e_6179323a3c"}}, {"type": "Feature", "geometry": {"type": "LineString", "coordinates": [[136.0368262, 35.5102585], [136.0416872, 35.5083917]]}, "properties": {"power": "line", "voltage": null, "name": "manual_connection", "source": "manual", "supplement_source": "editor", "edit_id": "e_a700124079"}}, {"type": "Feature", "geometry": {"type": "LineString", "coordinates": [[136.0416872, 35.5083917], [136.047825, 35.5079735]]}, "properties": {"power": "line", "voltage": null, "name": "manual_connection", "source": "manual", "supplement_source": "editor", "edit_id": "e_359fe8c59a"}}, {"type": "Feature", "geometry": {"type": "LineString", "coordinates": [[136.047825, 35.5079735], [136.0508596, 35.5079344]]}, "properties": {"power": "line", "voltage": null, "name": "manual_connection", "source": "manual", "supplement_source": "editor", "edit_id": "e_97195412b6"}}, {"type": "Feature", "geometry": {"type": "LineString", "coordinates": [[136.0508596, 35.5079344], [136.0542983, 35.5079177]]}, "properties": {"power": "line", "voltage": null, "name": "manual_connection", "source": "manual", "supplement_source": "editor", "edit_id": "e_05e3468eb4"}}, {"type": "Feature", "geometry": {"type": "LineString", "coordinates": [[136.0542983, 35.5079177], [136.0575179, 35.5079623]]}, "properties": {"power": "line", "voltage": null, "name": "manual_connection", "source": "manual", "supplement_source": "editor", "edit_id": "e_27ad236189"}}, {"type": "Feature", "geometry": {"type": "LineString", "coordinates": [[136.0575179, 35.5079623], [136.0635118, 35.5080738]]}, "properties": {"power": "line", "voltage": null, "name": "manual_connection", "source": "manual", "supplement_source": "editor", "edit_id": "e_df9d53e37e"}}, {"type": "Feature", "geometry": {"type": "LineString", "coordinates": [[136.0635118, 35.5080738], [136.0660943, 35.5080738]]}, "properties": {"power": "line", "voltage": null, "name": "manual_connection", "source": "manual", "supplement_source": "editor", "edit_id": "e_ad433277ad"}}, {"type": "Feature", "geometry": {"type": "LineString", "coordinates": [[136.0660943, 35.5080738], [136.0690673, 35.5081909]]}, "properties": {"power": "line", "voltage": null, "name": "manual_connection", "source": "manual", "supplement_source": "editor", "edit_id": "e_9d64ea38d1"}}, {"type": "Feature", "geometry": {"type": "LineString", "coordinates": [[136.0690673, 35.5081909], [136.0736021, 35.5085032]]}, "properties": {"power": "line", "voltage": null, "name": "manual_connection", "source": "manual", "supplement_source": "editor", "edit_id": "e_f76fb8b778"}}, {"type": "Feature", "geometry": {"type": "LineString", "coordinates": [[136.0736021, 35.5085032], [136.078267, 35.5087765]]}, "properties": {"power": "line", "voltage": null, "name": "manual_connection", "source": "manual", "supplement_source": "editor", "edit_id": "e_0dfa1ad567"}}, {"type": "Feature", "geometry": {"type": "LineString", "coordinates": [[136.078267, 35.5087765], [136.0819798, 35.5098471]]}, "properties": {"power": "line", "voltage": null, "name": "manual_connection", "source": "manual", "supplement_source": "editor", "edit_id": "e_e5340db7c7"}}, {"type": "Feature", "geometry": {"type": "LineString", "coordinates": [[136.0819798, 35.5098471], [136.0854186, 35.5108229]]}, "properties": {"power": "line", "voltage": null, "name": "manual_connection", "source": "manual", "supplement_source": "editor", "edit_id": "e_ec144e640e"}}, {"type": "Feature", "geometry": {"type": "LineString", "coordinates": [[136.0854186, 35.5108229], [136.0889875, 35.5120998]]}, "properties": {"power": "line", "voltage": null, "name": "manual_connection", "source": "manual", "supplement_source": "editor", "edit_id": "e_68c4dc00c6"}}, {"type": "Feature", "geometry": {"type": "LineString", "coordinates": [[136.0889875, 35.5120998], [136.0942279, 35.5129306]]}, "properties": {"power": "line", "voltage": null, "name": "manual_connection", "source": "manual", "supplement_source": "editor", "edit_id": "e_cff7503e35"}}, {"type": "Feature", "geometry": {"type": "LineString", "coordinates": [[136.0942279, 35.5129306], [136.0958651, 35.5133042]]}, "properties": {"power": "line", "voltage": null, "name": "manual_connection", "source": "manual", "supplement_source": "editor", "edit_id": "e_bfb21e1ed3"}}, {"type": "Feature", "geometry": {"type": "LineString", "coordinates": [[136.1005506, 35.5145253], [136.1045237, 35.5155847]]}, "properties": {"power": "line", "voltage": null, "name": "manual_connection", "source": "manual", "supplement_source": "editor", "edit_id": "e_bb081bed26"}}, {"type": "Feature", "geometry": {"type": "LineString", "coordinates": [[136.1045237, 35.5155847], [136.1074898, 35.5162761]]}, "properties": {"power": "line", "voltage": null, "name": "manual_connection", "source": "manual", "supplement_source": "editor", "edit_id": "e_59e6608101"}}, {"type": "Feature", "geometry": {"type": "LineString", "coordinates": [[136.1074898, 35.5162761], [136.1105518, 35.5156182]]}, "properties": {"power": "line", "voltage": null, "name": "manual_connection", "source": "manual", "supplement_source": "editor", "edit_id": "e_2097731846"}}, {"type": "Feature", "geometry": {"type": "LineString", "coordinates": [[136.0958651, 35.5133042], [136.1005506, 35.5145253]]}, "properties": {"power": "line", "voltage": null, "name": "manual_connection", "source": "manual", "supplement_source": "editor", "edit_id": "e_75d9f48997"}}, {"type": "Feature", "geometry": {"type": "LineString", "coordinates": [[135.6460406, 35.1377977], [135.649107, 35.1389928]]}, "properties": {"power": "line", "voltage": null, "name": "manual_connection", "source": "manual", "supplement_source": "editor", "edit_id": "e_7e189417c7"}}, {"type": "Feature", "geometry": {"type": "LineString", "coordinates": [[135.649107, 35.1389928], [135.6541326, 35.1410183]]}, "properties": {"power": "line", "voltage": null, "name": "manual_connection", "source": "manual", "supplement_source": "editor", "edit_id": "e_97f3118ca6"}}, {"type": "Feature", "geometry": {"type": "LineString", "coordinates": [[135.6541326, 35.1410183], [135.6579133, 35.1425642]]}, "properties": {"power": "line", "voltage": null, "name": "manual_connection", "source": "manual", "supplement_source": "editor", "edit_id": "e_befdbd6846"}}, {"type": "Feature", "geometry": {"type": "LineString", "coordinates": [[135.6579133, 35.1425642], [135.6605408, 35.1436468]]}, "properties": {"power": "line", "voltage": null, "name": "manual_connection", "source": "manual", "supplement_source": "editor", "edit_id": "e_5033504ca9"}}, {"type": "Feature", "geometry": {"type": "LineString", "coordinates": [[135.6605408, 35.1436468], [135.6631817, 35.1447645]]}, "properties": {"power": "line", "voltage": null, "name": "manual_connection", "source": "manual", "supplement_source": "editor", "edit_id": "e_f2d3d590e6"}}, {"type": "Feature", "geometry": {"type": "LineString", "coordinates": [[135.6631817, 35.1447645], [135.6667169, 35.1459756]]}, "properties": {"power": "line", "voltage": null, "name": "manual_connection", "source": "manual", "supplement_source": "editor", "edit_id": "e_5147822abd"}}, {"type": "Feature", "geometry": {"type": "LineString", "coordinates": [[135.6667169, 35.1459756], [135.6687129, 35.146613]]}, "properties": {"power": "line", "voltage": null, "name": "manual_connection", "source": "manual", "supplement_source": "editor", "edit_id": "e_76e348a2f2"}}, {"type": "Feature", "geometry": {"type": "LineString", "coordinates": [[135.6687129, 35.146613], [135.6733956, 35.1482437]]}, "properties": {"power": "line", "voltage": null, "name": "manual_connection", "source": "manual", "supplement_source": "editor", "edit_id": "e_947bce30d7"}}, {"type": "Feature", "geometry": {"type": "LineString", "coordinates": [[135.6733956, 35.1482437], [135.6785438, 35.1500457]]}, "properties": {"power": "line", "voltage": null, "name": "manual_connection", "source": "manual", "supplement_source": "editor", "edit_id": "e_7849ba05b2"}}, {"type": "Feature", "geometry": {"type": "LineString", "coordinates": [[135.6785438, 35.1500457], [135.6805411, 35.1506033]]}, "properties": {"power": "line", "voltage": null, "name": "manual_connection", "source": "manual", "supplement_source": "editor", "edit_id": "e_784bac0005"}}, {"type": "Feature", "geometry": {"type": "LineString", "coordinates": [[135.6805411, 35.1506033], [135.6826921, 35.1512469]]}, "properties": {"power": "line", "voltage": null, "name": "manual_connection", "source": "manual", "supplement_source": "editor", "edit_id": "e_3b7344591f"}}, {"type": "Feature", "geometry": {"type": "LineString", "coordinates": [[135.6826921, 35.1512469], [135.6888299, 35.1530602]]}, "properties": {"power": "line", "voltage": null, "name": "manual_connection", "source": "manual", "supplement_source": "editor", "edit_id": "e_4930f919e3"}}, {"type": "Feature", "geometry": {"type": "LineString", "coordinates": [[135.6888299, 35.1530602], [135.6939961, 35.1545799]]}, "properties": {"power": "line", "voltage": null, "name": "manual_connection", "source": "manual", "supplement_source": "editor", "edit_id": "e_9626a6d5b0"}}, {"type": "Feature", "geometry": {"type": "LineString", "coordinates": [[135.6939961, 35.1545799], [135.6988058, 35.1576969]]}, "properties": {"power": "line", "voltage": null, "name": "manual_connection", "source": "manual", "supplement_source": "editor", "edit_id": "e_44d015e0f7"}}, {"type": "Feature", "geometry": {"type": "LineString", "coordinates": [[135.6988058, 35.1576969], [135.7019055, 35.1596651]]}, "properties": {"power": "line", "voltage": null, "name": "manual_connection", "source": "manual", "supplement_source": "editor", "edit_id": "e_e16a15371e"}}, {"type": "Feature", "geometry": {"type": "LineString", "coordinates": [[135.7019055, 35.1596651], [135.7044104, 35.161212]]}, "properties": {"power": "line", "voltage": null, "name": "manual_connection", "source": "manual", "supplement_source": "editor", "edit_id": "e_f7f8d033c7"}}, {"type": "Feature", "geometry": {"type": "LineString", "coordinates": [[135.7044104, 35.161212], [135.7096041, 35.1640204]]}, "properties": {"power": "line", "voltage": null, "name": "manual_connection", "source": "manual", "supplement_source": "editor", "edit_id": "e_740fc62f64"}}, {"type": "Feature", "geometry": {"type": "LineString", "coordinates": [[135.7096041, 35.1640204], [135.7134979, 35.1659849]]}, "properties": {"power": "line", "voltage": null, "name": "manual_connection", "source": "manual", "supplement_source": "editor", "edit_id": "e_c3afd11ac5"}}, {"type": "Feature", "geometry": {"type": "LineString", "coordinates": [[135.7134979, 35.1659849], [135.7187052, 35.168612]]}, "properties": {"power": "line", "voltage": null, "name": "manual_connection", "source": "manual", "supplement_source": "editor", "edit_id": "e_06e5deb1c7"}}, {"type": "Feature", "geometry": {"type": "LineString", "coordinates": [[135.7187052, 35.168612], [135.7214839, 35.1700139]]}, "properties": {"power": "line", "voltage": null, "name": "manual_connection", "source": "manual", "supplement_source": "editor", "edit_id": "e_d99b0c42cb"}}, {"type": "Feature", "geometry": {"type": "LineString", "coordinates": [[135.7214839, 35.1700139], [135.7236396, 35.1718046]]}, "properties": {"power": "line", "voltage": null, "name": "manual_connection", "source": "manual", "supplement_source": "editor", "edit_id": "e_636a74b7e8"}}, {"type": "Feature", "geometry": {"type": "LineString", "coordinates": [[135.7236396, 35.1718046], [135.726671, 35.1743348]]}, "properties": {"power": "line", "voltage": null, "name": "manual_connection", "source": "manual", "supplement_source": "editor", "edit_id": "e_a51d32e2b1"}}, {"type": "Feature", "geometry": {"type": "LineString", "coordinates": [[135.726671, 35.1743348], [135.729906, 35.1771146]]}, "properties": {"power": "line", "voltage": null, "name": "manual_connection", "source": "manual", "supplement_source": "editor", "edit_id": "e_43fda0457d"}}, {"type": "Feature", "geometry": {"type": "LineString", "coordinates": [[135.729906, 35.1771146], [135.7320181, 35.178344]]}, "properties": {"power": "line", "voltage": null, "name": "manual_connection", "source": "manual", "supplement_source": "editor", "edit_id": "e_2860a38a2b"}}, {"type": "Feature", "geometry": {"type": "LineString", "coordinates": [[135.7320181, 35.178344], [135.7370484, 35.1797334]]}, "properties": {"power": "line", "voltage": null, "name": "manual_connection", "source": "manual", "supplement_source": "editor", "edit_id": "e_182fed213e"}}, {"type": "Feature", "geometry": {"type": "LineString", "coordinates": [[135.7370484, 35.1797334], [135.7392572, 35.1817282]]}, "properties": {"power": "line", "voltage": null, "name": "manual_connection", "source": "manual", "supplement_source": "editor", "edit_id": "e_1c775f5402"}}, {"type": "Feature", "geometry": {"type": "LineString", "coordinates": [[135.7392572, 35.1817282], [135.7405253, 35.1843248]]}, "properties": {"power": "line", "voltage": null, "name": "manual_connection", "source": "manual", "supplement_source": "editor", "edit_id": "e_2a8ec83a12"}}, {"type": "Feature", "geometry": {"type": "LineString", "coordinates": [[135.7405253, 35.1843248], [135.7423387, 35.1877904]]}, "properties": {"power": "line", "voltage": null, "name": "manual_connection", "source": "manual", "supplement_source": "editor", "edit_id": "e_ba44367ee5"}}, {"type": "Feature", "geometry": {"type": "LineString", "coordinates": [[135.7423387, 35.1877904], [135.7455429, 35.1922588]]}, "properties": {"power": "line", "voltage": null, "name": "manual_connection", "source": "manual", "supplement_source": "editor", "edit_id": "e_08313339ec"}}, {"type": "Feature", "geometry": {"type": "LineString", "coordinates": [[135.7455429, 35.1922588], [135.7488698, 35.194777]]}, "properties": {"power": "line", "voltage": null, "name": "manual_connection", "source": "manual", "supplement_source": "editor", "edit_id": "e_2df1ec5385"}}, {"type": "Feature", "geometry": {"type": "LineString", "coordinates": [[135.7488698, 35.194777], [135.7533829, 35.1982644]]}, "properties": {"power": "line", "voltage": null, "name": "manual_connection", "source": "manual", "supplement_source": "editor", "edit_id": "e_ee9713418f"}}, {"type": "Feature", "geometry": {"type": "LineString", "coordinates": [[135.7533829, 35.1982644], [135.7555508, 35.200114]]}, "properties": {"power": "line", "voltage": null, "name": "manual_connection", "source": "manual", "supplement_source": "editor", "edit_id": "e_ae7eed6d81"}}, {"type": "Feature", "geometry": {"type": "LineString", "coordinates": [[135.7555508, 35.200114], [135.7595049, 35.2037238]]}, "properties": {"power": "line", "voltage": null, "name": "manual_connection", "source": "manual", "supplement_source": "editor", "edit_id": "e_48d6a7510c"}}, {"type": "Feature", "geometry": {"type": "LineString", "coordinates": [[135.7595049, 35.2037238], [135.7618638, 35.2067875]]}, "properties": {"power": "line", "voltage": null, "name": "manual_connection", "source": "manual", "supplement_source": "editor", "edit_id": "e_95a3555a57"}}, {"type": "Feature", "geometry": {"type": "LineString", "coordinates": [[135.7618638, 35.2067875], [135.7645771, 35.2102522]]}, "properties": {"power": "line", "voltage": null, "name": "manual_connection", "source": "manual", "supplement_source": "editor", "edit_id": "e_5c61f50594"}}, {"type": "Feature", "geometry": {"type": "LineString", "coordinates": [[135.7645771, 35.2102522], [135.7672904, 35.214697]]}, "properties": {"power": "line", "voltage": null, "name": "manual_connection", "source": "manual", "supplement_source": "editor", "edit_id": "e_912f4fe82b"}}, {"type": "Feature", "geometry": {"type": "LineString", "coordinates": [[135.7672904, 35.214697], [135.7709446, 35.217649]]}, "properties": {"power": "line", "voltage": null, "name": "manual_connection", "source": "manual", "supplement_source": "editor", "edit_id": "e_ea3418108c"}}, {"type": "Feature", "geometry": {"type": "LineString", "coordinates": [[135.7709446, 35.217649], [135.773467, 35.2220934]]}, "properties": {"power": "line", "voltage": null, "name": "manual_connection", "source": "manual", "supplement_source": "editor", "edit_id": "e_e01890804d"}}, {"type": "Feature", "geometry": {"type": "LineString", "coordinates": [[135.773467, 35.2220934], [135.7745851, 35.2239869]]}, "properties": {"power": "line", "voltage": null, "name": "manual_connection", "source": "manual", "supplement_source": "editor", "edit_id": "e_103575c7ae"}}, {"type": "Feature", "geometry": {"type": "LineString", "coordinates": [[135.7745851, 35.2239869], [135.7766303, 35.2270277]]}, "properties": {"power": "line", "voltage": null, "name": "manual_connection", "source": "manual", "supplement_source": "editor", "edit_id": "e_00ee43720d"}}, {"type": "Feature", "geometry": {"type": "LineString", "coordinates": [[135.7766303, 35.2270277], [135.7780074, 35.2290659]]}, "properties": {"power": "line", "voltage": null, "name": "manual_connection", "source": "manual", "supplement_source": "editor", "edit_id": "e_86fe919a0e"}}, {"type": "Feature", "geometry": {"type": "LineString", "coordinates": [[135.7780074, 35.2290659], [135.7825614, 35.2335542]]}, "properties": {"power": "line", "voltage": null, "name": "manual_connection", "source": "manual", "supplement_source": "editor", "edit_id": "e_2f0847b3c8"}}, {"type": "Feature", "geometry": {"type": "LineString", "coordinates": [[135.7825614, 35.2335542], [135.7877154, 35.237285]]}, "properties": {"power": "line", "voltage": null, "name": "manual_connection", "source": "manual", "supplement_source": "editor", "edit_id": "e_7f1006a7b5"}}, {"type": "Feature", "geometry": {"type": "LineString", "coordinates": [[135.7877154, 35.237285], [135.7896925, 35.2387216]]}, "properties": {"power": "line", "voltage": null, "name": "manual_connection", "source": "manual", "supplement_source": "editor", "edit_id": "e_44c510218d"}}, {"type": "Feature", "geometry": {"type": "LineString", "coordinates": [[135.7896925, 35.2387216], [135.7920104, 35.2433987]]}, "properties": {"power": "line", "voltage": null, "name": "manual_connection", "source": "manual", "supplement_source": "editor", "edit_id": "e_455d7a6ef0"}}, {"type": "Feature", "geometry": {"type": "LineString", "coordinates": [[135.7920104, 35.2433987], [135.7942465, 35.2484987]]}, "properties": {"power": "line", "voltage": null, "name": "manual_connection", "source": "manual", "supplement_source": "editor", "edit_id": "e_0c43180fe9"}}, {"type": "Feature", "geometry": {"type": "LineString", "coordinates": [[135.7942465, 35.2484987], [135.7963463, 35.2529415]]}, "properties": {"power": "line", "voltage": null, "name": "manual_connection", "source": "manual", "supplement_source": "editor", "edit_id": "e_c459dac2e9"}}, {"type": "Feature", "geometry": {"type": "LineString", "coordinates": [[135.7963463, 35.2529415], [135.7979824, 35.2567716]]}, "properties": {"power": "line", "voltage": null, "name": "manual_connection", "source": "manual", "supplement_source": "editor", "edit_id": "e_aec2acb627"}}, {"type": "Feature", "geometry": {"type": "LineString", "coordinates": [[135.7979824, 35.2567716], [135.7996868, 35.2601005]]}, "properties": {"power": "line", "voltage": null, "name": "manual_connection", "source": "manual", "supplement_source": "editor", "edit_id": "e_8fa63a08b5"}}, {"type": "Feature", "geometry": {"type": "LineString", "coordinates": [[135.7996868, 35.2601005], [135.8013707, 35.2632067]]}, "properties": {"power": "line", "voltage": null, "name": "manual_connection", "source": "manual", "supplement_source": "editor", "edit_id": "e_ab89023a4c"}}, {"type": "Feature", "geometry": {"type": "LineString", "coordinates": [[135.8013707, 35.2632067], [135.8027274, 35.2658229]]}, "properties": {"power": "line", "voltage": null, "name": "manual_connection", "source": "manual", "supplement_source": "editor", "edit_id": "e_7ab5700807"}}, {"type": "Feature", "geometry": {"type": "LineString", "coordinates": [[135.8027274, 35.2658229], [135.8078404, 35.270042]]}, "properties": {"power": "line", "voltage": null, "name": "manual_connection", "source": "manual", "supplement_source": "editor", "edit_id": "e_7d82d8aa3a"}}, {"type": "Feature", "geometry": {"type": "LineString", "coordinates": [[135.8078404, 35.270042], [135.8106219, 35.2722907]]}, "properties": {"power": "line", "voltage": null, "name": "manual_connection", "source": "manual", "supplement_source": "editor", "edit_id": "e_b5fc20a211"}}, {"type": "Feature", "geometry": {"type": "LineString", "coordinates": [[135.8106219, 35.2722907], [135.8154486, 35.2760642]]}, "properties": {"power": "line", "voltage": null, "name": "manual_connection", "source": "manual", "supplement_source": "editor", "edit_id": "e_b22315222b"}}, {"type": "Feature", "geometry": {"type": "LineString", "coordinates": [[135.8154486, 35.2760642], [135.8183392, 35.2787357]]}, "properties": {"power": "line", "voltage": null, "name": "manual_connection", "source": "manual", "supplement_source": "editor", "edit_id": "e_d8915cc7cc"}}, {"type": "Feature", "geometry": {"type": "LineString", "coordinates": [[135.8183392, 35.2787357], [135.8205344, 35.2807615]]}, "properties": {"power": "line", "voltage": null, "name": "manual_connection", "source": "manual", "supplement_source": "editor", "edit_id": "e_ef329af466"}}, {"type": "Feature", "geometry": {"type": "LineString", "coordinates": [[135.8205344, 35.2807615], [135.8242704, 35.2852915]]}, "properties": {"power": "line", "voltage": null, "name": "manual_connection", "source": "manual", "supplement_source": "editor", "edit_id": "e_2675f0eede"}}, {"type": "Feature", "geometry": {"type": "LineString", "coordinates": [[135.8242704, 35.2852915], [135.8281631, 35.2895096]]}, "properties": {"power": "line", "voltage": null, "name": "manual_connection", "source": "manual", "supplement_source": "editor", "edit_id": "e_9400746c0f"}}, {"type": "Feature", "geometry": {"type": "LineString", "coordinates": [[135.8281631, 35.2895096], [135.8312651, 35.2929485]]}, "properties": {"power": "line", "voltage": null, "name": "manual_connection", "source": "manual", "supplement_source": "editor", "edit_id": "e_e4ab08d933"}}, {"type": "Feature", "geometry": {"type": "LineString", "coordinates": [[135.8312651, 35.2929485], [135.8332217, 35.2948404]]}, "properties": {"power": "line", "voltage": null, "name": "manual_connection", "source": "manual", "supplement_source": "editor", "edit_id": "e_d1fc28b1ca"}}, {"type": "Feature", "geometry": {"type": "LineString", "coordinates": [[135.8332217, 35.2948404], [135.8350283, 35.2966988]]}, "properties": {"power": "line", "voltage": null, "name": "manual_connection", "source": "manual", "supplement_source": "editor", "edit_id": "e_90c3c391f0"}}, {"type": "Feature", "geometry": {"type": "LineString", "coordinates": [[135.8350283, 35.2966988], [135.8382733, 35.3010499]]}, "properties": {"power": "line", "voltage": null, "name": "manual_connection", "source": "manual", "supplement_source": "editor", "edit_id": "e_d3dd2d88cb"}}, {"type": "Feature", "geometry": {"type": "LineString", "coordinates": [[135.8382733, 35.3010499], [135.841832, 35.3033644]]}, "properties": {"power": "line", "voltage": null, "name": "manual_connection", "source": "manual", "supplement_source": "editor", "edit_id": "e_e63e8cdee5"}}, {"type": "Feature", "geometry": {"type": "LineString", "coordinates": [[135.841832, 35.3033644], [135.8441363, 35.3053451]]}, "properties": {"power": "line", "voltage": null, "name": "manual_connection", "source": "manual", "supplement_source": "editor", "edit_id": "e_7bb31d36b5"}}, {"type": "Feature", "geometry": {"type": "LineString", "coordinates": [[135.8441363, 35.3053451], [135.8475859, 35.3082604]]}, "properties": {"power": "line", "voltage": null, "name": "manual_connection", "source": "manual", "supplement_source": "editor", "edit_id": "e_00ae0fbc58"}}, {"type": "Feature", "geometry": {"type": "LineString", "coordinates": [[135.8475859, 35.3082604], [135.8500129, 35.309017]]}, "properties": {"power": "line", "voltage": null, "name": "manual_connection", "source": "manual", "supplement_source": "editor", "edit_id": "e_0ca941b327"}}, {"type": "Feature", "geometry": {"type": "LineString", "coordinates": [[135.8500129, 35.309017], [135.8576757, 35.312366]]}, "properties": {"power": "line", "voltage": null, "name": "manual_connection", "source": "manual", "supplement_source": "editor", "edit_id": "e_f3d0cb7f00"}}, {"type": "Feature", "geometry": {"type": "LineString", "coordinates": [[135.8576757, 35.312366], [135.8631705, 35.3151253]]}, "properties": {"power": "line", "voltage": null, "name": "manual_connection", "source": "manual", "supplement_source": "editor", "edit_id": "e_3940eb089d"}}, {"type": "Feature", "geometry": {"type": "LineString", "coordinates": [[135.8631705, 35.3151253], [135.8682563, 35.3196645]]}, "properties": {"power": "line", "voltage": null, "name": "manual_connection", "source": "manual", "supplement_source": "editor", "edit_id": "e_07b4b2a73a"}}, {"type": "Feature", "geometry": {"type": "LineString", "coordinates": [[135.8682563, 35.3196645], [135.8709697, 35.3220897]]}, "properties": {"power": "line", "voltage": null, "name": "manual_connection", "source": "manual", "supplement_source": "editor", "edit_id": "e_c6c096b7d5"}}, {"type": "Feature", "geometry": {"type": "LineString", "coordinates": [[135.8709697, 35.3220897], [135.873833, 35.3251045]]}, "properties": {"power": "line", "voltage": null, "name": "manual_connection", "source": "manual", "supplement_source": "editor", "edit_id": "e_8502239c69"}}, {"type": "Feature", "geometry": {"type": "LineString", "coordinates": [[135.873833, 35.3251045], [135.8746647, 35.327296]]}, "properties": {"power": "line", "voltage": null, "name": "manual_connection", "source": "manual", "supplement_source": "editor", "edit_id": "e_fbb52a9a7b"}}, {"type": "Feature", "geometry": {"type": "LineString", "coordinates": [[135.8746647, 35.327296], [135.8758782, 35.3312005]]}, "properties": {"power": "line", "voltage": null, "name": "manual_connection", "source": "manual", "supplement_source": "editor", "edit_id": "e_be66c9a497"}}, {"type": "Feature", "geometry": {"type": "LineString", "coordinates": [[135.8758782, 35.3312005], [135.877378, 35.3357499]]}, "properties": {"power": "line", "voltage": null, "name": "manual_connection", "source": "manual", "supplement_source": "editor", "edit_id": "e_976a919c73"}}, {"type": "Feature", "geometry": {"type": "LineString", "coordinates": [[135.877378, 35.3357499], [135.8781689, 35.3389755]]}, "properties": {"power": "line", "voltage": null, "name": "manual_connection", "source": "manual", "supplement_source": "editor", "edit_id": "e_c6c72311c8"}}, {"type": "Feature", "geometry": {"type": "LineString", "coordinates": [[135.8781689, 35.3389755], [135.8833637, 35.3423122]]}, "properties": {"power": "line", "voltage": null, "name": "manual_connection", "source": "manual", "supplement_source": "editor", "edit_id": "e_fdee7f5c83"}}, {"type": "Feature", "geometry": {"type": "LineString", "coordinates": [[135.8833637, 35.3423122], [135.8886131, 35.3459713]]}, "properties": {"power": "line", "voltage": null, "name": "manual_connection", "source": "manual", "supplement_source": "editor", "edit_id": "e_387a92cf11"}}, {"type": "Feature", "geometry": {"type": "LineString", "coordinates": [[135.8886131, 35.3459713], [135.8907197, 35.3482512]]}, "properties": {"power": "line", "voltage": null, "name": "manual_connection", "source": "manual", "supplement_source": "editor", "edit_id": "e_c972b51f18"}}, {"type": "Feature", "geometry": {"type": "LineString", "coordinates": [[135.8907197, 35.3482512], [135.8929831, 35.3514151]]}, "properties": {"power": "line", "voltage": null, "name": "manual_connection", "source": "manual", "supplement_source": "editor", "edit_id": "e_21a6b343fd"}}, {"type": "Feature", "geometry": {"type": "LineString", "coordinates": [[135.8929831, 35.3514151], [135.8954033, 35.3546234]]}, "properties": {"power": "line", "voltage": null, "name": "manual_connection", "source": "manual", "supplement_source": "editor", "edit_id": "e_284831044f"}}, {"type": "Feature", "geometry": {"type": "LineString", "coordinates": [[135.8954033, 35.3546234], [135.8974758, 35.3582319]]}, "properties": {"power": "line", "voltage": null, "name": "manual_connection", "source": "manual", "supplement_source": "editor", "edit_id": "e_058a60957e"}}, {"type": "Feature", "geometry": {"type": "LineString", "coordinates": [[135.8974758, 35.3582319], [135.8989279, 35.3607894]]}, "properties": {"power": "line", "voltage": null, "name": "manual_connection", "source": "manual", "supplement_source": "editor", "edit_id": "e_82b643b4c6"}}, {"type": "Feature", "geometry": {"type": "LineString", "coordinates": [[135.8989279, 35.3607894], [135.9004073, 35.3633969]]}, "properties": {"power": "line", "voltage": null, "name": "manual_connection", "source": "manual", "supplement_source": "editor", "edit_id": "e_4a64e0ffcb"}}, {"type": "Feature", "geometry": {"type": "LineString", "coordinates": [[135.9004073, 35.3633969], [135.9016344, 35.3654372]]}, "properties": {"power": "line", "voltage": null, "name": "manual_connection", "source": "manual", "supplement_source": "editor", "edit_id": "e_3527952512"}}, {"type": "Feature", "geometry": {"type": "LineString", "coordinates": [[135.9016344, 35.3654372], [135.9030287, 35.3692502]]}, "properties": {"power": "line", "voltage": null, "name": "manual_connection", "source": "manual", "supplement_source": "editor", "edit_id": "e_ce3e008427"}}, {"type": "Feature", "geometry": {"type": "LineString", "coordinates": [[135.9030287, 35.3692502], [135.9040705, 35.3722234]]}, "properties": {"power": "line", "voltage": null, "name": "manual_connection", "source": "manual", "supplement_source": "editor", "edit_id": "e_565676223b"}}, {"type": "Feature", "geometry": {"type": "LineString", "coordinates": [[135.9040705, 35.3722234], [135.9047932, 35.3743152]]}, "properties": {"power": "line", "voltage": null, "name": "manual_connection", "source": "manual", "supplement_source": "editor", "edit_id": "e_3d5a38cdab"}}, {"type": "Feature", "geometry": {"type": "LineString", "coordinates": [[135.9047932, 35.3743152], [135.9057438, 35.3770918]]}, "properties": {"power": "line", "voltage": null, "name": "manual_connection", "source": "manual", "supplement_source": "editor", "edit_id": "e_ebe0d56158"}}, {"type": "Feature", "geometry": {"type": "LineString", "coordinates": [[135.9057438, 35.3770918], [135.9066423, 35.3795709]]}, "properties": {"power": "line", "voltage": null, "name": "manual_connection", "source": "manual", "supplement_source": "editor", "edit_id": "e_381bdc1103"}}, {"type": "Feature", "geometry": {"type": "LineString", "coordinates": [[135.9066423, 35.3795709], [135.9077427, 35.3829472]]}, "properties": {"power": "line", "voltage": null, "name": "manual_connection", "source": "manual", "supplement_source": "editor", "edit_id": "e_1305c7b5d7"}}, {"type": "Feature", "geometry": {"type": "LineString", "coordinates": [[135.9077427, 35.3829472], [135.9101598, 35.3873176]]}, "properties": {"power": "line", "voltage": null, "name": "manual_connection", "source": "manual", "supplement_source": "editor", "edit_id": "e_5da21e0d1a"}}, {"type": "Feature", "geometry": {"type": "LineString", "coordinates": [[135.9101598, 35.3873176], [135.9119828, 35.3904812]]}, "properties": {"power": "line", "voltage": null, "name": "manual_connection", "source": "manual", "supplement_source": "editor", "edit_id": "e_0b43618f01"}}, {"type": "Feature", "geometry": {"type": "LineString", "coordinates": [[135.9119828, 35.3904812], [135.9145488, 35.3943887]]}, "properties": {"power": "line", "voltage": null, "name": "manual_connection", "source": "manual", "supplement_source": "editor", "edit_id": "e_9036f62333"}}, {"type": "Feature", "geometry": {"type": "LineString", "coordinates": [[135.9145488, 35.3943887], [135.9194776, 35.403936]]}, "properties": {"power": "line", "voltage": null, "name": "manual_connection", "source": "manual", "supplement_source": "editor", "edit_id": "e_bacdc40ea3"}}, {"type": "Feature", "geometry": {"type": "LineString", "coordinates": [[135.9194776, 35.403936], [135.9211988, 35.4123528]]}, "properties": {"power": "line", "voltage": null, "name": "manual_connection", "source": "manual", "supplement_source": "editor", "edit_id": "e_77d1c7b1a3"}}, {"type": "Feature", "geometry": {"type": "LineString", "coordinates": [[135.9211988, 35.4123528], [135.9215249, 35.4151878]]}, "properties": {"power": "line", "voltage": null, "name": "manual_connection", "source": "manual", "supplement_source": "editor", "edit_id": "e_af0a1c1582"}}, {"type": "Feature", "geometry": {"type": "LineString", "coordinates": [[135.9215249, 35.4151878], [135.9218148, 35.4181481]]}, "properties": {"power": "line", "voltage": null, "name": "manual_connection", "source": "manual", "supplement_source": "editor", "edit_id": "e_01e11ab2f3"}}, {"type": "Feature", "geometry": {"type": "LineString", "coordinates": [[135.9218148, 35.4181481], [135.9224307, 35.4230941]]}, "properties": {"power": "line", "voltage": null, "name": "manual_connection", "source": "manual", "supplement_source": "editor", "edit_id": "e_3d4dfd3857"}}, {"type": "Feature", "geometry": {"type": "LineString", "coordinates": [[135.9224307, 35.4230941], [135.9228384, 35.4268736]]}, "properties": {"power": "line", "voltage": null, "name": "manual_connection", "source": "manual", "supplement_source": "editor", "edit_id": "e_fc476f81b6"}}, {"type": "Feature", "geometry": {"type": "LineString", "coordinates": [[135.9228384, 35.4268736], [135.9234544, 35.4331402]]}, "properties": {"power": "line", "voltage": null, "name": "manual_connection", "source": "manual", "supplement_source": "editor", "edit_id": "e_ce9bdff5c0"}}, {"type": "Feature", "geometry": {"type": "LineString", "coordinates": [[135.9234544, 35.4331402], [135.9238801, 35.4391776]]}, "properties": {"power": "line", "voltage": null, "name": "manual_connection", "source": "manual", "supplement_source": "editor", "edit_id": "e_4aaaa8e29a"}}, {"type": "Feature", "geometry": {"type": "LineString", "coordinates": [[135.9238801, 35.4391776], [135.9236627, 35.4434728]]}, "properties": {"power": "line", "voltage": null, "name": "manual_connection", "source": "manual", "supplement_source": "editor", "edit_id": "e_8d7f231262"}}, {"type": "Feature", "geometry": {"type": "LineString", "coordinates": [[135.9236627, 35.4434728], [135.9235812, 35.4453842]]}, "properties": {"power": "line", "voltage": null, "name": "manual_connection", "source": "manual", "supplement_source": "editor", "edit_id": "e_fdd31d644e"}}, {"type": "Feature", "geometry": {"type": "LineString", "coordinates": [[135.9235812, 35.4453842], [135.9232188, 35.4511329]]}, "properties": {"power": "line", "voltage": null, "name": "manual_connection", "source": "manual", "supplement_source": "editor", "edit_id": "e_da2c6e2419"}}, {"type": "Feature", "geometry": {"type": "LineString", "coordinates": [[135.9232188, 35.4511329], [135.9229018, 35.4564679]]}, "properties": {"power": "line", "voltage": null, "name": "manual_connection", "source": "manual", "supplement_source": "editor", "edit_id": "e_34767d130b"}}, {"type": "Feature", "geometry": {"type": "LineString", "coordinates": [[135.9229018, 35.4564679], [135.9246229, 35.4623486]]}, "properties": {"power": "line", "voltage": null, "name": "manual_connection", "source": "manual", "supplement_source": "editor", "edit_id": "e_86c31091a9"}}, {"type": "Feature", "geometry": {"type": "LineString", "coordinates": [[135.9246229, 35.4623486], [135.9266249, 35.4645325]]}, "properties": {"power": "line", "voltage": null, "name": "manual_connection", "source": "manual", "supplement_source": "editor", "edit_id": "e_c4fe5f7a9a"}}, {"type": "Feature", "geometry": {"type": "LineString", "coordinates": [[135.9266249, 35.4645325], [135.9297048, 35.4679559]]}, "properties": {"power": "line", "voltage": null, "name": "manual_connection", "source": "manual", "supplement_source": "editor", "edit_id": "e_16f9bb6099"}}, {"type": "Feature", "geometry": {"type": "LineString", "coordinates": [[135.9297048, 35.4679559], [135.9323535, 35.4708355]]}, "properties": {"power": "line", "voltage": null, "name": "manual_connection", "source": "manual", "supplement_source": "editor", "edit_id": "e_ad113e9176"}}, {"type": "Feature", "geometry": {"type": "LineString", "coordinates": [[135.9323535, 35.4708355], [135.9341342, 35.4751704]]}, "properties": {"power": "line", "voltage": null, "name": "manual_connection", "source": "manual", "supplement_source": "editor", "edit_id": "e_71bfac849a"}}, {"type": "Feature", "geometry": {"type": "LineString", "coordinates": [[135.9341342, 35.4751704], [135.9352404, 35.4779965]]}, "properties": {"power": "line", "voltage": null, "name": "manual_connection", "source": "manual", "supplement_source": "editor", "edit_id": "e_5015bb9a50"}}, {"type": "Feature", "geometry": {"type": "LineString", "coordinates": [[135.9352404, 35.4779965], [135.9359534, 35.4798181]]}, "properties": {"power": "line", "voltage": null, "name": "manual_connection", "source": "manual", "supplement_source": "editor", "edit_id": "e_8006d24cb0"}}, {"type": "Feature", "geometry": {"type": "LineString", "coordinates": [[135.9359534, 35.4798181], [135.9394315, 35.4846793]]}, "properties": {"power": "line", "voltage": null, "name": "manual_connection", "source": "manual", "supplement_source": "editor", "edit_id": "e_72c170c874"}}, {"type": "Feature", "geometry": {"type": "LineString", "coordinates": [[135.9394315, 35.4846793], [135.9408792, 35.4887736]]}, "properties": {"power": "line", "voltage": null, "name": "manual_connection", "source": "manual", "supplement_source": "editor", "edit_id": "e_7f97094723"}}, {"type": "Feature", "geometry": {"type": "LineString", "coordinates": [[135.9408792, 35.4887736], [135.9431723, 35.4925182]]}, "properties": {"power": "line", "voltage": null, "name": "manual_connection", "source": "manual", "supplement_source": "editor", "edit_id": "e_d11589fafd"}}, {"type": "Feature", "geometry": {"type": "LineString", "coordinates": [[135.9431723, 35.4925182], [135.9439089, 35.4940307]]}, "properties": {"power": "line", "voltage": null, "name": "manual_connection", "source": "manual", "supplement_source": "editor", "edit_id": "e_cdff4b2d23"}}, {"type": "Feature", "geometry": {"type": "LineString", "coordinates": [[135.9439089, 35.4940307], [135.9454655, 35.4974622]]}, "properties": {"power": "line", "voltage": null, "name": "manual_connection", "source": "manual", "supplement_source": "editor", "edit_id": "e_f320cb4c66"}}, {"type": "Feature", "geometry": {"type": "LineString", "coordinates": [[135.9454655, 35.4974622], [135.9464775, 35.5028542]]}, "properties": {"power": "line", "voltage": null, "name": "manual_connection", "source": "manual", "supplement_source": "editor", "edit_id": "e_4bf4134907"}}, {"type": "Feature", "geometry": {"type": "LineString", "coordinates": [[135.9464775, 35.5028542], [135.946753, 35.5044811]]}, "properties": {"power": "line", "voltage": null, "name": "manual_connection", "source": "manual", "supplement_source": "editor", "edit_id": "e_2d2018eba6"}}, {"type": "Feature", "geometry": {"type": "LineString", "coordinates": [[135.946753, 35.5044811], [135.9475216, 35.5083919]]}, "properties": {"power": "line", "voltage": null, "name": "manual_connection", "source": "manual", "supplement_source": "editor", "edit_id": "e_73526b8042"}}, {"type": "Feature", "geometry": {"type": "LineString", "coordinates": [[135.9475216, 35.5083919], [135.9472718, 35.5138666]]}, "properties": {"power": "line", "voltage": null, "name": "manual_connection", "source": "manual", "supplement_source": "editor", "edit_id": "e_55ac607c6a"}}, {"type": "Feature", "geometry": {"type": "LineString", "coordinates": [[135.9472718, 35.5138666], [135.9470732, 35.5169584]]}, "properties": {"power": "line", "voltage": null, "name": "manual_connection", "source": "manual", "supplement_source": "editor", "edit_id": "e_19035d663b"}}, {"type": "Feature", "geometry": {"type": "LineString", "coordinates": [[135.9470732, 35.5169584], [135.949664, 35.5214028]]}, "properties": {"power": "line", "voltage": null, "name": "manual_connection", "source": "manual", "supplement_source": "editor", "edit_id": "e_0b682b90e1"}}, {"type": "Feature", "geometry": {"type": "LineString", "coordinates": [[135.949664, 35.5214028], [135.9523501, 35.5222906]]}, "properties": {"power": "line", "voltage": null, "name": "manual_connection", "source": "manual", "supplement_source": "editor", "edit_id": "e_eb601face8"}}, {"type": "Feature", "geometry": {"type": "LineString", "coordinates": [[135.9523501, 35.5222906], [135.9573552, 35.5239544]]}, "properties": {"power": "line", "voltage": null, "name": "manual_connection", "source": "manual", "supplement_source": "editor", "edit_id": "e_8d7e7b0afe"}}, {"type": "Feature", "geometry": {"type": "LineString", "coordinates": [[135.9573552, 35.5239544], [135.9605715, 35.5274828]]}, "properties": {"power": "line", "voltage": null, "name": "manual_connection", "source": "manual", "supplement_source": "editor", "edit_id": "e_8065d9418c"}}, {"type": "Feature", "geometry": {"type": "LineString", "coordinates": [[135.9605715, 35.5274828], [135.9633032, 35.5304302]]}, "properties": {"power": "line", "voltage": null, "name": "manual_connection", "source": "manual", "supplement_source": "editor", "edit_id": "e_341bd34f3f"}}, {"type": "Feature", "geometry": {"type": "LineString", "coordinates": [[135.9633032, 35.5304302], [135.965462, 35.5327752]]}, "properties": {"power": "line", "voltage": null, "name": "manual_connection", "source": "manual", "supplement_source": "editor", "edit_id": "e_7bb54ec4dc"}}, {"type": "Feature", "geometry": {"type": "LineString", "coordinates": [[135.965462, 35.5327752], [135.9680703, 35.5346611]]}, "properties": {"power": "line", "voltage": null, "name": "manual_connection", "source": "manual", "supplement_source": "editor", "edit_id": "e_3adb085684"}}, {"type": "Feature", "geometry": {"type": "LineString", "coordinates": [[135.9680703, 35.5346611], [135.9705112, 35.536296]]}, "properties": {"power": "line", "voltage": null, "name": "manual_connection", "source": "manual", "supplement_source": "editor", "edit_id": "e_4e8cd0dd48"}}, {"type": "Feature", "geometry": {"type": "LineString", "coordinates": [[135.9705112, 35.536296], [135.971276, 35.5391158]]}, "properties": {"power": "line", "voltage": null, "name": "manual_connection", "source": "manual", "supplement_source": "editor", "edit_id": "e_a998eed4ae"}}, {"type": "Feature", "geometry": {"type": "LineString", "coordinates": [[135.971276, 35.5391158], [135.9703596, 35.5380617]]}, "properties": {"power": "line", "voltage": null, "name": "manual_connection", "source": "manual", "supplement_source": "editor", "edit_id": "e_d76c940d47"}}, {"type": "Feature", "geometry": {"type": "LineString", "coordinates": [[135.9703596, 35.5380617], [135.9687118, 35.5359608]]}, "properties": {"power": "line", "voltage": null, "name": "manual_connection", "source": "manual", "supplement_source": "editor", "edit_id": "e_eb192f119f"}}, {"type": "Feature", "geometry": {"type": "LineString", "coordinates": [[135.9687118, 35.5359608], [135.964676, 35.5330781]]}, "properties": {"power": "line", "voltage": null, "name": "manual_connection", "source": "manual", "supplement_source": "editor", "edit_id": "e_f04df36766"}}, {"type": "Feature", "geometry": {"type": "LineString", "coordinates": [[135.964676, 35.5330781], [135.9609221, 35.5304822]]}, "properties": {"power": "line", "voltage": null, "name": "manual_connection", "source": "manual", "supplement_source": "editor", "edit_id": "e_9dd644781a"}}, {"type": "Feature", "geometry": {"type": "LineString", "coordinates": [[135.9609221, 35.5304822], [135.9580759, 35.5281659]]}, "properties": {"power": "line", "voltage": null, "name": "manual_connection", "source": "manual", "supplement_source": "editor", "edit_id": "e_f1bab0613b"}}, {"type": "Feature", "geometry": {"type": "LineString", "coordinates": [[135.9580759, 35.5281659], [135.9562431, 35.5268535]]}, "properties": {"power": "line", "voltage": null, "name": "manual_connection", "source": "manual", "supplement_source": "editor", "edit_id": "e_936995221f"}}, {"type": "Feature", "geometry": {"type": "LineString", "coordinates": [[135.9562431, 35.5268535], [135.9547627, 35.5257706]]}, "properties": {"power": "line", "voltage": null, "name": "manual_connection", "source": "manual", "supplement_source": "editor", "edit_id": "e_50f5dd7c19"}}, {"type": "Feature", "geometry": {"type": "LineString", "coordinates": [[135.9547627, 35.5257706], [135.9515083, 35.5235986]]}, "properties": {"power": "line", "voltage": null, "name": "manual_connection", "source": "manual", "supplement_source": "editor", "edit_id": "e_6fa73f1bbd"}}, {"type": "Feature", "geometry": {"type": "LineString", "coordinates": [[135.9515083, 35.5235986], [135.9489536, 35.521915]]}, "properties": {"power": "line", "voltage": null, "name": "manual_connection", "source": "manual", "supplement_source": "editor", "edit_id": "e_88a9f4efb3"}}, {"type": "Feature", "geometry": {"type": "LineString", "coordinates": [[135.9489536, 35.521915], [135.9464716, 35.5171028]]}, "properties": {"power": "line", "voltage": null, "name": "manual_connection", "source": "manual", "supplement_source": "editor", "edit_id": "e_36ef5464c3"}}, {"type": "Feature", "geometry": {"type": "LineString", "coordinates": [[135.9464716, 35.5171028], [135.9461265, 35.5134672]]}, "properties": {"power": "line", "voltage": null, "name": "manual_connection", "source": "manual", "supplement_source": "editor", "edit_id": "e_ef8b18e062"}}, {"type": "Feature", "geometry": {"type": "LineString", "coordinates": [[135.9461265, 35.5134672], [135.9460028, 35.5118136]]}, "properties": {"power": "line", "voltage": null, "name": "manual_connection", "source": "manual", "supplement_source": "editor", "edit_id": "e_1c4cebcee6"}}, {"type": "Feature", "geometry": {"type": "LineString", "coordinates": [[135.9460028, 35.5118136], [135.9456317, 35.5072661]]}, "properties": {"power": "line", "voltage": null, "name": "manual_connection", "source": "manual", "supplement_source": "editor", "edit_id": "e_85c27b8d46"}}, {"type": "Feature", "geometry": {"type": "LineString", "coordinates": [[135.9456317, 35.5072661], [135.944948, 35.5034869]]}, "properties": {"power": "line", "voltage": null, "name": "manual_connection", "source": "manual", "supplement_source": "editor", "edit_id": "e_9497627832"}}, {"type": "Feature", "geometry": {"type": "LineString", "coordinates": [[135.944948, 35.5034869], [135.9440105, 35.4981332]]}, "properties": {"power": "line", "voltage": null, "name": "manual_connection", "source": "manual", "supplement_source": "editor", "edit_id": "e_d830b57f11"}}, {"type": "Feature", "geometry": {"type": "LineString", "coordinates": [[135.9440105, 35.4981332], [135.9424869, 35.4945657]]}, "properties": {"power": "line", "voltage": null, "name": "manual_connection", "source": "manual", "supplement_source": "editor", "edit_id": "e_ae09652caa"}}, {"type": "Feature", "geometry": {"type": "LineString", "coordinates": [[135.9424869, 35.4945657], [135.940195, 35.4891584]]}, "properties": {"power": "line", "voltage": null, "name": "manual_connection", "source": "manual", "supplement_source": "editor", "edit_id": "e_dbfc047a25"}}, {"type": "Feature", "geometry": {"type": "LineString", "coordinates": [[135.940195, 35.4891584], [135.9385086, 35.4853518]]}, "properties": {"power": "line", "voltage": null, "name": "manual_connection", "source": "manual", "supplement_source": "editor", "edit_id": "e_4e1216ad4c"}}, {"type": "Feature", "geometry": {"type": "LineString", "coordinates": [[135.9385086, 35.4853518], [135.9351294, 35.4805271]]}, "properties": {"power": "line", "voltage": null, "name": "manual_connection", "source": "manual", "supplement_source": "editor", "edit_id": "e_43ccdf81a4"}}, {"type": "Feature", "geometry": {"type": "LineString", "coordinates": [[135.9351294, 35.4805271], [135.9316004, 35.4755643]]}, "properties": {"power": "line", "voltage": null, "name": "manual_connection", "source": "manual", "supplement_source": "editor", "edit_id": "e_b564deac94"}}, {"type": "Feature", "geometry": {"type": "LineString", "coordinates": [[135.9316004, 35.4755643], [135.9290676, 35.4719427]]}, "properties": {"power": "line", "voltage": null, "name": "manual_connection", "source": "manual", "supplement_source": "editor", "edit_id": "e_33aa6d6739"}}, {"type": "Feature", "geometry": {"type": "LineString", "coordinates": [[135.9290676, 35.4719427], [135.9264827, 35.4684641]]}, "properties": {"power": "line", "voltage": null, "name": "manual_connection", "source": "manual", "supplement_source": "editor", "edit_id": "e_a3e2d7e5b3"}}, {"type": "Feature", "geometry": {"type": "LineString", "coordinates": [[135.9264827, 35.4684641], [135.9241453, 35.4626997]]}, "properties": {"power": "line", "voltage": null, "name": "manual_connection", "source": "manual", "supplement_source": "editor", "edit_id": "e_8f880c15bf"}}, {"type": "Feature", "geometry": {"type": "LineString", "coordinates": [[135.9241453, 35.4626997], [135.9231621, 35.459714]]}, "properties": {"power": "line", "voltage": null, "name": "manual_connection", "source": "manual", "supplement_source": "editor", "edit_id": "e_0e1b276e66"}}, {"type": "Feature", "geometry": {"type": "LineString", "coordinates": [[135.9231621, 35.459714], [135.9219185, 35.4554765]]}, "properties": {"power": "line", "voltage": null, "name": "manual_connection", "source": "manual", "supplement_source": "editor", "edit_id": "e_2ab50d423e"}}, {"type": "Feature", "geometry": {"type": "LineString", "coordinates": [[135.9219185, 35.4554765], [135.9220357, 35.4515251]]}, "properties": {"power": "line", "voltage": null, "name": "manual_connection", "source": "manual", "supplement_source": "editor", "edit_id": "e_a4339541ea"}}, {"type": "Feature", "geometry": {"type": "LineString", "coordinates": [[135.9220357, 35.4515251], [135.9223222, 35.4485467]]}, "properties": {"power": "line", "voltage": null, "name": "manual_connection", "source": "manual", "supplement_source": "editor", "edit_id": "e_de758d3616"}}, {"type": "Feature", "geometry": {"type": "LineString", "coordinates": [[135.9223222, 35.4485467], [135.9225826, 35.445709]]}, "properties": {"power": "line", "voltage": null, "name": "manual_connection", "source": "manual", "supplement_source": "editor", "edit_id": "e_f5981372c4"}}, {"type": "Feature", "geometry": {"type": "LineString", "coordinates": [[135.9225826, 35.445709], [135.922804, 35.4432212]]}, "properties": {"power": "line", "voltage": null, "name": "manual_connection", "source": "manual", "supplement_source": "editor", "edit_id": "e_3a78db254d"}}, {"type": "Feature", "geometry": {"type": "LineString", "coordinates": [[135.922804, 35.4432212], [135.9227649, 35.4412744]]}, "properties": {"power": "line", "voltage": null, "name": "manual_connection", "source": "manual", "supplement_source": "editor", "edit_id": "e_d7b3dbd297"}}, {"type": "Feature", "geometry": {"type": "LineString", "coordinates": [[135.9227649, 35.4412744], [135.9228561, 35.4366911]]}, "properties": {"power": "line", "voltage": null, "name": "manual_connection", "source": "manual", "supplement_source": "editor", "edit_id": "e_1fa81f41c5"}}, {"type": "Feature", "geometry": {"type": "LineString", "coordinates": [[135.9228561, 35.4366911], [135.9226087, 35.433211]]}, "properties": {"power": "line", "voltage": null, "name": "manual_connection", "source": "manual", "supplement_source": "editor", "edit_id": "e_24fe388973"}}, {"type": "Feature", "geometry": {"type": "LineString", "coordinates": [[135.9226087, 35.433211], [135.9222761, 35.4297493]]}, "properties": {"power": "line", "voltage": null, "name": "manual_connection", "source": "manual", "supplement_source": "editor", "edit_id": "e_02c3b13a81"}}, {"type": "Feature", "geometry": {"type": "LineString", "coordinates": [[135.9222761, 35.4297493], [135.9221222, 35.4281473]]}, "properties": {"power": "line", "voltage": null, "name": "manual_connection", "source": "manual", "supplement_source": "editor", "edit_id": "e_c0459bf311"}}, {"type": "Feature", "geometry": {"type": "LineString", "coordinates": [[135.9221222, 35.4281473], [135.9217185, 35.4238498]]}, "properties": {"power": "line", "voltage": null, "name": "manual_connection", "source": "manual", "supplement_source": "editor", "edit_id": "e_66a9b23224"}}, {"type": "Feature", "geometry": {"type": "LineString", "coordinates": [[135.9217185, 35.4238498], [135.9214776, 35.4215311]]}, "properties": {"power": "line", "voltage": null, "name": "manual_connection", "source": "manual", "supplement_source": "editor", "edit_id": "e_d61b69ad2e"}}, {"type": "Feature", "geometry": {"type": "LineString", "coordinates": [[135.9214776, 35.4215311], [135.9204488, 35.4179018]]}, "properties": {"power": "line", "voltage": null, "name": "manual_connection", "source": "manual", "supplement_source": "editor", "edit_id": "e_805234e15c"}}, {"type": "Feature", "geometry": {"type": "LineString", "coordinates": [[135.9204488, 35.4179018], [135.9197391, 35.4154185]]}, "properties": {"power": "line", "voltage": null, "name": "manual_connection", "source": "manual", "supplement_source": "editor", "edit_id": "e_6fb0818786"}}, {"type": "Feature", "geometry": {"type": "LineString", "coordinates": [[135.9197391, 35.4154185], [135.9186127, 35.411428]]}, "properties": {"power": "line", "voltage": null, "name": "manual_connection", "source": "manual", "supplement_source": "editor", "edit_id": "e_adce6fc36b"}}, {"type": "Feature", "geometry": {"type": "LineString", "coordinates": [[135.9186127, 35.411428], [135.9185216, 35.408902]]}, "properties": {"power": "line", "voltage": null, "name": "manual_connection", "source": "manual", "supplement_source": "editor", "edit_id": "e_4572f92198"}}, {"type": "Feature", "geometry": {"type": "LineString", "coordinates": [[135.9185216, 35.408902], [135.9183979, 35.4035633]]}, "properties": {"power": "line", "voltage": null, "name": "manual_connection", "source": "manual", "supplement_source": "editor", "edit_id": "e_54b9f1a993"}}, {"type": "Feature", "geometry": {"type": "LineString", "coordinates": [[135.9183979, 35.4035633], [135.9168873, 35.3998642]]}, "properties": {"power": "line", "voltage": null, "name": "manual_connection", "source": "manual", "supplement_source": "editor", "edit_id": "e_804f76f085"}}, {"type": "Feature", "geometry": {"type": "LineString", "coordinates": [[135.9168873, 35.3998642], [135.9137312, 35.3951936]]}, "properties": {"power": "line", "voltage": null, "name": "manual_connection", "source": "manual", "supplement_source": "editor", "edit_id": "e_98fcd97a35"}}, {"type": "Feature", "geometry": {"type": "LineString", "coordinates": [[135.9137312, 35.3951936], [135.9107213, 35.3904696]]}, "properties": {"power": "line", "voltage": null, "name": "manual_connection", "source": "manual", "supplement_source": "editor", "edit_id": "e_78ad2534f8"}}, {"type": "Feature", "geometry": {"type": "LineString", "coordinates": [[135.9107213, 35.3904696], [135.9088462, 35.3874599]]}, "properties": {"power": "line", "voltage": null, "name": "manual_connection", "source": "manual", "supplement_source": "editor", "edit_id": "e_ca2a46d3b8"}}, {"type": "Feature", "geometry": {"type": "LineString", "coordinates": [[135.9088462, 35.3874599], [135.9067952, 35.3832186]]}, "properties": {"power": "line", "voltage": null, "name": "manual_connection", "source": "manual", "supplement_source": "editor", "edit_id": "e_2b76d6aa7d"}}, {"type": "Feature", "geometry": {"type": "LineString", "coordinates": [[135.9067952, 35.3832186], [135.9050952, 35.3781301]]}, "properties": {"power": "line", "voltage": null, "name": "manual_connection", "source": "manual", "supplement_source": "editor", "edit_id": "e_a33f5774ce"}}, {"type": "Feature", "geometry": {"type": "LineString", "coordinates": [[135.9050952, 35.3781301], [135.9037865, 35.3743979]]}, "properties": {"power": "line", "voltage": null, "name": "manual_connection", "source": "manual", "supplement_source": "editor", "edit_id": "e_3dce600273"}}, {"type": "Feature", "geometry": {"type": "LineString", "coordinates": [[135.9037865, 35.3743979], [135.902013, 35.3693617]]}, "properties": {"power": "line", "voltage": null, "name": "manual_connection", "source": "manual", "supplement_source": "editor", "edit_id": "e_cf9b5a9ef1"}}, {"type": "Feature", "geometry": {"type": "LineString", "coordinates": [[135.902013, 35.3693617], [135.8994665, 35.3644754]]}, "properties": {"power": "line", "voltage": null, "name": "manual_connection", "source": "manual", "supplement_source": "editor", "edit_id": "e_48e058eaf6"}}, {"type": "Feature", "geometry": {"type": "LineString", "coordinates": [[135.8994665, 35.3644754], [135.8983757, 35.3624073]]}, "properties": {"power": "line", "voltage": null, "name": "manual_connection", "source": "manual", "supplement_source": "editor", "edit_id": "e_ba458c18f4"}}, {"type": "Feature", "geometry": {"type": "LineString", "coordinates": [[135.8983757, 35.3624073], [135.8964668, 35.3585377]]}, "properties": {"power": "line", "voltage": null, "name": "manual_connection", "source": "manual", "supplement_source": "editor", "edit_id": "e_1827c5d3dd"}}, {"type": "Feature", "geometry": {"type": "LineString", "coordinates": [[135.8964668, 35.3585377], [135.8946534, 35.3548569]]}, "properties": {"power": "line", "voltage": null, "name": "manual_connection", "source": "manual", "supplement_source": "editor", "edit_id": "e_380910ceb8"}}, {"type": "Feature", "geometry": {"type": "LineString", "coordinates": [[135.8946534, 35.3548569], [135.8925672, 35.3520657]]}, "properties": {"power": "line", "voltage": null, "name": "manual_connection", "source": "manual", "supplement_source": "editor", "edit_id": "e_e6457b234d"}}, {"type": "Feature", "geometry": {"type": "LineString", "coordinates": [[135.8925672, 35.3520657], [135.8904811, 35.349152]]}, "properties": {"power": "line", "voltage": null, "name": "manual_connection", "source": "manual", "supplement_source": "editor", "edit_id": "e_5e3c0a90aa"}}, {"type": "Feature", "geometry": {"type": "LineString", "coordinates": [[135.8904811, 35.349152], [135.888095, 35.3469722]]}, "properties": {"power": "line", "voltage": null, "name": "manual_connection", "source": "manual", "supplement_source": "editor", "edit_id": "e_5075ae4d3c"}}, {"type": "Feature", "geometry": {"type": "LineString", "coordinates": [[135.888095, 35.3469722], [135.8822729, 35.3434133]]}, "properties": {"power": "line", "voltage": null, "name": "manual_connection", "source": "manual", "supplement_source": "editor", "edit_id": "e_2f968596b0"}}, {"type": "Feature", "geometry": {"type": "LineString", "coordinates": [[135.8822729, 35.3434133], [135.8772826, 35.3392869]]}, "properties": {"power": "line", "voltage": null, "name": "manual_connection", "source": "manual", "supplement_source": "editor", "edit_id": "e_bddfd36fff"}}, {"type": "Feature", "geometry": {"type": "LineString", "coordinates": [[135.8772826, 35.3392869], [135.8761577, 35.3354273]]}, "properties": {"power": "line", "voltage": null, "name": "manual_connection", "source": "manual", "supplement_source": "editor", "edit_id": "e_2bc98b05c5"}}, {"type": "Feature", "geometry": {"type": "LineString", "coordinates": [[135.8761577, 35.3354273], [135.8749101, 35.331206]]}, "properties": {"power": "line", "voltage": null, "name": "manual_connection", "source": "manual", "supplement_source": "editor", "edit_id": "e_313e786d78"}}, {"type": "Feature", "geometry": {"type": "LineString", "coordinates": [[135.8749101, 35.331206], [135.8731649, 35.3257887]]}, "properties": {"power": "line", "voltage": null, "name": "manual_connection", "source": "manual", "supplement_source": "editor", "edit_id": "e_5ad8978b9e"}}, {"type": "Feature", "geometry": {"type": "LineString", "coordinates": [[135.8731649, 35.3257887], [135.8709151, 35.3228518]]}, "properties": {"power": "line", "voltage": null, "name": "manual_connection", "source": "manual", "supplement_source": "editor", "edit_id": "e_297dea71d3"}}, {"type": "Feature", "geometry": {"type": "LineString", "coordinates": [[135.8709151, 35.3228518], [135.8675064, 35.3201929]]}, "properties": {"power": "line", "voltage": null, "name": "manual_connection", "source": "manual", "supplement_source": "editor", "edit_id": "e_d54866b05a"}}, {"type": "Feature", "geometry": {"type": "LineString", "coordinates": [[135.8675064, 35.3201929], [135.8616775, 35.3159208]]}, "properties": {"power": "line", "voltage": null, "name": "manual_connection", "source": "manual", "supplement_source": "editor", "edit_id": "e_dbf77c5648"}}, {"type": "Feature", "geometry": {"type": "LineString", "coordinates": [[135.8616775, 35.3159208], [135.8582279, 35.3133062]]}, "properties": {"power": "line", "voltage": null, "name": "manual_connection", "source": "manual", "supplement_source": "editor", "edit_id": "e_cdbcc30ce4"}}, {"type": "Feature", "geometry": {"type": "LineString", "coordinates": [[135.8582279, 35.3133062], [135.8539193, 35.3120044]]}, "properties": {"power": "line", "voltage": null, "name": "manual_connection", "source": "manual", "supplement_source": "editor", "edit_id": "e_95d8827918"}}, {"type": "Feature", "geometry": {"type": "LineString", "coordinates": [[135.8539193, 35.3120044], [135.8515128, 35.3108083]]}, "properties": {"power": "line", "voltage": null, "name": "manual_connection", "source": "manual", "supplement_source": "editor", "edit_id": "e_06f9eab8f5"}}, {"type": "Feature", "geometry": {"type": "LineString", "coordinates": [[135.8515128, 35.3108083], [135.8468019, 35.3085886]]}, "properties": {"power": "line", "voltage": null, "name": "manual_connection", "source": "manual", "supplement_source": "editor", "edit_id": "e_4b9394413c"}}, {"type": "Feature", "geometry": {"type": "LineString", "coordinates": [[135.8468019, 35.3085886], [135.8436318, 35.3060517]]}, "properties": {"power": "line", "voltage": null, "name": "manual_connection", "source": "manual", "supplement_source": "editor", "edit_id": "e_551c086cc9"}}, {"type": "Feature", "geometry": {"type": "LineString", "coordinates": [[135.8436318, 35.3060517], [135.8407072, 35.3034924]]}, "properties": {"power": "line", "voltage": null, "name": "manual_connection", "source": "manual", "supplement_source": "editor", "edit_id": "e_2904303c45"}}, {"type": "Feature", "geometry": {"type": "LineString", "coordinates": [[135.8407072, 35.3034924], [135.8377075, 35.3019679]]}, "properties": {"power": "line", "voltage": null, "name": "manual_connection", "source": "manual", "supplement_source": "editor", "edit_id": "e_8766b393d5"}}, {"type": "Feature", "geometry": {"type": "LineString", "coordinates": [[135.8377075, 35.3019679], [135.8335693, 35.2978172]]}, "properties": {"power": "line", "voltage": null, "name": "manual_connection", "source": "manual", "supplement_source": "editor", "edit_id": "e_ccaf397e97"}}, {"type": "Feature", "geometry": {"type": "LineString", "coordinates": [[135.8335693, 35.2978172], [135.8312651, 35.2951019]]}, "properties": {"power": "line", "voltage": null, "name": "manual_connection", "source": "manual", "supplement_source": "editor", "edit_id": "e_dcce5555c6"}}, {"type": "Feature", "geometry": {"type": "LineString", "coordinates": [[135.8312651, 35.2951019], [135.8295539, 35.2930152]]}, "properties": {"power": "line", "voltage": null, "name": "manual_connection", "source": "manual", "supplement_source": "editor", "edit_id": "e_2c21cce8e3"}}, {"type": "Feature", "geometry": {"type": "LineString", "coordinates": [[135.8295539, 35.2930152], [135.8270519, 35.290105]]}, "properties": {"power": "line", "voltage": null, "name": "manual_connection", "source": "manual", "supplement_source": "editor", "edit_id": "e_ec2ab15c73"}}, {"type": "Feature", "geometry": {"type": "LineString", "coordinates": [[135.8270519, 35.290105], [135.8238204, 35.2862152]]}, "properties": {"power": "line", "voltage": null, "name": "manual_connection", "source": "manual", "supplement_source": "editor", "edit_id": "e_4c0619e468"}}, {"type": "Feature", "geometry": {"type": "LineString", "coordinates": [[135.8238204, 35.2862152], [135.8196141, 35.2812456]]}, "properties": {"power": "line", "voltage": null, "name": "manual_connection", "source": "manual", "supplement_source": "editor", "edit_id": "e_d4fbbac29c"}}, {"type": "Feature", "geometry": {"type": "LineString", "coordinates": [[135.8196141, 35.2812456], [135.8173439, 35.279103]]}, "properties": {"power": "line", "voltage": null, "name": "manual_connection", "source": "manual", "supplement_source": "editor", "edit_id": "e_44dd8ffdfa"}}, {"type": "Feature", "geometry": {"type": "LineString", "coordinates": [[135.8173439, 35.279103], [135.8144397, 35.2763982]]}, "properties": {"power": "line", "voltage": null, "name": "manual_connection", "source": "manual", "supplement_source": "editor", "edit_id": "e_fe9f83bdf0"}}, {"type": "Feature", "geometry": {"type": "LineString", "coordinates": [[135.8144397, 35.2763982], [135.810097, 35.2733649]]}, "properties": {"power": "line", "voltage": null, "name": "manual_connection", "source": "manual", "supplement_source": "editor", "edit_id": "e_6877b6b58f"}}, {"type": "Feature", "geometry": {"type": "LineString", "coordinates": [[135.810097, 35.2733649], [135.8073973, 35.2709215]]}, "properties": {"power": "line", "voltage": null, "name": "manual_connection", "source": "manual", "supplement_source": "editor", "edit_id": "e_de9c8af0c3"}}, {"type": "Feature", "geometry": {"type": "LineString", "coordinates": [[135.8073973, 35.2709215], [135.8046021, 35.268478]]}, "properties": {"power": "line", "voltage": null, "name": "manual_connection", "source": "manual", "supplement_source": "editor", "edit_id": "e_7758fddbec"}}, {"type": "Feature", "geometry": {"type": "LineString", "coordinates": [[135.8046021, 35.268478], [135.8014048, 35.2657505]]}, "properties": {"power": "line", "voltage": null, "name": "manual_connection", "source": "manual", "supplement_source": "editor", "edit_id": "e_6e36c3069c"}}, {"type": "Feature", "geometry": {"type": "LineString", "coordinates": [[135.8014048, 35.2657505], [135.7991687, 35.2626556]]}, "properties": {"power": "line", "voltage": null, "name": "manual_connection", "source": "manual", "supplement_source": "editor", "edit_id": "e_3d3c78a547"}}, {"type": "Feature", "geometry": {"type": "LineString", "coordinates": [[135.7991687, 35.2626556], [135.7974916, 35.260223]]}, "properties": {"power": "line", "voltage": null, "name": "manual_connection", "source": "manual", "supplement_source": "editor", "edit_id": "e_548952cbe0"}}, {"type": "Feature", "geometry": {"type": "LineString", "coordinates": [[135.7974916, 35.260223], [135.7956918, 35.2555858]]}, "properties": {"power": "line", "voltage": null, "name": "manual_connection", "source": "manual", "supplement_source": "editor", "edit_id": "e_8900b3b783"}}, {"type": "Feature", "geometry": {"type": "LineString", "coordinates": [[135.7956918, 35.2555858], [135.794976, 35.2537487]]}, "properties": {"power": "line", "voltage": null, "name": "manual_connection", "source": "manual", "supplement_source": "editor", "edit_id": "e_96df50e49b"}}, {"type": "Feature", "geometry": {"type": "LineString", "coordinates": [[135.794976, 35.2537487], [135.793742, 35.2501355]]}, "properties": {"power": "line", "voltage": null, "name": "manual_connection", "source": "manual", "supplement_source": "editor", "edit_id": "e_b99d6c82cf"}}, {"type": "Feature", "geometry": {"type": "LineString", "coordinates": [[135.793742, 35.2501355], [135.7915945, 35.2452987]]}, "properties": {"power": "line", "voltage": null, "name": "manual_connection", "source": "manual", "supplement_source": "editor", "edit_id": "e_de00649ff6"}}, {"type": "Feature", "geometry": {"type": "LineString", "coordinates": [[135.7915945, 35.2452987], [135.7905611, 35.2429664]]}, "properties": {"power": "line", "voltage": null, "name": "manual_connection", "source": "manual", "supplement_source": "editor", "edit_id": "e_13fb8f416b"}}, {"type": "Feature", "geometry": {"type": "LineString", "coordinates": [[135.7905611, 35.2429664], [135.7888335, 35.2390668]]}, "properties": {"power": "line", "voltage": null, "name": "manual_connection", "source": "manual", "supplement_source": "editor", "edit_id": "e_62310306f7"}}, {"type": "Feature", "geometry": {"type": "LineString", "coordinates": [[135.7888335, 35.2390668], [135.7864815, 35.2374799]]}, "properties": {"power": "line", "voltage": null, "name": "manual_connection", "source": "manual", "supplement_source": "editor", "edit_id": "e_ac483c70a3"}}, {"type": "Feature", "geometry": {"type": "LineString", "coordinates": [[135.7864815, 35.2374799], [135.7814298, 35.2343616]]}, "properties": {"power": "line", "voltage": null, "name": "manual_connection", "source": "manual", "supplement_source": "editor", "edit_id": "e_859bb900dd"}}, {"type": "Feature", "geometry": {"type": "LineString", "coordinates": [[135.7814298, 35.2343616], [135.7778779, 35.2321398]]}, "properties": {"power": "line", "voltage": null, "name": "manual_connection", "source": "manual", "supplement_source": "editor", "edit_id": "e_24c7a368ec"}}, {"type": "Feature", "geometry": {"type": "LineString", "coordinates": [[135.7778779, 35.2321398], [135.7761531, 35.2297397]]}, "properties": {"power": "line", "voltage": null, "name": "manual_connection", "source": "manual", "supplement_source": "editor", "edit_id": "e_3f7bc4321f"}}, {"type": "Feature", "geometry": {"type": "LineString", "coordinates": [[135.7761531, 35.2297397], [135.7733307, 35.2247833]]}, "properties": {"power": "line", "voltage": null, "name": "manual_connection", "source": "manual", "supplement_source": "editor", "edit_id": "e_fb9391f512"}}, {"type": "Feature", "geometry": {"type": "LineString", "coordinates": [[135.7733307, 35.2247833], [135.7723626, 35.2230012]]}, "properties": {"power": "line", "voltage": null, "name": "manual_connection", "source": "manual", "supplement_source": "editor", "edit_id": "e_53eb51151f"}}, {"type": "Feature", "geometry": {"type": "LineString", "coordinates": [[135.7723626, 35.2230012], [135.7706446, 35.2197543]]}, "properties": {"power": "line", "voltage": null, "name": "manual_connection", "source": "manual", "supplement_source": "editor", "edit_id": "e_a8c1203a92"}}, {"type": "Feature", "geometry": {"type": "LineString", "coordinates": [[135.7706446, 35.2197543], [135.7662337, 35.216368]]}, "properties": {"power": "line", "voltage": null, "name": "manual_connection", "source": "manual", "supplement_source": "editor", "edit_id": "e_bdf86633db"}}, {"type": "Feature", "geometry": {"type": "LineString", "coordinates": [[135.7662337, 35.216368], [135.7634591, 35.2135664]]}, "properties": {"power": "line", "voltage": null, "name": "manual_connection", "source": "manual", "supplement_source": "editor", "edit_id": "e_ee73128f4d"}}, {"type": "Feature", "geometry": {"type": "LineString", "coordinates": [[135.7634591, 35.2135664], [135.7604185, 35.2082135]]}, "properties": {"power": "line", "voltage": null, "name": "manual_connection", "source": "manual", "supplement_source": "editor", "edit_id": "e_b8e4940938"}}, {"type": "Feature", "geometry": {"type": "LineString", "coordinates": [[135.7604185, 35.2082135], [135.7574052, 35.205523]]}, "properties": {"power": "line", "voltage": null, "name": "manual_connection", "source": "manual", "supplement_source": "editor", "edit_id": "e_854e859f37"}}, {"type": "Feature", "geometry": {"type": "LineString", "coordinates": [[135.7574052, 35.205523], [135.7545214, 35.2016849]]}, "properties": {"power": "line", "voltage": null, "name": "manual_connection", "source": "manual", "supplement_source": "editor", "edit_id": "e_4869e0f8bb"}}, {"type": "Feature", "geometry": {"type": "LineString", "coordinates": [[135.7545214, 35.2016849], [135.7519581, 35.1982979]]}, "properties": {"power": "line", "voltage": null, "name": "manual_connection", "source": "manual", "supplement_source": "editor", "edit_id": "e_4b1918f7f9"}}, {"type": "Feature", "geometry": {"type": "LineString", "coordinates": [[135.7519581, 35.1982979], [135.7475131, 35.1951391]]}, "properties": {"power": "line", "voltage": null, "name": "manual_connection", "source": "manual", "supplement_source": "editor", "edit_id": "e_e8244f4213"}}, {"type": "Feature", "geometry": {"type": "LineString", "coordinates": [[135.7475131, 35.1951391], [135.7444521, 35.1928326]]}, "properties": {"power": "line", "voltage": null, "name": "manual_connection", "source": "manual", "supplement_source": "editor", "edit_id": "e_1614123a15"}}, {"type": "Feature", "geometry": {"type": "LineString", "coordinates": [[135.7444521, 35.1928326], [135.7419024, 35.1896792]]}, "properties": {"power": "line", "voltage": null, "name": "manual_connection", "source": "manual", "supplement_source": "editor", "edit_id": "e_d6e609a66d"}}, {"type": "Feature", "geometry": {"type": "LineString", "coordinates": [[135.7419024, 35.1896792], [135.7394277, 35.1863473]]}, "properties": {"power": "line", "voltage": null, "name": "manual_connection", "source": "manual", "supplement_source": "editor", "edit_id": "e_db47b6ff35"}}, {"type": "Feature", "geometry": {"type": "LineString", "coordinates": [[135.7394277, 35.1863473], [135.7382823, 35.1847928]]}, "properties": {"power": "line", "voltage": null, "name": "manual_connection", "source": "manual", "supplement_source": "editor", "edit_id": "e_69ec71f6bd"}}, {"type": "Feature", "geometry": {"type": "LineString", "coordinates": [[135.7382823, 35.1847928], [135.7356304, 35.1810596]]}, "properties": {"power": "line", "voltage": null, "name": "manual_connection", "source": "manual", "supplement_source": "editor", "edit_id": "e_554f798ed6"}}, {"type": "Feature", "geometry": {"type": "LineString", "coordinates": [[135.7356304, 35.1810596], [135.7322762, 35.1792765]]}, "properties": {"power": "line", "voltage": null, "name": "manual_connection", "source": "manual", "supplement_source": "editor", "edit_id": "e_53b8d704cf"}}, {"type": "Feature", "geometry": {"type": "LineString", "coordinates": [[135.7322762, 35.1792765], [135.7294061, 35.1777608]]}, "properties": {"power": "line", "voltage": null, "name": "manual_connection", "source": "manual", "supplement_source": "editor", "edit_id": "e_e82999f49a"}}, {"type": "Feature", "geometry": {"type": "LineString", "coordinates": [[135.7294061, 35.1777608], [135.7266041, 35.1754093]]}, "properties": {"power": "line", "voltage": null, "name": "manual_connection", "source": "manual", "supplement_source": "editor", "edit_id": "e_74a8ad834b"}}, {"type": "Feature", "geometry": {"type": "LineString", "coordinates": [[135.7266041, 35.1754093], [135.7233386, 35.1727177]]}, "properties": {"power": "line", "voltage": null, "name": "manual_connection", "source": "manual", "supplement_source": "editor", "edit_id": "e_651385f2e1"}}, {"type": "Feature", "geometry": {"type": "LineString", "coordinates": [[135.7233386, 35.1727177], [135.720148, 35.1701319]]}, "properties": {"power": "line", "voltage": null, "name": "manual_connection", "source": "manual", "supplement_source": "editor", "edit_id": "e_e84c402742"}}, {"type": "Feature", "geometry": {"type": "LineString", "coordinates": [[135.720148, 35.1701319], [135.7170393, 35.1685994]]}, "properties": {"power": "line", "voltage": null, "name": "manual_connection", "source": "manual", "supplement_source": "editor", "edit_id": "e_5ed8796894"}}, {"type": "Feature", "geometry": {"type": "LineString", "coordinates": [[135.7170393, 35.1685994], [135.7131056, 35.1667213]]}, "properties": {"power": "line", "voltage": null, "name": "manual_connection", "source": "manual", "supplement_source": "editor", "edit_id": "e_aeb864087b"}}, {"type": "Feature", "geometry": {"type": "LineString", "coordinates": [[135.7131056, 35.1667213], [135.7085175, 35.164492]]}, "properties": {"power": "line", "voltage": null, "name": "manual_connection", "source": "manual", "supplement_source": "editor", "edit_id": "e_9f23de6eae"}}, {"type": "Feature", "geometry": {"type": "LineString", "coordinates": [[135.7085175, 35.164492], [135.7042566, 35.1624187]]}, "properties": {"power": "line", "voltage": null, "name": "manual_connection", "source": "manual", "supplement_source": "editor", "edit_id": "e_e629ac0370"}}, {"type": "Feature", "geometry": {"type": "LineString", "coordinates": [[135.7042566, 35.1624187], [135.7018501, 35.1607968]]}, "properties": {"power": "line", "voltage": null, "name": "manual_connection", "source": "manual", "supplement_source": "editor", "edit_id": "e_1c61c1bf5d"}}, {"type": "Feature", "geometry": {"type": "LineString", "coordinates": [[135.7018501, 35.1607968], [135.6987822, 35.1587012]]}, "properties": {"power": "line", "voltage": null, "name": "manual_connection", "source": "manual", "supplement_source": "editor", "edit_id": "e_f817188f07"}}, {"type": "Feature", "geometry": {"type": "LineString", "coordinates": [[135.6987822, 35.1587012], [135.6987822, 35.1587012]]}, "properties": {"power": "line", "voltage": null, "name": "manual_connection", "source": "manual", "supplement_source": "editor", "edit_id": "e_457ea0a798"}}, {"type": "Feature", "geometry": {"type": "LineString", "coordinates": [[135.6987822, 35.1587012], [135.6929124, 35.1565441]]}, "properties": {"power": "line", "voltage": null, "name": "manual_connection", "source": "manual", "supplement_source": "editor", "edit_id": "e_88b5892057"}}, {"type": "Feature", "geometry": {"type": "LineString", "coordinates": [[135.6929124, 35.1565441], [135.6878607, 35.1547048]]}, "properties": {"power": "line", "voltage": null, "name": "manual_connection", "source": "manual", "supplement_source": "editor", "edit_id": "e_9b7bf331fe"}}, {"type": "Feature", "geometry": {"type": "LineString", "coordinates": [[135.6878607, 35.1547048], [135.684118, 35.1533614]]}, "properties": {"power": "line", "voltage": null, "name": "manual_connection", "source": "manual", "supplement_source": "editor", "edit_id": "e_e179cee08e"}}, {"type": "Feature", "geometry": {"type": "LineString", "coordinates": [[135.684118, 35.1533614], [135.6815887, 35.1524306]]}, "properties": {"power": "line", "voltage": null, "name": "manual_connection", "source": "manual", "supplement_source": "editor", "edit_id": "e_d5cf8b1011"}}, {"type": "Feature", "geometry": {"type": "LineString", "coordinates": [[135.6815887, 35.1524306], [135.6783164, 35.1512879]]}, "properties": {"power": "line", "voltage": null, "name": "manual_connection", "source": "manual", "supplement_source": "editor", "edit_id": "e_cd71cb64d3"}}, {"type": "Feature", "geometry": {"type": "LineString", "coordinates": [[135.6783164, 35.1512879], [135.6729306, 35.1492867]]}, "properties": {"power": "line", "voltage": null, "name": "manual_connection", "source": "manual", "supplement_source": "editor", "edit_id": "e_9a1eff7ee7"}}, {"type": "Feature", "geometry": {"type": "LineString", "coordinates": [[135.6729306, 35.1492867], [135.6677971, 35.1473915]]}, "properties": {"power": "line", "voltage": null, "name": "manual_connection", "source": "manual", "supplement_source": "editor", "edit_id": "e_5916e20b7d"}}, {"type": "Feature", "geometry": {"type": "LineString", "coordinates": [[135.6677971, 35.1473915], [135.6640339, 35.1460146]]}, "properties": {"power": "line", "voltage": null, "name": "manual_connection", "source": "manual", "supplement_source": "editor", "edit_id": "e_0cf1d0940c"}}, {"type": "Feature", "geometry": {"type": "LineString", "coordinates": [[135.6640339, 35.1460146], [135.6612251, 35.1449443]]}, "properties": {"power": "line", "voltage": null, "name": "manual_connection", "source": "manual", "supplement_source": "editor", "edit_id": "e_09ce1409fa"}}, {"type": "Feature", "geometry": {"type": "LineString", "coordinates": [[135.6612251, 35.1449443], [135.6579391, 35.1436621]]}, "properties": {"power": "line", "voltage": null, "name": "manual_connection", "source": "manual", "supplement_source": "editor", "edit_id": "e_f7d8805e7f"}}, {"type": "Feature", "geometry": {"type": "LineString", "coordinates": [[135.6579391, 35.1436621], [135.6548917, 35.1424189]]}, "properties": {"power": "line", "voltage": null, "name": "manual_connection", "source": "manual", "supplement_source": "editor", "edit_id": "e_aa8161d8e2"}}, {"type": "Feature", "geometry": {"type": "LineString", "coordinates": [[135.6548917, 35.1424189], [135.6529692, 35.1417277]]}, "properties": {"power": "line", "voltage": null, "name": "manual_connection", "source": "manual", "supplement_source": "editor", "edit_id": "e_42c7b30d8c"}}, {"type": "Feature", "geometry": {"type": "LineString", "coordinates": [[135.6529692, 35.1417277], [135.6483266, 35.1398489]]}, "properties": {"power": "line", "voltage": null, "name": "manual_connection", "source": "manual", "supplement_source": "editor", "edit_id": "e_f72eb71b25"}}, {"type": "Feature", "geometry": {"type": "LineString", "coordinates": [[135.6483266, 35.1398489], [135.6460406, 35.1377977]]}, "properties": {"power": "line", "voltage": null, "name": "manual_connection", "source": "manual", "supplement_source": "editor", "edit_id": "e_32e0b8be67"}}, {"type": "Feature", "geometry": {"type": "LineString", "coordinates": [[135.6412053, 35.138504], [135.644679, 35.1393592]]}, "properties": {"power": "line", "voltage": null, "name": "manual_connection", "source": "manual", "supplement_source": "editor", "edit_id": "e_b280a42e34"}}, {"type": "Feature", "geometry": {"type": "LineString", "coordinates": [[135.644679, 35.1393592], [135.64545, 35.1381916]]}, "properties": {"power": "line", "voltage": null, "name": "manual_connection", "source": "manual", "supplement_source": "editor", "edit_id": "e_5ce5049aeb"}}, {"type": "Feature", "geometry": {"type": "LineString", "coordinates": [[135.6482255, 35.1376513], [135.6466821, 35.137146]]}, "properties": {"power": "line", "voltage": null, "name": "manual_connection", "source": "manual", "supplement_source": "editor", "edit_id": "e_1bee5c833d"}}, {"type": "Feature", "geometry": {"type": "LineString", "coordinates": [[135.6409764, 35.1370299], [135.6424844, 35.1367118]]}, "properties": {"power": "line", "voltage": null, "name": "manual_connection", "source": "manual", "supplement_source": "editor", "edit_id": "e_11db91bf3e"}}, {"type": "Feature", "geometry": {"type": "LineString", "coordinates": [[135.6423131, 35.1352479], [135.6434612, 35.1360842]]}, "properties": {"power": "line", "voltage": null, "name": "manual_connection", "source": "manual", "supplement_source": "editor", "edit_id": "e_d99ab12bf1"}}, {"type": "Feature", "geometry": {"type": "LineString", "coordinates": [[135.9764439, 35.5565973], [135.9756306, 35.5580827]]}, "properties": {"power": "line", "voltage": null, "name": "manual_connection", "source": "manual", "supplement_source": "editor", "edit_id": "e_c0dcae03c4"}}, {"type": "Feature", "geometry": {"type": "LineString", "coordinates": [[135.9756306, 35.5580827], [135.9749201, 35.5580828]]}, "properties": {"power": "line", "voltage": null, "name": "manual_connection", "source": "manual", "supplement_source": "editor", "edit_id": "e_d855a158d6"}}, {"type": "Feature", "geometry": {"type": "LineString", "coordinates": [[135.9732227, 35.5535169], [135.9758386, 35.5564342]]}, "properties": {"power": "line", "voltage": null, "name": "manual_connection", "source": "manual", "supplement_source": "editor", "edit_id": "e_920124193b"}}, {"type": "Feature", "geometry": {"type": "LineString", "coordinates": [[135.970725, 35.5534932], [135.9703247, 35.5545254]]}, "properties": {"power": "line", "voltage": null, "name": "manual_connection", "source": "manual", "supplement_source": "editor", "edit_id": "e_9531197557"}}, {"type": "Feature", "geometry": {"type": "LineString", "coordinates": [[135.9692828, 35.5537373], [135.9690684, 35.556622]]}, "properties": {"power": "line", "voltage": null, "name": "manual_connection", "source": "manual", "supplement_source": "editor", "edit_id": "e_02c2706f37"}}, {"type": "Feature", "geometry": {"type": "LineString", "coordinates": [[135.9690684, 35.556622], [135.9708305, 35.5576999]]}, "properties": {"power": "line", "voltage": null, "name": "manual_connection", "source": "manual", "supplement_source": "editor", "edit_id": "e_18b55772d1"}}, {"type": "Feature", "geometry": {"type": "LineString", "coordinates": [[135.9677239, 35.5595295], [135.9712214, 35.5586165]]}, "properties": {"power": "line", "voltage": null, "name": "manual_connection", "source": "manual", "supplement_source": "editor", "edit_id": "e_031ff71c09"}}, {"type": "Feature", "geometry": {"type": "LineString", "coordinates": [[135.9712214, 35.5586165], [135.9722081, 35.5586319]]}, "properties": {"power": "line", "voltage": null, "name": "manual_connection", "source": "manual", "supplement_source": "editor", "edit_id": "e_899e25c865"}}, {"type": "Feature", "geometry": {"type": "LineString", "coordinates": [[135.9722418, 35.5589556], [135.9734314, 35.5586124]]}, "properties": {"power": "line", "voltage": null, "name": "manual_connection", "source": "manual", "supplement_source": "editor", "edit_id": "e_00dc5a12e7"}}, {"type": "Feature", "geometry": {"type": "LineString", "coordinates": [[135.1894632, 35.0627283], [135.1894914, 35.0605208]]}, "properties": {"power": "line", "voltage": null, "name": "manual_connection", "source": "manual", "supplement_source": "editor", "edit_id": "e_f0374bfa0b"}}, {"type": "Feature", "geometry": {"type": "LineString", "coordinates": [[135.18942, 35.06016], [135.1894511, 35.0600334]]}, "properties": {"power": "line", "voltage": 77.0, "name": "manual_connection", "source": "manual", "supplement_source": "editor", "edit_id": "e_72f46591a5"}}, {"type": "Feature", "geometry": {"type": "LineString", "coordinates": [[135.1894511, 35.0600334], [135.1894364, 35.057301]]}, "properties": {"power": "line", "voltage": null, "name": "manual_connection", "source": "manual", "supplement_source": "editor", "edit_id": "e_4c87c75f60"}}]}