{"type":"FeatureCollection","_source":"converted_from_jrp_plants_lite","_converted_at":"2026-04-22T20:56:12.298369","features":[{"type":"Feature","properties":{"name":"金武火力発電所","name:ja":"","name:en":"","fuel_type":"coal","plant:source":"coal","capacity_mw":-1.0,"voltage":"","osm_id":null,"osm_type":null,"_category":"unknown","_display_name":"金武火力発電所","_enriched_by":"p03","_fuel_color":"#444444","_p03_distance_km":0.365,"_region":"okinawa","_region_ja":"沖縄","operator":"沖縄電力"},"geometry":{"type":"Point","coordinates":[127.92112,26.44293]}},{"type":"Feature","properties":{"name":"大宜味風力発電実証研究設備","name:ja":"","name:en":"","operator":"","fuel_type":"wind","plant:source":"wind","capacity_mw":-1.0,"voltage":"","osm_id":null,"osm_type":null,"_category":"unknown","_display_name":"大宜味風力発電実証研究設備","_enriched_by":"jrp_lite","_fuel_color":"#00cc88","_p03_distance_km":null,"_region":"okinawa","_region_ja":"沖縄"},"geometry":{"type":"Point","coordinates":[128.14515,26.67728]}},{"type":"Feature","properties":{"name":"沖縄電力","name:ja":"","name:en":"","operator":"","fuel_type":"unknown","plant:source":"","capacity_mw":-1.0,"voltage":"","osm_id":null,"osm_type":null,"_category":"unknown","_display_name":"沖縄電力","_enriched_by":"jrp_lite","_fuel_color":"#999999","_p03_distance_km":null,"_region":"okinawa","_region_ja":"沖縄"},"geometry":{"type":"Point","coordinates":[126.77243,26.33282]}},{"type":"Feature","properties":{"name":"石垣市発電所","name:ja":"","name:en":"","operator":"","fuel_type":"solar","plant:source":"solar","capacity_mw":-1.0,"voltage":"","osm_id":null,"osm_type":null,"_category":"unknown","_display_name":"石垣市発電所","_enriched_by":"jrp_lite","_fuel_color":"#ffdd00","_p03_distance_km":null,"_region":"okinawa","_region_ja":"沖縄"},"geometry":{"type":"Point","coordinates":[124.2006,24.36088]}},{"type":"Feature","properties":{"name":"三原名護市発電所","name:ja":"","name:en":"","operator":"","fuel_type":"solar","plant:source":"solar","capacity_mw":-1.0,"voltage":"","osm_id":null,"osm_type":null,"_category":"unknown","_display_name":"三原名護市発電所","_enriched_by":"jrp_lite","_fuel_color":"#ffdd00","_p03_distance_km":null,"_region":"okinawa","_region_ja":"沖縄"},"geometry":{"type":"Point","coordinates":[128.08746,26.55393]}},{"type":"Feature","properties":{"name":"石川火力発電所","name:ja":"","name:en":"","fuel_type":"oil","plant:source":"oil","capacity_mw":-1.0,"voltage":"","osm_id":null,"osm_type":null,"_category":"unknown","_display_name":"石川火力発電所","_enriched_by":"p03","_fuel_color":"#884400","_p03_distance_km":0.066,"_region":"okinawa","_region_ja":"沖縄","operator":"沖縄電力"},"geometry":{"type":"Point","coordinates":[127.84056,26.42877]}},{"type":"Feature","properties":{"name":"Gushikawa Power Plant","name:ja":"","name:en":"","fuel_type":"coal","plant:source":"coal","capacity_mw":-1.0,"voltage":"","osm_id":null,"osm_type":null,"_category":"unknown","_display_name":"Gushikawa Power Plant","_enriched_by":"p03","_fuel_color":"#444444","_p03_distance_km":0.109,"_region":"okinawa","_region_ja":"沖縄","operator":"沖縄電力"},"geometry":{"type":"Point","coordinates":[127.8761,26.37956]}},{"type":"Feature","properties":{"name":"与那城平宮うるま市発電所","name:ja":"","name:en":"","operator":"","fuel_type":"solar","plant:source":"solar","capacity_mw":-1.0,"voltage":"","osm_id":null,"osm_type":null,"_category":"unknown","_display_name":"与那城平宮うるま市発電所","_enriched_by":"jrp_lite","_fuel_color":"#ffdd00","_p03_distance_km":null,"_region":"okinawa","_region_ja":"沖縄"},"geometry":{"type":"Point","coordinates":[127.96731,26.34616]}},{"type":"Feature","properties":{"name":"吉の浦火力発電所","name:ja":"","name:en":"","fuel_type":"gas","plant:source":"gas","capacity_mw":-1.0,"voltage":"","osm_id":null,"osm_type":null,"_category":"unknown","_display_name":"吉の浦火力発電所","_enriched_by":"p03","_fuel_color":"#ff8800","_p03_distance_km":0.044,"_region":"okinawa","_region_ja":"沖縄","operator":"沖縄電力"},"geometry":{"type":"Point","coordinates":[127.81289,26.27642]}},{"type":"Feature","properties":{"name":"与那国太陽光発電実証研究設備","name:ja":"","name:en":"","fuel_type":"solar","plant:source":"solar","capacity_mw":-1.0,"voltage":"","osm_id":null,"osm_type":null,"_category":"unknown","_display_name":"与那国太陽光発電実証研究設備","_enriched_by":"p03","_fuel_color":"#ffdd00","_p03_distance_km":0.28,"_region":"okinawa","_region_ja":"沖縄","operator":"沖縄電力"},"geometry":{"type":"Point","coordinates":[123.01163,24.47104]}},{"type":"Feature","properties":{"name":"牧港火力発電所","name:ja":"","name:en":"","fuel_type":"oil","plant:source":"oil","capacity_mw":-1.0,"voltage":"","osm_id":null,"osm_type":null,"_category":"unknown","_display_name":"牧港火力発電所","_enriched_by":"p03","_fuel_color":"#884400","_p03_distance_km":0.143,"_region":"okinawa","_region_ja":"沖縄","operator":"沖縄電力"},"geometry":{"type":"Point","coordinates":[127.71973,26.27125]}},{"type":"Feature","properties":{"name":"本部町発電所","name:ja":"","name:en":"","operator":"","fuel_type":"solar","plant:source":"solar","capacity_mw":-1.0,"voltage":"","osm_id":null,"osm_type":null,"_category":"unknown","_display_name":"本部町発電所","_enriched_by":"jrp_lite","_fuel_color":"#ffdd00","_p03_distance_km":null,"_region":"okinawa","_region_ja":"沖縄"},"geometry":{"type":"Point","coordinates":[127.87233,26.64922]}},{"type":"Feature","properties":{"name":"本部町発電所","name:ja":"","name:en":"","operator":"","fuel_type":"solar","plant:source":"solar","capacity_mw":-1.0,"voltage":"","osm_id":null,"osm_type":null,"_category":"unknown","_display_name":"本部町発電所","_enriched_by":"jrp_lite","_fuel_color":"#ffdd00","_p03_distance_km":null,"_region":"okinawa","_region_ja":"沖縄"},"geometry":{"type":"Point","coordinates":[127.86266,26.63453]}},{"type":"Feature","properties":{"name":"本部町発電所","name:ja":"","name:en":"","operator":"","fuel_type":"solar","plant:source":"solar","capacity_mw":-1.0,"voltage":"","osm_id":null,"osm_type":null,"_category":"unknown","_display_name":"本部町発電所","_enriched_by":"jrp_lite","_fuel_color":"#ffdd00","_p03_distance_km":null,"_region":"okinawa","_region_ja":"沖縄"},"geometry":{"type":"Point","coordinates":[127.86118,26.63824]}},{"type":"Feature","properties":{"name":"本部町発電所","name:ja":"","name:en":"","operator":"","fuel_type":"solar","plant:source":"solar","capacity_mw":-1.0,"voltage":"","osm_id":null,"osm_type":null,"_category":"unknown","_display_name":"本部町発電所","_enriched_by":"jrp_lite","_fuel_color":"#ffdd00","_p03_distance_km":null,"_region":"okinawa","_region_ja":"沖縄"},"geometry":{"type":"Point","coordinates":[127.86427,26.63766]}},{"type":"Feature","properties":{"name":"備瀬本部町発電所","name:ja":"","name:en":"","operator":"","fuel_type":"solar","plant:source":"solar","capacity_mw":-1.0,"voltage":"","osm_id":null,"osm_type":null,"_category":"unknown","_display_name":"備瀬本部町発電所","_enriched_by":"jrp_lite","_fuel_color":"#ffdd00","_p03_distance_km":null,"_region":"okinawa","_region_ja":"沖縄"},"geometry":{"type":"Point","coordinates":[127.88282,26.68168]}},{"type":"Feature","properties":{"name":"Ishikawa J-Power Coal Power Plant","name:ja":"","name:en":"","fuel_type":"coal","plant:source":"coal","capacity_mw":-1.0,"voltage":"","osm_id":null,"osm_type":null,"_category":"unknown","_display_name":"Ishikawa J-Power Coal Power Plant","_enriched_by":"p03","_fuel_color":"#444444","_p03_distance_km":0.078,"_region":"okinawa","_region_ja":"沖縄","operator":"電源開発株式会社"},"geometry":{"type":"Point","coordinates":[127.84128,26.43169]}},{"type":"Feature","properties":{"name":"つきしろ南城市発電所","name:ja":"","name:en":"","fuel_type":"solar","plant:source":"solar","capacity_mw":-1.0,"voltage":"","osm_id":null,"osm_type":null,"_category":"unknown","_display_name":"つきしろ南城市発電所","_enriched_by":"p03","_fuel_color":"#ffdd00","_p03_distance_km":1.683,"_region":"okinawa","_region_ja":"沖縄","operator":"沖縄新エネ開発株式会社"},"geometry":{"type":"Point","coordinates":[127.79062,26.16148]}},{"type":"Feature","properties":{"name":"山川本部町発電所","name:ja":"","name:en":"","operator":"","fuel_type":"solar","plant:source":"solar","capacity_mw":-1.0,"voltage":"","osm_id":null,"osm_type":null,"_category":"unknown","_display_name":"山川本部町発電所","_enriched_by":"jrp_lite","_fuel_color":"#ffdd00","_p03_distance_km":null,"_region":"okinawa","_region_ja":"沖縄"},"geometry":{"type":"Point","coordinates":[127.88609,26.68313]}},{"type":"Feature","properties":{"name":"山川本部町発電所","name:ja":"","name:en":"","operator":"","fuel_type":"solar","plant:source":"solar","capacity_mw":-1.0,"voltage":"","osm_id":null,"osm_type":null,"_category":"unknown","_display_name":"山川本部町発電所","_enriched_by":"jrp_lite","_fuel_color":"#ffdd00","_p03_distance_km":null,"_region":"okinawa","_region_ja":"沖縄"},"geometry":{"type":"Point","coordinates":[127.88365,26.68364]}},{"type":"Feature","properties":{"name":"山川本部町発電所","name:ja":"","name:en":"","operator":"","fuel_type":"solar","plant:source":"solar","capacity_mw":-1.0,"voltage":"","osm_id":null,"osm_type":null,"_category":"unknown","_display_name":"山川本部町発電所","_enriched_by":"jrp_lite","_fuel_color":"#ffdd00","_p03_distance_km":null,"_region":"okinawa","_region_ja":"沖縄"},"geometry":{"type":"Point","coordinates":[127.88325,26.68341]}},{"type":"Feature","properties":{"name":"二見名護市発電所","name:ja":"","name:en":"","operator":"","fuel_type":"solar","plant:source":"solar","capacity_mw":-1.0,"voltage":"","osm_id":null,"osm_type":null,"_category":"unknown","_display_name":"二見名護市発電所","_enriched_by":"jrp_lite","_fuel_color":"#ffdd00","_p03_distance_km":null,"_region":"okinawa","_region_ja":"沖縄"},"geometry":{"type":"Point","coordinates":[128.03014,26.54467]}},{"type":"Feature","properties":{"name":"添石中城村発電所","name:ja":"","name:en":"","fuel_type":"solar","plant:source":"solar","capacity_mw":-1.0,"voltage":"","osm_id":null,"osm_type":null,"_category":"unknown","_display_name":"添石中城村発電所","_enriched_by":"p03","_fuel_color":"#ffdd00","_p03_distance_km":1.106,"_region":"okinawa","_region_ja":"沖縄","operator":"沖縄電力"},"geometry":{"type":"Point","coordinates":[127.80404,26.28301]}},{"type":"Feature","properties":{"name":"北浜中城村発電所","name:ja":"","name:en":"","operator":"","fuel_type":"solar","plant:source":"solar","capacity_mw":-1.0,"voltage":"","osm_id":null,"osm_type":null,"_category":"unknown","_display_name":"北浜中城村発電所","_enriched_by":"jrp_lite","_fuel_color":"#ffdd00","_p03_distance_km":null,"_region":"okinawa","_region_ja":"沖縄"},"geometry":{"type":"Point","coordinates":[127.78855,26.23864]}},{"type":"Feature","properties":{"name":"上地読谷村発電所","name:ja":"","name:en":"","operator":"","fuel_type":"unknown","plant:source":"","capacity_mw":-1.0,"voltage":"","osm_id":null,"osm_type":null,"_category":"unknown","_display_name":"上地読谷村発電所","_enriched_by":"jrp_lite","_fuel_color":"#999999","_p03_distance_km":null,"_region":"okinawa","_region_ja":"沖縄"},"geometry":{"type":"Point","coordinates":[127.73832,26.40936]}},{"type":"Feature","properties":{"name":"波照間可倒式風力発電実証研究設備","name:ja":"","name:en":"","fuel_type":"wind","plant:source":"wind","capacity_mw":-1.0,"voltage":"","osm_id":null,"osm_type":null,"_category":"unknown","_display_name":"波照間可倒式風力発電実証研究設備","_enriched_by":"p03","_fuel_color":"#00cc88","_p03_distance_km":0.011,"_region":"okinawa","_region_ja":"沖縄","operator":"沖縄電力"},"geometry":{"type":"Point","coordinates":[123.79397,24.06759]}},{"type":"Feature","properties":{"name":"波照間発電所","name:ja":"","name:en":"","plant:source":"https://www.okiden.co.jp/company/guide/power-equipment/","capacity_mw":-1.0,"voltage":"","osm_id":null,"osm_type":null,"_category":"unknown","_display_name":"波照間発電所","_enriched_by":"p03","_fuel_color":"#999999","_p03_distance_km":1.081,"_region":"okinawa","_region_ja":"沖縄","fuel_type":"wind","operator":"沖縄電力"},"geometry":{"type":"Point","coordinates":[123.77104,24.06211]}},{"type":"Feature","properties":{"name":"糸満市風力発電所","name:ja":"","name:en":"","fuel_type":"solar","plant:source":"solar","capacity_mw":-1.0,"voltage":"","osm_id":null,"osm_type":null,"_category":"unknown","_display_name":"糸満市風力発電所","_enriched_by":"p03","_fuel_color":"#ffdd00","_p03_distance_km":0.829,"_region":"okinawa","_region_ja":"沖縄","operator":"糸満市"},"geometry":{"type":"Point","coordinates":[127.72865,26.10027]}},{"type":"Feature","properties":{"name":"糸満市風力発電所","name:ja":"","name:en":"","fuel_type":"solar","plant:source":"solar","capacity_mw":-1.0,"voltage":"","osm_id":null,"osm_type":null,"_category":"unknown","_display_name":"糸満市風力発電所","_enriched_by":"p03","_fuel_color":"#ffdd00","_p03_distance_km":0.502,"_region":"okinawa","_region_ja":"沖縄","operator":"糸満市"},"geometry":{"type":"Point","coordinates":[127.72499,26.10002]}},{"type":"Feature","properties":{"name":"本部町発電所","name:ja":"","name:en":"","operator":"","fuel_type":"solar","plant:source":"solar","capacity_mw":-1.0,"voltage":"","osm_id":null,"osm_type":null,"_category":"unknown","_display_name":"本部町発電所","_enriched_by":"jrp_lite","_fuel_color":"#ffdd00","_p03_distance_km":null,"_region":"okinawa","_region_ja":"沖縄"},"geometry":{"type":"Point","coordinates":[127.86464,26.64325]}},{"type":"Feature","properties":{"name":"松本五丁目沖縄市発電所","name:ja":"","name:en":"","fuel_type":"solar","plant:source":"solar","capacity_mw":-1.0,"voltage":"","osm_id":null,"osm_type":null,"_category":"unknown","_display_name":"松本五丁目沖縄市発電所","_enriched_by":"p03","_fuel_color":"#ffdd00","_p03_distance_km":1.695,"_region":"okinawa","_region_ja":"沖縄","operator":"沖縄税務署"},"geometry":{"type":"Point","coordinates":[127.81139,26.35688]}},{"type":"Feature","properties":{"name":"石垣市発電所","name:ja":"","name:en":"","operator":"","fuel_type":"solar","plant:source":"solar","capacity_mw":-1.0,"voltage":"","osm_id":null,"osm_type":null,"_category":"unknown","_display_name":"石垣市発電所","_enriched_by":"jrp_lite","_fuel_color":"#ffdd00","_p03_distance_km":null,"_region":"okinawa","_region_ja":"沖縄"},"geometry":{"type":"Point","coordinates":[124.20737,24.35899]}}]}