{"type": "FeatureCollection", "features": [{"type": "Feature", "properties": {"barrier": "fence", "location": "outdoor", "power": "substation", "substation": "traction", "osm_way_id": 146631662, "supplement_fetched": "2026-06-13", "supplement_source": "overpass bulk bbox (I3)"}, "geometry": {"type": "Polygon", "coordinates": [[[138.3657995, 34.9509584], [138.3660473, 34.9508442], [138.3657458, 34.9503319], [138.3657297, 34.9504066], [138.3657657, 34.9508904], [138.3657995, 34.9509584]]]}}, {"type": "Feature", "properties": {"power": "substation", "osm_way_id": 1085931753, "supplement_fetched": "2026-06-13", "supplement_source": "overpass bulk bbox (I3)"}, "geometry": {"type": "Polygon", "coordinates": [[[138.2265243, 35.266808], [138.2265734, 35.2664375], [138.2261806, 35.2664029], [138.2261315, 35.2667734], [138.2265243, 35.266808]]]}}, {"type": "Feature", "properties": {"power": "substation", "osm_way_id": 1494189543, "supplement_fetched": "2026-06-13", "supplement_source": "overpass bulk bbox (I3)"}, "geometry": {"type": "Polygon", "coordinates": [[[139.2512302, 35.5409502], [139.2511509, 35.5408923], [139.2511386, 35.5408721], [139.251143, 35.5408485], [139.25125, 35.540751], [139.2512769, 35.5406623], [139.2513488, 35.5405955], [139.2513768, 35.5406141], [139.2514407, 35.5407904], [139.2514181, 35.5408035], [139.2513339, 35.5408856], [139.2512302, 35.5409502]]]}}, {"type": "Feature", "properties": {"name": "下諏訪変電所", "name:en": "Shimo-Suwa Substation", "name:ja": "下諏訪変電所", "name:ja_rm": "Shimo-Suwa Hendensho", "power": "substation", "ref": "下諏訪", "osm_way_id": 203378849, "supplement_fetched": "2026-06-13", "supplement_source": "overpass bulk bbox (I3)"}, "geometry": {"type": "Polygon", "coordinates": [[[138.0875516, 36.0818707], [138.0871406, 36.0820022], [138.0870818, 36.0819873], [138.0869627, 36.0820415], [138.0868201, 36.082028], [138.0868285, 36.081887], [138.0867681, 36.0817799], [138.0866759, 36.0816999], [138.0866608, 36.0816253], [138.0867262, 36.0815317], [138.0871875, 36.0814111], [138.0872177, 36.081483], [138.0874525, 36.0814102], [138.0874858, 36.08153], [138.0874703, 36.0816096], [138.0875414, 36.081838], [138.0875516, 36.0818707]]]}}, {"type": "Feature", "properties": {"power": "substation", "substation": "distribution", "voltage": "77000", "osm_way_id": 288222766, "supplement_fetched": "2026-06-13", "supplement_source": "overpass bulk bbox (I3)"}, "geometry": {"type": "Polygon", "coordinates": [[[138.0947976, 36.0082427], [138.0944836, 36.0080174], [138.0947315, 36.0077912], [138.0950456, 36.0080165], [138.0947976, 36.0082427]]]}}, {"type": "Feature", "properties": {"frequency": "50;60", "location": "outdoor", "name": "新信濃変電所", "name:en": "Shin Shinano Frequency Converter Station", "operator": "東京電力パワーグリッド", "operator:en": "TEPCO Power Grid", "operator:ja": "東京電力パワーグリッド", "operator:wikidata": "Q21032324", "power": "substation", "ref": "新信濃", "source:name": "wikipedia", "substation": "converter", "voltage": "500000", "wikidata": "Q7497226", "wikipedia": "ja:新信濃変電所", "osm_way_id": 315662839, "supplement_fetched": "2026-06-13", "supplement_source": "overpass bulk bbox (I3)"}, "geometry": {"type": "Polygon", "coordinates": [[[137.883875, 36.1345367], [137.8875103, 36.1368312], [137.8844185, 36.1400262], [137.8849652, 36.1403763], [137.8850054, 36.1404759], [137.8845119, 36.140985], [137.8843751, 36.1410001], [137.8838373, 36.1406268], [137.880202, 36.1383324], [137.883875, 36.1345367]]]}}, {"type": "Feature", "properties": {"power": "substation", "substation": "distribution", "voltage": "77000", "osm_way_id": 316421001, "supplement_fetched": "2026-06-13", "supplement_source": "overpass bulk bbox (I3)"}, "geometry": {"type": "Polygon", "coordinates": [[[137.9859933, 36.2558722], [137.9863957, 36.2558904], [137.9863348, 36.2553593], [137.9860743, 36.255292], [137.9859933, 36.2558722]]]}}, {"type": "Feature", "properties": {"location": "outdoor", "power": "substation", "substation": "distribution", "voltage": "77000", "osm_way_id": 316421006, "supplement_fetched": "2026-06-13", "supplement_source": "overpass bulk bbox (I3)"}, "geometry": {"type": "Polygon", "coordinates": [[[137.8863089, 36.3372239], [137.8867866, 36.3373139], [137.8868897, 36.337008], [137.8866766, 36.3369651], [137.8864842, 36.3368225], [137.8864429, 36.3368184], [137.8863089, 36.3372239]]]}}, {"type": "Feature", "properties": {"location": "outdoor", "power": "substation", "substation": "distribution", "osm_way_id": 317287903, "supplement_fetched": "2026-06-13", "supplement_source": "overpass bulk bbox (I3)"}, "geometry": {"type": "Polygon", "coordinates": [[[137.9401081, 36.2473897], [137.9400622, 36.2473852], [137.9399923, 36.2472755], [137.9398914, 36.2471172], [137.9398253, 36.2471438], [137.9394783, 36.2471824], [137.9392891, 36.247169], [137.9391899, 36.2472386], [137.9391257, 36.2476696], [137.9392857, 36.247756], [137.9400705, 36.2477617], [137.9401081, 36.2473897]]]}}, {"type": "Feature", "properties": {"location": "outdoor", "power": "substation", "substation": "distribution", "osm_way_id": 317287913, "supplement_fetched": "2026-06-13", "supplement_source": "overpass bulk bbox (I3)"}, "geometry": {"type": "Polygon", "coordinates": [[[137.9192205, 36.2757607], [137.9195509, 36.2756774], [137.9195408, 36.2753841], [137.9194008, 36.2751251], [137.9192309, 36.2751308], [137.9191201, 36.2750242], [137.9189629, 36.2749925], [137.918901, 36.2749743], [137.9192205, 36.2757607]]]}}, {"type": "Feature", "properties": {"location": "outdoor", "power": "substation", "substation": "traction", "osm_way_id": 442974782, "supplement_fetched": "2026-06-13", "supplement_source": "overpass bulk bbox (I3)"}, "geometry": {"type": "Polygon", "coordinates": [[[138.1748605, 35.9682147], [138.1750777, 35.9678544], [138.1749544, 35.9677957], [138.174831, 35.9679021], [138.1746996, 35.9679672], [138.1745735, 35.9680324], [138.1745815, 35.9681344], [138.1748605, 35.9682147]]]}}, {"type": "Feature", "properties": {"location": "outdoor", "power": "substation", "substation": "distribution", "voltage": "77000", "osm_way_id": 638598037, "supplement_fetched": "2026-06-13", "supplement_source": "overpass bulk bbox (I3)"}, "geometry": {"type": "Polygon", "coordinates": [[[137.9887922, 35.9758692], [137.9890014, 35.9758985], [137.9892509, 35.9760461], [137.9888324, 35.9763327], [137.988638, 35.9762534], [137.9886873, 35.9761307], [137.9887922, 35.9758692]]]}}, {"type": "Feature", "properties": {"power": "substation", "osm_way_id": 807988239, "supplement_fetched": "2026-06-13", "supplement_source": "overpass bulk bbox (I3)"}, "geometry": {"type": "Polygon", "coordinates": [[[137.926629, 35.7065178], [137.9266304, 35.7066817], [137.9263967, 35.706683], [137.9263953, 35.7065191], [137.926629, 35.7065178]]]}}, {"type": "Feature", "properties": {"power": "substation", "osm_way_id": 807999573, "supplement_fetched": "2026-06-13", "supplement_source": "overpass bulk bbox (I3)"}, "geometry": {"type": "Polygon", "coordinates": [[[137.9542442, 35.898127], [137.9541591, 35.8985627], [137.9532219, 35.8984426], [137.953307, 35.8980069], [137.9542442, 35.898127]]]}}, {"type": "Feature", "properties": {"power": "substation", "osm_way_id": 1051458876, "supplement_fetched": "2026-06-13", "supplement_source": "overpass bulk bbox (I3)"}, "geometry": {"type": "Polygon", "coordinates": [[[137.9715815, 36.2092045], [137.9718799, 36.2091217], [137.9719515, 36.2092623], [137.9720828, 36.2092324], [137.9720542, 36.2091641], [137.9722034, 36.2091381], [137.9722165, 36.2091824], [137.9722917, 36.2091602], [137.9723025, 36.2091862], [137.9728074, 36.2090764], [137.9729017, 36.2092652], [137.972953, 36.2094241], [137.9730664, 36.2097468], [137.9720018, 36.2100031], [137.9715815, 36.2092045]]]}}, {"type": "Feature", "properties": {"frequency": "50", "landuse": "outdoor", "name": "白州変電所", "operator": "東京電力パワーグリッド", "operator:en": "TEPCO Power Grid", "operator:ja": "東京電力パワーグリッド", "operator:wikidata": "Q21032324", "power": "substation", "substation": "transmission", "voltage": "66000", "osm_way_id": 1197746158, "supplement_fetched": "2026-06-13", "supplement_source": "overpass bulk bbox (I3)"}, "geometry": {"type": "Polygon", "coordinates": [[[138.3313407, 35.8158978], [138.3314808, 35.8160473], [138.3315778, 35.8160386], [138.331749, 35.8159959], [138.331925, 35.8158745], [138.3320903, 35.8157813], [138.3318867, 35.8155667], [138.3315347, 35.8157851], [138.3315287, 35.8158075], [138.3314736, 35.8158405], [138.3314353, 35.8158424], [138.3313407, 35.8158978]]]}}, {"type": "Feature", "properties": {"frequency": "50;0", "frequency_conversion": "ac_dc", "name": "草加変電所", "name:en": "Souka Substation", "name:ja": "草加変電所", "operator": "東武鉄道", "operator:en": "Tobu Railway", "operator:ja": "東武鉄道", "operator:short": "東武", "operator:short:en": "TOBU", "operator:short:ja": "東武", "operator:wikidata": "Q1321914", "power": "substation", "substation": "traction", "voltage": "66000;1500", "osm_way_id": 1486130370, "supplement_fetched": "2026-06-13", "supplement_source": "overpass bulk bbox (I3)"}, "geometry": {"type": "Polygon", "coordinates": [[[139.8027923, 35.8225586], [139.8027335, 35.8219293], [139.8029307, 35.8219171], [139.8029896, 35.8225465], [139.8027923, 35.8225586]]]}}, {"type": "Feature", "properties": {"location": "outdoor", "power": "substation", "source": "image,2014-03;Bing,2011-11-17;GSI/KIBAN", "osm_way_id": 272241354, "supplement_fetched": "2026-06-13", "supplement_source": "overpass bulk bbox (I3)"}, "geometry": {"type": "Polygon", "coordinates": [[[138.9227939, 37.1739406], [138.9231057, 37.173936], [138.923067, 37.173541], [138.9228114, 37.1735471], [138.9227939, 37.1739406]]]}}, {"type": "Feature", "properties": {"location": "indoor", "power": "substation", "source": "image,2014-03;Bing,2011-11-17;GSI/KIBAN", "substation": "traction", "osm_way_id": 272701014, "supplement_fetched": "2026-06-13", "supplement_source": "overpass bulk bbox (I3)"}, "geometry": {"type": "Polygon", "coordinates": [[[138.8990587, 37.1047905], [138.8989907, 37.1046156], [138.8987601, 37.1046714], [138.8988263, 37.1048221], [138.8988527, 37.1048357], [138.8990587, 37.1047905]]]}}, {"type": "Feature", "properties": {"power": "substation", "substation": "traction", "osm_way_id": 308030893, "supplement_fetched": "2026-06-13", "supplement_source": "overpass bulk bbox (I3)"}, "geometry": {"type": "Polygon", "coordinates": [[[139.7172946, 37.1239249], [139.7171358, 37.1236136], [139.7173058, 37.1235584], [139.7174646, 37.1238698], [139.7172946, 37.1239249]]]}}, {"type": "Feature", "properties": {"frequency": "50", "location": "outdoor", "name": "小出", "name:ja": "小出", "power": "substation", "ref": "小出", "substation": "distribution", "voltage": "66000", "osm_way_id": 319135108, "supplement_fetched": "2026-06-13", "supplement_source": "overpass bulk bbox (I3)"}, "geometry": {"type": "Polygon", "coordinates": [[[138.9653024, 37.2257274], [138.9657624, 37.225689], [138.9657167, 37.225342], [138.9652567, 37.2253804], [138.9653024, 37.2257274]]]}}, {"type": "Feature", "properties": {"frequency": "50", "location": "outdoor", "name": "浦佐変電所 (Urasa Hendensho)", "name:en": "Urasa Substation", "name:ja": "浦佐変電所", "name:ja_rm": "Urasa Hendensho", "power": "substation", "ref": "浦佐", "substation": "distribution", "voltage": "66000", "osm_way_id": 319175833, "supplement_fetched": "2026-06-13", "supplement_source": "overpass bulk bbox (I3)"}, "geometry": {"type": "Polygon", "coordinates": [[[138.9319898, 37.1589232], [138.9315808, 37.1589436], [138.9313194, 37.1589567], [138.9317346, 37.1580915], [138.9321542, 37.1581022], [138.9320398, 37.1586734], [138.9319898, 37.1589232]]]}}, {"type": "Feature", "properties": {"power": "substation", "osm_way_id": 1034389315, "supplement_fetched": "2026-06-13", "supplement_source": "overpass bulk bbox (I3)"}, "geometry": {"type": "Polygon", "coordinates": [[[138.9080858, 37.2562096], [138.9081193, 37.2563665], [138.9082146, 37.2565874], [138.9082615, 37.2567732], [138.908401, 37.2567967], [138.9085901, 37.2568116], [138.9088461, 37.256787], [138.9087068, 37.2563051], [138.9087792, 37.2562389], [138.9086833, 37.2560393], [138.9080858, 37.2562096]]]}}, {"type": "Feature", "properties": {"name": "新那須変電所", "operator": "東日本旅客鉄道", "operator:en": "East Japan Railway Company", "operator:ja": "東日本旅客鉄道", "operator:short": "JR東日本", "operator:short:en": "JR East", "operator:short:ja": "JR東日本", "operator:wikidata": "Q499071", "power": "substation", "source": "image 2014-06;Bing;GSI/KIBAN", "substation": "traction", "voltage": "275000;25000", "osm_way_id": 290669795, "supplement_fetched": "2026-06-13", "supplement_source": "overpass bulk bbox (I3)"}, "geometry": {"type": "Polygon", "coordinates": [[[140.104053, 37.0298162], [140.1036436, 37.0292948], [140.1042933, 37.0288082], [140.1049955, 37.0283071], [140.1051581, 37.0284138], [140.1056699, 37.0281762], [140.1062281, 37.028916], [140.1061604, 37.028947], [140.1059478, 37.0288924], [140.104053, 37.0298162]]]}}, {"type": "Feature", "properties": {"name": "榎木変電所", "name:en": "Enoki Substation", "power": "substation", "substation": "industrial", "voltage": "66000", "osm_way_id": 1502211219, "supplement_fetched": "2026-06-13", "supplement_source": "overpass bulk bbox (I3)"}, "geometry": {"type": "Polygon", "coordinates": [[[139.3641955, 35.3286011], [139.3643633, 35.328683], [139.3646293, 35.3283204], [139.3644614, 35.3282384], [139.3641955, 35.3286011]]]}}, {"type": "Feature", "properties": {"power": "substation", "osm_way_id": 1514333798, "supplement_fetched": "2026-06-13", "supplement_source": "overpass bulk bbox (I3)"}, "geometry": {"type": "Polygon", "coordinates": [[[139.7078596, 35.5335257], [139.7079534, 35.5336117], [139.7077977, 35.5336751], [139.7077274, 35.5335796], [139.7078596, 35.5335257]]]}}, {"type": "Feature", "properties": {"location": "indoor", "power": "substation", "substation": "traction", "osm_way_id": 3627668205, "supplement_fetched": "2026-06-13", "supplement_source": "overpass bulk bbox (I3)"}, "geometry": {"type": "Point", "coordinates": [138.2194625, 36.6628379]}}, {"type": "Feature", "properties": {"power": "substation", "osm_way_id": 6292653052, "supplement_fetched": "2026-06-13", "supplement_source": "overpass bulk bbox (I3)"}, "geometry": {"type": "Point", "coordinates": [138.1500528, 36.5943124]}}, {"type": "Feature", "properties": {"name": "奥裾花地下発電所", "power": "substation", "osm_way_id": 12777355201, "supplement_fetched": "2026-06-13", "supplement_source": "overpass bulk bbox (I3)"}, "geometry": {"type": "Point", "coordinates": [137.9676153, 36.7244807]}}, {"type": "Feature", "properties": {"power": "substation", "source": "Bing,2008-04", "osm_way_id": 133451798, "supplement_fetched": "2026-06-13", "supplement_source": "overpass bulk bbox (I3)"}, "geometry": {"type": "Polygon", "coordinates": [[[138.2603288, 36.6264676], [138.2602136, 36.6264984], [138.2598613, 36.6262441], [138.2596487, 36.6260649], [138.2598938, 36.6259709], [138.2598377, 36.6258824], [138.2599036, 36.6258563], [138.2600709, 36.6261051], [138.2602658, 36.6263729], [138.2603288, 36.6264676]]]}}, {"type": "Feature", "properties": {"power": "substation", "source": "Bing,2008-04", "substation": "traction", "osm_way_id": 134075121, "supplement_fetched": "2026-06-13", "supplement_source": "overpass bulk bbox (I3)"}, "geometry": {"type": "Polygon", "coordinates": [[[138.1739929, 36.6369281], [138.173975, 36.6365574], [138.1732875, 36.6365794], [138.1733535, 36.6366434], [138.1739929, 36.6369281]]]}}, {"type": "Feature", "properties": {"power": "substation", "source": "Bing,2008-04", "substation": "traction", "osm_way_id": 134117847, "supplement_fetched": "2026-06-13", "supplement_source": "overpass bulk bbox (I3)"}, "geometry": {"type": "Polygon", "coordinates": [[[138.1577805, 36.6277607], [138.1572512, 36.6273347], [138.1572013, 36.6273786], [138.1571772, 36.6274315], [138.1571724, 36.6274973], [138.1571852, 36.6275438], [138.1572126, 36.6275826], [138.1572528, 36.6276135], [138.1575311, 36.6277685], [138.1575891, 36.6277879], [138.1576405, 36.6277956], [138.1577017, 36.627793], [138.157758, 36.6277762], [138.1577805, 36.6277607]]]}}, {"type": "Feature", "properties": {"location": "outdoor", "name": "中部電力パワーグリッド 川中島変電所", "power": "substation", "source": "Bing,2008-04", "substation": "distribution", "voltage": "77000", "osm_way_id": 134174459, "supplement_fetched": "2026-06-13", "supplement_source": "overpass bulk bbox (I3)"}, "geometry": {"type": "Polygon", "coordinates": [[[138.1771751, 36.5961641], [138.1771721, 36.595801], [138.1770527, 36.5958093], [138.1769064, 36.5958165], [138.1768829, 36.5958121], [138.1767117, 36.5958255], [138.1767138, 36.596149], [138.1771751, 36.5961641]]]}}, {"type": "Feature", "properties": {"name": "新屋代補助き電区分所", "operator": "JR東日本", "power": "substation", "osm_way_id": 559156289, "supplement_fetched": "2026-06-13", "supplement_source": "overpass bulk bbox (I3)"}, "geometry": {"type": "Polygon", "coordinates": [[[138.1305623, 36.5419667], [138.1305833, 36.5416639], [138.1301274, 36.5412601], [138.1301, 36.5412912], [138.1303207, 36.5417027], [138.1303883, 36.541871], [138.1304012, 36.5419292], [138.1304302, 36.541959], [138.1304737, 36.54199], [138.1305623, 36.5419667]]]}}, {"type": "Feature", "properties": {"power": "substation", "osm_way_id": 679348174, "supplement_fetched": "2026-06-13", "supplement_source": "overpass bulk bbox (I3)"}, "geometry": {"type": "Polygon", "coordinates": [[[138.0725482, 36.6790903], [138.0726273, 36.6789644], [138.072512, 36.6789203], [138.0724718, 36.6788622], [138.0724744, 36.678731], [138.0721016, 36.678688], [138.0722173, 36.6789437], [138.0725482, 36.6790903]]]}}, {"type": "Feature", "properties": {"power": "substation", "osm_way_id": 679348613, "supplement_fetched": "2026-06-13", "supplement_source": "overpass bulk bbox (I3)"}, "geometry": {"type": "Polygon", "coordinates": [[[137.9541998, 36.6970769], [137.9544023, 36.6971209], [137.9545028, 36.6968639], [137.9545914, 36.6967876], [137.9546182, 36.696579], [137.9544908, 36.696565], [137.9544666, 36.6966854], [137.9543634, 36.6966543], [137.9541998, 36.6970769]]]}}, {"type": "Feature", "properties": {"name": "中部電力パワーグリッド(株) 屋代変電所", "power": "substation", "osm_way_id": 1229249449, "supplement_fetched": "2026-06-13", "supplement_source": "overpass bulk bbox (I3)"}, "geometry": {"type": "Polygon", "coordinates": [[[138.1178594, 36.53834], [138.1178358, 36.5381986], [138.1177446, 36.5379857], [138.1176888, 36.53789], [138.1170214, 36.5381914], [138.117235, 36.5384038], [138.1173036, 36.538415], [138.1178594, 36.53834]]]}}, {"type": "Feature", "properties": {"name": "松代変電所", "power": "substation", "osm_way_id": 1238854993, "supplement_fetched": "2026-06-13", "supplement_source": "overpass bulk bbox (I3)"}, "geometry": {"type": "Polygon", "coordinates": [[[138.1957916, 36.5528857], [138.1954682, 36.5526963], [138.1956504, 36.5525847], [138.1958547, 36.5524196], [138.1958885, 36.5523474], [138.1959166, 36.5523136], [138.1959586, 36.5522996], [138.1961115, 36.552293], [138.1960823, 36.5524177], [138.1960088, 36.5525659], [138.1958664, 36.5527844], [138.1957916, 36.5528857]]]}}, {"type": "Feature", "properties": {"name": "東北電力ネットワーク(株)大潟町変電所", "power": "substation", "osm_way_id": 11751935436, "supplement_fetched": "2026-06-13", "supplement_source": "overpass bulk bbox (I3)"}, "geometry": {"type": "Point", "coordinates": [138.3290693, 37.2139166]}}, {"type": "Feature", "properties": {"frequency": "50", "location": "outdoor", "name": "上越変電所", "name:en": "Joetsu Substation", "name:ja": "上越変電所", "name:ja_rm": "Jōetsu Hendensho", "power": "substation", "ref": "上越", "source": "MapBox", "substation": "transmission", "voltage": "154000", "osm_way_id": 318302347, "supplement_fetched": "2026-06-13", "supplement_source": "overpass bulk bbox (I3)"}, "geometry": {"type": "Polygon", "coordinates": [[[138.2756985, 37.1538282], [138.2762778, 37.1530405], [138.2762029, 37.1529264], [138.2762846, 37.1528015], [138.2749331, 37.152373], [138.2742516, 37.1536061], [138.2739585, 37.1535898], [138.2738835, 37.1539592], [138.2746878, 37.1540461], [138.2747423, 37.1538615], [138.2756985, 37.1538282]]]}}, {"type": "Feature", "properties": {"frequency": "50", "location": "outdoor", "name": "東上越変電所", "name:en": "East Joetsu Substation", "name:ja": "東上越変電所", "name:ja_rm": "Higashi Jōetsu Hendensho", "power": "substation", "ref": "東上越", "substation": "transmission", "voltage": "275000", "osm_way_id": 318302348, "supplement_fetched": "2026-06-13", "supplement_source": "overpass bulk bbox (I3)"}, "geometry": {"type": "Polygon", "coordinates": [[[138.3746981, 37.1880953], [138.3728088, 37.1894623], [138.3720147, 37.1887533], [138.3722064, 37.1877681], [138.3723478, 37.187619], [138.3728453, 37.1872228], [138.3738675, 37.1871355], [138.3745931, 37.1877717], [138.3746981, 37.1880953]]]}}, {"type": "Feature", "properties": {"frequency": "50", "location": "outdoor", "power": "substation", "substation": "distribution", "voltage": "66000", "osm_way_id": 320667017, "supplement_fetched": "2026-06-13", "supplement_source": "overpass bulk bbox (I3)"}, "geometry": {"type": "Polygon", "coordinates": [[[137.917541, 37.0564681], [137.9178204, 37.0566085], [137.9179795, 37.0564651], [137.9179843, 37.0564341], [137.9180713, 37.0563408], [137.9178476, 37.0561985], [137.917541, 37.0564681]]]}}, {"type": "Feature", "properties": {"frequency": "50", "location": "outdoor", "name": "柿崎変電所", "name:en": "Kakizaki Substation", "name:ja": "柿崎変電所", "name:ja_rm": "Kakizaki Hendensho", "power": "substation", "ref": "柿崎", "substation": "distribution", "voltage": "66000", "osm_way_id": 320667050, "supplement_fetched": "2026-06-13", "supplement_source": "overpass bulk bbox (I3)"}, "geometry": {"type": "Polygon", "coordinates": [[[138.3932243, 37.2833713], [138.393361, 37.2833146], [138.3934102, 37.2833707], [138.3937608, 37.2832313], [138.3937288, 37.2830935], [138.3936668, 37.2829846], [138.393515, 37.283039], [138.3933097, 37.2827788], [138.3930681, 37.2828468], [138.3930938, 37.2828808], [138.3929164, 37.2829795], [138.3932243, 37.2833713]]]}}, {"type": "Feature", "properties": {"frequency": "50", "location": "outdoor", "name": "能生変電所 (Nou Hendensho)", "name:en": "Nou Substation", "name:ja": "能生変電所", "name:ja_rm": "Nou Hendensho", "power": "substation", "ref": "能生", "substation": "distribution", "voltage": "66000", "osm_way_id": 320667053, "supplement_fetched": "2026-06-13", "supplement_source": "overpass bulk bbox (I3)"}, "geometry": {"type": "Polygon", "coordinates": [[[137.9916363, 37.0934515], [137.9910125, 37.0936602], [137.9912487, 37.0939504], [137.9913896, 37.0938806], [137.9914791, 37.0940006], [137.9915515, 37.0940416], [137.9916468, 37.0940416], [137.9917191, 37.0939717], [137.9916649, 37.0937315], [137.9916363, 37.0934515]]]}}, {"type": "Feature", "properties": {"power": "substation", "osm_way_id": 619510468, "supplement_fetched": "2026-06-13", "supplement_source": "overpass bulk bbox (I3)"}, "geometry": {"type": "Polygon", "coordinates": [[[138.2675413, 37.1760266], [138.2678154, 37.1760171], [138.2678461, 37.1765779], [138.2675719, 37.1765874], [138.2675413, 37.1760266]]]}}, {"type": "Feature", "properties": {"power": "substation", "osm_way_id": 1041690548, "supplement_fetched": "2026-06-13", "supplement_source": "overpass bulk bbox (I3)"}, "geometry": {"type": "Polygon", "coordinates": [[[138.2591562, 37.0741935], [138.2593815, 37.0737152], [138.25902, 37.0736174], [138.2588014, 37.0740871], [138.2591562, 37.0741935]]]}}, {"type": "Feature", "properties": {"name": "高田変電所", "operator": "東北電力ネットワーク", "power": "substation", "osm_way_id": 1041690551, "supplement_fetched": "2026-06-13", "supplement_source": "overpass bulk bbox (I3)"}, "geometry": {"type": "Polygon", "coordinates": [[[138.2402936, 37.1059607], [138.240712, 37.1059297], [138.2406865, 37.1057736], [138.2407174, 37.1057736], [138.2406382, 37.1052174], [138.2403097, 37.1052441], [138.2402225, 37.1052752], [138.2399328, 37.1054837], [138.2399435, 37.1055511], [138.2401621, 37.1055746], [138.240197, 37.1058303], [138.2402721, 37.105826], [138.2402936, 37.1059607]]]}}, {"type": "Feature", "properties": {"name": "稲田変電所", "operator": "東北電力ネットワーク", "operator:en": "Tohoku Electric Power Network Company", "operator:ja": "東北電力ネットワーク", "operator:wikidata": "Q65040183", "power": "substation", "substation": "distribution", "voltage": "66000", "osm_way_id": 1041690557, "supplement_fetched": "2026-06-13", "supplement_source": "overpass bulk bbox (I3)"}, "geometry": {"type": "Polygon", "coordinates": [[[138.268438, 37.1235006], [138.2687035, 37.1235123], [138.2687183, 37.1234439], [138.2692212, 37.1236321], [138.2694291, 37.1233145], [138.2690375, 37.1231562], [138.2689798, 37.1231691], [138.2687075, 37.1230547], [138.2686231, 37.1232461], [138.2684702, 37.1234396], [138.268438, 37.1235006]]]}}, {"type": "Feature", "properties": {"area": "yes", "frequency": "50", "landuse": "outdoor", "name": "春日山変電所", "power": "substation", "substation": "transmission", "osm_way_id": 1202879946, "supplement_fetched": "2026-06-13", "supplement_source": "overpass bulk bbox (I3)"}, "geometry": {"type": "Polygon", "coordinates": [[[138.2341163, 37.1500305], [138.2345078, 37.1501803], [138.2347401, 37.1501746], [138.234788, 37.1499217], [138.2348042, 37.1494946], [138.234612, 37.1495199], [138.2341546, 37.1494979], [138.2341163, 37.1500305]]]}}, {"type": "Feature", "properties": {"frequency": "50", "landuse": "outdoor", "name": "直江津変電所", "operator": "えちごトキめき鉄道", "power": "substation", "substation": "traction", "voltage": "66000;1500", "osm_way_id": 1202879952, "supplement_fetched": "2026-06-13", "supplement_source": "overpass bulk bbox (I3)"}, "geometry": {"type": "Polygon", "coordinates": [[[138.2308338, 37.1639509], [138.2312314, 37.1639118], [138.2311607, 37.1634328], [138.2307369, 37.1634681], [138.2307981, 37.1639329], [138.2308338, 37.1639509]]]}}, {"type": "Feature", "properties": {"name": "えちごトキめき鉄道(株)二本木変電所", "power": "substation", "osm_way_id": 1289247003, "supplement_fetched": "2026-06-13", "supplement_source": "overpass bulk bbox (I3)"}, "geometry": {"type": "Polygon", "coordinates": [[[138.231673, 36.9826214], [138.2315792, 36.9826652], [138.2315005, 36.9825575], [138.2315944, 36.9825138], [138.231673, 36.9826214]]]}}, {"type": "Feature", "properties": {"branch": "妙高変電所", "landuse": "industrial", "name": "東北電力ネットワーク", "operator": "東北電力ネットワーク", "operator:en": "Tohoku Electric Power Network Company", "operator:ja": "東北電力ネットワーク", "operator:wikidata": "Q65040183", "power": "substation", "osm_way_id": 1418222235, "supplement_fetched": "2026-06-13", "supplement_source": "overpass bulk bbox (I3)"}, "geometry": {"type": "Polygon", "coordinates": [[[138.2018282, 36.8780738], [138.2010182, 36.8778141], [138.201045, 36.8775824], [138.2011335, 36.8774086], [138.2015117, 36.8773743], [138.2016995, 36.8775695], [138.2018041, 36.8776833], [138.2019623, 36.877797], [138.2018282, 36.8780738]]]}}, {"type": "Feature", "properties": {"location": "outdoor", "name": "塩沢変電所", "operator": "東日本旅客鉄道株式会社", "operator:en": "East Japan Railway Company", "operator:ja": "東日本旅客鉄道株式会社", "operator:short": "JR東日本", "operator:wikidata": "Q499071", "power": "substation", "source": "image,2014-03;Bing,2011-11-17;GSI/KIBAN", "osm_way_id": 272805904, "supplement_fetched": "2026-06-13", "supplement_source": "overpass bulk bbox (I3)"}, "geometry": {"type": "Polygon", "coordinates": [[[138.8498423, 37.0429876], [138.8504048, 37.0423516], [138.8509029, 37.0425182], [138.8503848, 37.0432553], [138.8498423, 37.0429876]]]}}, {"type": "Feature", "properties": {"frequency": "50", "location": "outdoor", "name": "東小千谷変電所", "name:en": "East Ojiya Substation", "name:ja": "東小千谷変電所", "name:ja_rm": "Higashi-Ojiya Hendensho", "power": "substation", "ref": "東小千谷", "substation": "distribution", "voltage": "66000", "osm_way_id": 318262838, "supplement_fetched": "2026-06-13", "supplement_source": "overpass bulk bbox (I3)"}, "geometry": {"type": "Polygon", "coordinates": [[[138.8109277, 37.2983695], [138.811355, 37.2987311], [138.8117105, 37.2984359], [138.8113764, 37.2981469], [138.8110908, 37.2982953], [138.8110345, 37.2982598], [138.8109277, 37.2983695]]]}}, {"type": "Feature", "properties": {"frequency": "50", "location": "outdoor", "power": "substation", "substation": "transmission", "voltage": "154000", "osm_way_id": 319135082, "supplement_fetched": "2026-06-13", "supplement_source": "overpass bulk bbox (I3)"}, "geometry": {"type": "Polygon", "coordinates": [[[138.8060655, 37.2964142], [138.8066404, 37.2960473], [138.8066382, 37.2955244], [138.8064688, 37.2953631], [138.8056778, 37.2960083], [138.8060655, 37.2964142]]]}}, {"type": "Feature", "properties": {"frequency": "50", "location": "outdoor", "name": "十日町変電所", "name:en": "South Tokamachi Substation", "name:ja": "十日町変電所", "name:ja_rm": "Minami-Tōkamachi Hendensho", "power": "substation", "ref": "十日町", "substation": "distribution", "voltage": "66000", "osm_way_id": 319153600, "supplement_fetched": "2026-06-13", "supplement_source": "overpass bulk bbox (I3)"}, "geometry": {"type": "Polygon", "coordinates": [[[138.7546824, 37.1385331], [138.7549517, 37.1383907], [138.7549645, 37.1384087], [138.7553926, 37.138194], [138.7554068, 37.138124], [138.7552211, 37.1379296], [138.7551842, 37.1379228], [138.7548638, 37.1381002], [138.7548624, 37.1381319], [138.7547972, 37.1381669], [138.7547533, 37.1381556], [138.7544853, 37.1381692], [138.7544768, 37.1382166], [138.7545151, 37.1383172], [138.754586, 37.1383963], [138.7545902, 37.1384268], [138.7546413, 37.1385172], [138.7546824, 37.1385331]]]}}, {"type": "Feature", "properties": {"frequency": "50", "location": "outdoor", "name": "南十日町変電所", "name:en": "South Tokamachi Substation", "name:ja": "南十日町変電所", "name:ja_rm": "Minami-Tōkamachi Hendensho", "power": "substation", "ref": "南十日町", "substation": "distribution", "voltage": "66000", "osm_way_id": 319153601, "supplement_fetched": "2026-06-13", "supplement_source": "overpass bulk bbox (I3)"}, "geometry": {"type": "Polygon", "coordinates": [[[138.7420334, 37.1169594], [138.7417748, 37.1165811], [138.7426084, 37.1162188], [138.742867, 37.116597], [138.7420334, 37.1169594]]]}}, {"type": "Feature", "properties": {"frequency": "50", "location": "outdoor", "name": "魚沼変電所", "name:en": "Uonuma Substation", "name:ja": "魚沼変電所", "name:ja_rm": "Uonuma Hendensho", "power": "substation", "ref": "魚沼", "substation": "transmission", "voltage": "154000", "osm_way_id": 319153602, "supplement_fetched": "2026-06-13", "supplement_source": "overpass bulk bbox (I3)"}, "geometry": {"type": "Polygon", "coordinates": [[[138.7344389, 37.150017], [138.7371037, 37.1497813], [138.7369484, 37.1487345], [138.7370952, 37.148722], [138.7370815, 37.1486347], [138.7346061, 37.1487673], [138.7342793, 37.1488], [138.7344389, 37.150017]]]}}, {"type": "Feature", "properties": {"frequency": "50", "location": "outdoor", "name": "六日町変電所", "name:en": "Muikamachi Substation", "name:ja": "六日町変電所", "name:ja_rm": "Muikamachi Hendensho", "power": "substation", "ref": "六日町", "substation": "distribution", "voltage": "66000", "osm_way_id": 319175831, "supplement_fetched": "2026-06-13", "supplement_source": "overpass bulk bbox (I3)"}, "geometry": {"type": "Polygon", "coordinates": [[[138.8778208, 37.0696209], [138.877363, 37.0701118], [138.8775427, 37.070217], [138.8774135, 37.0704336], [138.8779451, 37.0707127], [138.8782271, 37.0703953], [138.8785258, 37.0703637], [138.8778208, 37.0696209]]]}}, {"type": "Feature", "properties": {"building": "industrial", "location": "indoor", "name": "津池変電所", "power": "substation", "substation": "traction", "osm_way_id": 543732670, "supplement_fetched": "2026-06-13", "supplement_source": "overpass bulk bbox (I3)"}, "geometry": {"type": "Polygon", "coordinates": [[[138.7897309, 37.1312829], [138.789897, 37.1312044], [138.7899084, 37.1312197], [138.7899311, 37.1312089], [138.7899888, 37.1312865], [138.7899692, 37.1312958], [138.789981, 37.1313116], [138.7898118, 37.1313917], [138.7897309, 37.1312829]]]}}, {"type": "Feature", "properties": {"power": "substation", "substation": "yes", "osm_way_id": 640218586, "supplement_fetched": "2026-06-13", "supplement_source": "overpass bulk bbox (I3)"}, "geometry": {"type": "Polygon", "coordinates": [[[138.6541668, 37.0182766], [138.6544964, 37.0185448], [138.6547692, 37.0183311], [138.6544395, 37.0180629], [138.6541668, 37.0182766]]]}}, {"type": "Feature", "properties": {"power": "substation", "osm_way_id": 669058996, "supplement_fetched": "2026-06-13", "supplement_source": "overpass bulk bbox (I3)"}, "geometry": {"type": "Polygon", "coordinates": [[[138.8648739, 37.2700815], [138.8644293, 37.2699068], [138.8647785, 37.2692001], [138.8649864, 37.2692537], [138.8649691, 37.2693892], [138.8649443, 37.2695647], [138.8649188, 37.26978], [138.8648739, 37.2700815]]]}}, {"type": "Feature", "properties": {"building": "industrial", "location": "indoor", "name": "六日町変電所", "power": "substation", "substation": "traction", "osm_way_id": 1054047531, "supplement_fetched": "2026-06-13", "supplement_source": "overpass bulk bbox (I3)"}, "geometry": {"type": "Polygon", "coordinates": [[[138.8747439, 37.0977136], [138.8746794, 37.0975949], [138.8749144, 37.0975136], [138.8749789, 37.0976323], [138.8747439, 37.0977136]]]}}, {"type": "Feature", "properties": {"frequency": "50", "landuse": "outdoor", "name": "六日町交流変電所", "operator": "東日本旅客鉄道株式会社", "operator:en": "East Japan Railway Company", "operator:ja": "東日本旅客鉄道株式会社", "operator:short": "JR東日本", "operator:wikidata": "Q499071", "power": "substation", "source": "Bing;GSImaps/ort", "substation": "traction", "voltage": "154000;66000", "osm_way_id": 1192732454, "supplement_fetched": "2026-06-13", "supplement_source": "overpass bulk bbox (I3)"}, "geometry": {"type": "Polygon", "coordinates": [[[138.8600809, 37.0584765], [138.8607451, 37.0584501], [138.8607201, 37.0580507], [138.860056, 37.0580772], [138.8600809, 37.0584765]]]}}, {"type": "Feature", "properties": {"power": "substation", "osm_way_id": 129611877, "supplement_fetched": "2026-06-13", "supplement_source": "overpass bulk bbox (I3)"}, "geometry": {"type": "Polygon", "coordinates": [[[138.3639244, 34.9334635], [138.3639097, 34.9332436], [138.3641658, 34.9331227], [138.3642237, 34.9331462], [138.3642539, 34.9331759], [138.3645566, 34.9331689], [138.364552, 34.9334503], [138.3642355, 34.9334591], [138.3640692, 34.9334899], [138.3639244, 34.9334635]]]}}, {"type": "Feature", "properties": {"name:en": "Abe", "power": "substation", "substation": "transmission", "voltage": "275000", "osm_way_id": 155375873, "supplement_fetched": "2026-06-13", "supplement_source": "overpass bulk bbox (I3)"}, "geometry": {"type": "Polygon", "coordinates": [[[138.2863607, 34.995177], [138.285218, 34.9947068], [138.2860763, 34.993217], [138.2872359, 34.9936736], [138.2863607, 34.995177]]]}}, {"type": "Feature", "properties": {"name": "駿河変電所", "name:en": "Suruga", "operator": "中部電力パワーグリッド", "power": "substation", "voltage": "275000", "osm_way_id": 170436908, "supplement_fetched": "2026-06-13", "supplement_source": "overpass bulk bbox (I3)"}, "geometry": {"type": "Polygon", "coordinates": [[[138.3621472, 35.0625302], [138.3621808, 35.0631202], [138.3623532, 35.0637026], [138.3625432, 35.0644733], [138.3625513, 35.0647154], [138.3600059, 35.0645189], [138.3601117, 35.0637359], [138.3601722, 35.0635431], [138.3603784, 35.0634509], [138.360392, 35.0633565], [138.3602509, 35.0633143], [138.3605937, 35.0624288], [138.3619206, 35.0625312], [138.3621472, 35.0625302]]]}}, {"type": "Feature", "properties": {"frequency": "60", "location": "outdoor", "name": "川根変電所", "name:en": "Kawane Substation", "name:ja": "川根変電所", "name:ja_rm": "Kawane Hendensho", "power": "substation", "ref": "川根", "source": "Bing", "substation": "transmission", "voltage": "275000", "osm_way_id": 210217246, "supplement_fetched": "2026-06-13", "supplement_source": "overpass bulk bbox (I3)"}, "geometry": {"type": "Polygon", "coordinates": [[[138.1098864, 35.0929827], [138.1090772, 35.0928148], [138.1089458, 35.0927391], [138.1089174, 35.092645], [138.1092224, 35.09181], [138.1109843, 35.0921654], [138.110879, 35.0925149], [138.1104345, 35.0924253], [138.1103694, 35.0926412], [138.1100236, 35.0925574], [138.1098864, 35.0929827]]]}}, {"type": "Feature", "properties": {"building": "yes", "location": "indoor", "name": "中部電力株式会社　日吉変電所", "operator": "中部電力", "power": "substation", "source": "Bing", "substation": "distribution", "osm_way_id": 219174843, "supplement_fetched": "2026-06-13", "supplement_source": "overpass bulk bbox (I3)"}, "geometry": {"type": "Polygon", "coordinates": [[[138.3904824, 34.9764361], [138.3906195, 34.9764777], [138.390713, 34.9762788], [138.3906509, 34.9762589], [138.3906766, 34.9762057], [138.3906123, 34.9761858], [138.3904824, 34.9764361]]]}}, {"type": "Feature", "properties": {"location": "outdoor", "name": "島田電力所", "name:en": "Shimada Substation", "name:ja": "島田電力所", "name:ja_rm": "Shimada Hendensho", "power": "substation", "ref": "島田", "substation": "distribution", "voltage": "77000", "osm_way_id": 253511864, "supplement_fetched": "2026-06-13", "supplement_source": "overpass bulk bbox (I3)"}, "geometry": {"type": "Polygon", "coordinates": [[[138.1719997, 34.838777], [138.1714477, 34.8387726], [138.171394, 34.8387314], [138.1717737, 34.8379835], [138.1717804, 34.8379263], [138.1717554, 34.8377509], [138.1717843, 34.8377263], [138.1722196, 34.8376566], [138.1722398, 34.8377729], [138.1725851, 34.8377416], [138.1720737, 34.8387203], [138.1719997, 34.838777]]]}}, {"type": "Feature", "properties": {"frequency": "60", "location": "surface", "name": "静岡変電所", "power": "substation", "voltage": "500000", "osm_way_id": 459476442, "supplement_fetched": "2026-06-13", "supplement_source": "overpass bulk bbox (I3)"}, "geometry": {"type": "Polygon", "coordinates": [[[138.0477847, 34.8633582], [138.0487195, 34.8640735], [138.0488616, 34.8642892], [138.0489863, 34.8642485], [138.0491593, 34.8642826], [138.0493096, 34.8642661], [138.0498661, 34.8639315], [138.050015, 34.8637544], [138.0501598, 34.8633747], [138.0501759, 34.8633054], [138.0500995, 34.8632064], [138.050023, 34.8632537], [138.0492559, 34.8630457], [138.0491661, 34.8629665], [138.0491017, 34.8628576], [138.0488616, 34.8627948], [138.0487812, 34.862873], [138.0481803, 34.8628245], [138.0479027, 34.8629577], [138.0478129, 34.8630611], [138.0477847, 34.8633582]]]}}, {"type": "Feature", "properties": {"power": "substation", "osm_way_id": 546942022, "supplement_fetched": "2026-06-13", "supplement_source": "overpass bulk bbox (I3)"}, "geometry": {"type": "Polygon", "coordinates": [[[138.1091827, 35.0912377], [138.1094169, 35.0914545], [138.1098359, 35.0916662], [138.1103843, 35.0919083], [138.1106432, 35.0913889], [138.1093728, 35.09087], [138.1091827, 35.0912377]]]}}, {"type": "Feature", "properties": {"power": "substation", "osm_way_id": 546966885, "supplement_fetched": "2026-06-13", "supplement_source": "overpass bulk bbox (I3)"}, "geometry": {"type": "Polygon", "coordinates": [[[138.11255, 35.0927996], [138.1130975, 35.0922351], [138.1134842, 35.0924862], [138.1129367, 35.0930507], [138.11255, 35.0927996]]]}}, {"type": "Feature", "properties": {"power": "substation", "osm_way_id": 618344847, "supplement_fetched": "2026-06-13", "supplement_source": "overpass bulk bbox (I3)"}, "geometry": {"type": "Polygon", "coordinates": [[[138.2187548, 35.2085004], [138.2194883, 35.2091179], [138.2196432, 35.2091831], [138.2197854, 35.2093447], [138.2199343, 35.2093863], [138.2200509, 35.2093436], [138.2200147, 35.2092614], [138.219611, 35.2087015], [138.2195004, 35.2086385], [138.2191249, 35.2083163], [138.219088, 35.2083048], [138.2190485, 35.2083026], [138.2189921, 35.2083191], [138.2188929, 35.2083755], [138.2187548, 35.2085004]]]}}, {"type": "Feature", "properties": {"power": "substation", "osm_way_id": 618344850, "supplement_fetched": "2026-06-13", "supplement_source": "overpass bulk bbox (I3)"}, "geometry": {"type": "Polygon", "coordinates": [[[138.3789182, 35.0802461], [138.3793379, 35.0801221], [138.379401, 35.0800014], [138.3793446, 35.0798653], [138.3792843, 35.0798181], [138.3791582, 35.0798587], [138.3791059, 35.0799147], [138.3788243, 35.0800069], [138.3789182, 35.0802461]]]}}, {"type": "Feature", "properties": {"power": "substation", "osm_way_id": 618344866, "supplement_fetched": "2026-06-13", "supplement_source": "overpass bulk bbox (I3)"}, "geometry": {"type": "Polygon", "coordinates": [[[138.3628611, 34.978552], [138.3633533, 34.9784465], [138.3632192, 34.9780751], [138.3630891, 34.9780993], [138.3629791, 34.977741], [138.362786, 34.9777806], [138.3626412, 34.9778092], [138.3628611, 34.978552]]]}}, {"type": "Feature", "properties": {"location": "outdoor", "power": "substation", "substation": "traction", "osm_way_id": 1324279349, "supplement_fetched": "2026-06-13", "supplement_source": "overpass bulk bbox (I3)"}, "geometry": {"type": "Polygon", "coordinates": [[[138.30963, 34.8735088], [138.3096474, 34.8736221], [138.3103529, 34.8741646], [138.3103891, 34.8741536], [138.3105178, 34.8737553], [138.3103542, 34.8736419], [138.3103622, 34.8736199], [138.3103368, 34.8736111], [138.310385, 34.8734763], [138.3101584, 34.8734175], [138.3100981, 34.8733421], [138.30963, 34.8735088]]]}}]}