{"type":"FeatureCollection","features":[{"type":"Feature","geometry":{"type":"Point","coordinates":[141.2078709,41.3146115]},"properties":{"name":"hokkaido junction 41.3146:141.2079:154","vn_kv":154.0,"vm_pu":1.01,"va_deg":-0.16}},{"type":"Feature","geometry":{"type":"Point","coordinates":[141.3861252,41.1863491]},"properties":{"name":"hokkaido junction 41.1863:141.3861:500","vn_kv":500.0,"vm_pu":1.0322,"va_deg":-0.0}},{"type":"Feature","geometry":{"type":"Point","coordinates":[141.1326751,41.2462072]},"properties":{"name":"hokkaido junction 41.2462:141.1327:66","vn_kv":66.0,"vm_pu":1.0093,"va_deg":-0.39}},{"type":"Feature","geometry":{"type":"Point","coordinates":[141.1856622,41.291615]},"properties":{"name":"hokkaido junction 41.2916:141.1857:66","vn_kv":66.0,"vm_pu":1.0092,"va_deg":-0.39}},{"type":"Feature","geometry":{"type":"Point","coordinates":[140.9963567,41.2035441]},"properties":{"name":"hokkaido junction 41.2035:140.9964:66","vn_kv":66.0,"vm_pu":1.0074,"va_deg":0.27}},{"type":"Feature","geometry":{"type":"Point","coordinates":[141.202398,41.3369567]},"properties":{"name":"hokkaido junction 41.337:141.2024:66","vn_kv":66.0,"vm_pu":1.0091,"va_deg":-0.41}},{"type":"Feature","geometry":{"type":"Point","coordinates":[141.310394,41.1881225]},"properties":{"name":"hokkaido junction 41.1881:141.3104:154","vn_kv":154.0,"vm_pu":1.0101,"va_deg":-0.16}},{"type":"Feature","geometry":{"type":"Point","coordinates":[141.309977,41.1880832]},"properties":{"name":"hokkaido junction 41.1881:141.31:154","vn_kv":154.0,"vm_pu":1.0102,"va_deg":-0.16}},{"type":"Feature","geometry":{"type":"Point","coordinates":[140.8605462,42.7017635]},"properties":{"name":"hokkaido junction 42.7018:140.8605:0","vn_kv":66.0,"vm_pu":1.0,"va_deg":0.0}},{"type":"Feature","geometry":{"type":"Point","coordinates":[140.8360469,42.699469]},"properties":{"name":"hokkaido junction 42.6995:140.836:0","vn_kv":66.0,"vm_pu":1.0,"va_deg":-0.0}},{"type":"Feature","geometry":{"type":"Point","coordinates":[140.2242901,41.73995]},"properties":{"name":"hokkaido junction 41.74:140.2243:187","vn_kv":187.0,"vm_pu":1.0101,"va_deg":-0.0}},{"type":"Feature","geometry":{"type":"Point","coordinates":[142.4788544,43.6919489]},"properties":{"name":"hokkaido junction 43.6919:142.4789:66","vn_kv":66.0,"vm_pu":1.0,"va_deg":-0.0}},{"type":"Feature","geometry":{"type":"Point","coordinates":[141.9871915,43.5115358]},"properties":{"name":"hokkaido junction 43.5115:141.9872:66","vn_kv":66.0,"vm_pu":1.0,"va_deg":-0.0}},{"type":"Feature","geometry":{"type":"Point","coordinates":[142.351605,44.1052394]},"properties":{"name":"hokkaido junction 44.1052:142.3516:66","vn_kv":66.0,"vm_pu":1.0,"va_deg":0.0}},{"type":"Feature","geometry":{"type":"Point","coordinates":[141.5060726,42.7947707]},"properties":{"name":"hokkaido junction 42.7948:141.5061:66","vn_kv":66.0,"vm_pu":1.0,"va_deg":0.0}},{"type":"Feature","geometry":{"type":"Point","coordinates":[141.5060744,42.7948798]},"properties":{"name":"hokkaido junction 42.7949:141.5061:66","vn_kv":66.0,"vm_pu":1.0,"va_deg":-0.0}},{"type":"Feature","geometry":{"type":"Point","coordinates":[145.5015126,43.7655996]},"properties":{"name":"hokkaido junction 43.7656:145.5015:0","vn_kv":66.0,"vm_pu":1.0,"va_deg":-0.0}},{"type":"Feature","geometry":{"type":"Point","coordinates":[145.5370749,43.733821]},"properties":{"name":"hokkaido junction 43.7338:145.5371:0","vn_kv":66.0,"vm_pu":1.0,"va_deg":0.0}},{"type":"Feature","geometry":{"type":"Point","coordinates":[145.7727124,43.9949698]},"properties":{"name":"hokkaido junction 43.995:145.7727:0","vn_kv":66.0,"vm_pu":1.0,"va_deg":0.0}},{"type":"Feature","geometry":{"type":"Point","coordinates":[145.7871076,44.016915]},"properties":{"name":"hokkaido junction 44.0169:145.7871:0","vn_kv":66.0,"vm_pu":1.0,"va_deg":-0.0}},{"type":"Feature","geometry":{"type":"Point","coordinates":[141.4424888,41.4112587]},"properties":{"name":"\u6771\u901a\u6751\u5909\u96fb\u6240 154kV","vn_kv":154.0,"vm_pu":1.01,"va_deg":-0.01}},{"type":"Feature","geometry":{"type":"Point","coordinates":[141.4424888,41.4112587]},"properties":{"name":"\u6771\u901a\u6751\u5909\u96fb\u6240 66kV","vn_kv":66.0,"vm_pu":1.0094,"va_deg":-0.18}},{"type":"Feature","geometry":{"type":"Point","coordinates":[140.88998945714286,41.46523012857143]},"properties":{"name":"\u5927\u9593\u753a\u5909\u96fb\u6240","vn_kv":66.0,"vm_pu":1.0066,"va_deg":0.29}},{"type":"Feature","geometry":{"type":"Point","coordinates":[141.19391929999998,41.30579719333333]},"properties":{"name":"\u4e0b\u5317\u5909\u96fb\u6240 154kV","vn_kv":154.0,"vm_pu":1.01,"va_deg":-0.16}},{"type":"Feature","geometry":{"type":"Point","coordinates":[141.19391929999998,41.30579719333333]},"properties":{"name":"\u4e0b\u5317\u5909\u96fb\u6240 66kV","vn_kv":66.0,"vm_pu":1.0092,"va_deg":-0.39}},{"type":"Feature","geometry":{"type":"Point","coordinates":[140.88622594285715,41.4617468]},"properties":{"name":"\u4f50\u4e95\u5909\u96fb\u6240","vn_kv":66.0,"vm_pu":1.0066,"va_deg":0.28}},{"type":"Feature","geometry":{"type":"Point","coordinates":[141.15678588,41.40004787333333]},"properties":{"name":"\u5927\u7551\u5909\u96fb\u6240","vn_kv":66.0,"vm_pu":1.0083,"va_deg":-0.51}},{"type":"Feature","geometry":{"type":"Point","coordinates":[141.3413139875,41.3543533375]},"properties":{"name":"\u6771\u901a\u5909\u96fb\u6240 154kV","vn_kv":154.0,"vm_pu":1.0099,"va_deg":-0.04}},{"type":"Feature","geometry":{"type":"Point","coordinates":[141.3413139875,41.3543533375]},"properties":{"name":"\u6771\u901a\u5909\u96fb\u6240 66kV","vn_kv":66.0,"vm_pu":1.0095,"va_deg":-0.3}},{"type":"Feature","geometry":{"type":"Point","coordinates":[141.40226189999998,41.37910774]},"properties":{"name":"\u5ca9\u5c4b\u5909\u96fb\u6240","vn_kv":154.0,"vm_pu":1.01,"va_deg":0.0}},{"type":"Feature","geometry":{"type":"Point","coordinates":[141.40108856,41.37714962]},"properties":{"name":"\u5ca9\u5c4b\u5909\u96fb\u6240_2 154kV","vn_kv":154.0,"vm_pu":1.01,"va_deg":-0.0}},{"type":"Feature","geometry":{"type":"Point","coordinates":[141.40108856,41.37714962]},"properties":{"name":"\u5ca9\u5c4b\u5909\u96fb\u6240_2 66kV","vn_kv":66.0,"vm_pu":1.0077,"va_deg":-0.08}},{"type":"Feature","geometry":{"type":"Point","coordinates":[140.911342,41.50870286666667]},"properties":{"name":"\u5927\u9593\u753a\u5909\u96fb\u6240_3","vn_kv":500.0,"vm_pu":1.03,"va_deg":0.0}},{"type":"Feature","geometry":{"type":"Point","coordinates":[140.91138489999997,41.50813678]},"properties":{"name":"\u5927\u9593\u753a\u5909\u96fb\u6240_4 500kV","vn_kv":500.0,"vm_pu":1.03,"va_deg":0.0}},{"type":"Feature","geometry":{"type":"Point","coordinates":[140.91138489999997,41.50813678]},"properties":{"name":"\u5927\u9593\u753a\u5909\u96fb\u6240_4 66kV","vn_kv":66.0,"vm_pu":1.0095,"va_deg":0.46}},{"type":"Feature","geometry":{"type":"Point","coordinates":[140.91615897777777,41.50700818888889]},"properties":{"name":"\u5927\u9593\u753a\u5909\u96fb\u6240_5 500kV","vn_kv":500.0,"vm_pu":1.03,"va_deg":0.0}},{"type":"Feature","geometry":{"type":"Point","coordinates":[140.91615897777777,41.50700818888889]},"properties":{"name":"\u5927\u9593\u753a\u5909\u96fb\u6240_5 66kV","vn_kv":66.0,"vm_pu":1.0081,"va_deg":0.53}},{"type":"Feature","geometry":{"type":"Point","coordinates":[140.12589164000002,41.7397184]},"properties":{"name":"\u4e0a\u30ce\u56fd\u753a\u5909\u96fb\u6240","vn_kv":187.0,"vm_pu":1.01,"va_deg":0.0}},{"type":"Feature","geometry":{"type":"Point","coordinates":[142.48737386,43.707676119999995]},"properties":{"name":"\u6771\u5ddd\u5909\u96fb\u6240","vn_kv":66.0,"vm_pu":1.0,"va_deg":0.0}},{"type":"Feature","geometry":{"type":"Point","coordinates":[141.99905787142856,43.50105108571428]},"properties":{"name":"\u4e2d\u6751\u5909\u96fb\u6240","vn_kv":66.0,"vm_pu":1.0,"va_deg":0.0}},{"type":"Feature","geometry":{"type":"Point","coordinates":[142.3707795875,44.09960565]},"properties":{"name":"\u5143\u753a\u5909\u96fb\u6240_2","vn_kv":66.0,"vm_pu":1.0,"va_deg":-0.0}}]}