{"type":"FeatureCollection","features":[{"type":"Feature","geometry":{"type":"Point","coordinates":[136.6945753,35.4365219]},"properties":{"name":"hokuriku junction 35.4365:136.6946:154","vn_kv":154.0,"vm_pu":1.0143,"va_deg":-35.98}},{"type":"Feature","geometry":{"type":"Point","coordinates":[136.9623689,35.6360576]},"properties":{"name":"hokuriku junction 35.6361:136.9624:500","vn_kv":500.0,"vm_pu":1.0417,"va_deg":-34.0}},{"type":"Feature","geometry":{"type":"Point","coordinates":[136.0213021,35.0048545]},"properties":{"name":"hokuriku junction 35.0049:136.0213:275","vn_kv":275.0,"vm_pu":1.0322,"va_deg":-35.75}},{"type":"Feature","geometry":{"type":"Point","coordinates":[136.6626175,35.7023044]},"properties":{"name":"hokuriku junction 35.7023:136.6626:500","vn_kv":500.0,"vm_pu":1.03,"va_deg":-33.97}},{"type":"Feature","geometry":{"type":"Point","coordinates":[136.8841686,35.5802524]},"properties":{"name":"hokuriku junction 35.5803:136.8842:154","vn_kv":154.0,"vm_pu":1.0122,"va_deg":-36.04}},{"type":"Feature","geometry":{"type":"Point","coordinates":[137.6812767,35.7003325]},"properties":{"name":"hokuriku junction 35.7003:137.6813:154","vn_kv":154.0,"vm_pu":1.01,"va_deg":-36.87}},{"type":"Feature","geometry":{"type":"Point","coordinates":[137.5947342,35.5964423]},"properties":{"name":"hokuriku junction 35.5964:137.5947:154","vn_kv":154.0,"vm_pu":1.0102,"va_deg":-36.87}},{"type":"Feature","geometry":{"type":"Point","coordinates":[136.9350029,35.5273203]},"properties":{"name":"hokuriku junction 35.5273:136.935:275","vn_kv":275.0,"vm_pu":1.0195,"va_deg":-36.08}},{"type":"Feature","geometry":{"type":"Point","coordinates":[137.0730115,35.5996498]},"properties":{"name":"hokuriku junction 35.5996:137.073:154","vn_kv":154.0,"vm_pu":1.0112,"va_deg":-36.07}},{"type":"Feature","geometry":{"type":"Point","coordinates":[137.9725717,35.9219289]},"properties":{"name":"hokuriku junction 35.9219:137.9726:154","vn_kv":154.0,"vm_pu":1.0104,"va_deg":-36.86}},{"type":"Feature","geometry":{"type":"Point","coordinates":[137.1120518,35.5497649]},"properties":{"name":"hokuriku junction 35.5498:137.1121:154","vn_kv":154.0,"vm_pu":1.0117,"va_deg":-36.04}},{"type":"Feature","geometry":{"type":"Point","coordinates":[136.871569,35.5046594]},"properties":{"name":"hokuriku junction 35.5047:136.8716:275","vn_kv":275.0,"vm_pu":1.0235,"va_deg":-35.79}},{"type":"Feature","geometry":{"type":"Point","coordinates":[135.9792658,35.5547845]},"properties":{"name":"hokuriku junction 35.5548:135.9793:275","vn_kv":275.0,"vm_pu":1.0243,"va_deg":-35.54}},{"type":"Feature","geometry":{"type":"Point","coordinates":[137.9106626,36.1236644]},"properties":{"name":"hokuriku junction 36.1237:137.9107:275","vn_kv":275.0,"vm_pu":1.0213,"va_deg":-36.33}},{"type":"Feature","geometry":{"type":"Point","coordinates":[137.9344628,36.2575013]},"properties":{"name":"hokuriku junction 36.2575:137.9345:77","vn_kv":77.0,"vm_pu":0.9999,"va_deg":-37.86}},{"type":"Feature","geometry":{"type":"Point","coordinates":[137.8581207,37.0251928]},"properties":{"name":"hokuriku junction 37.0252:137.8581:0","vn_kv":77.0,"vm_pu":0.9999,"va_deg":-43.1}},{"type":"Feature","geometry":{"type":"Point","coordinates":[136.6336861,35.5493635]},"properties":{"name":"hokuriku junction 35.5494:136.6337:500","vn_kv":500.0,"vm_pu":1.0304,"va_deg":-33.97}},{"type":"Feature","geometry":{"type":"Point","coordinates":[137.9244414,36.4388959]},"properties":{"name":"hokuriku junction 36.4389:137.9244:0","vn_kv":77.0,"vm_pu":1.0,"va_deg":-34.62}},{"type":"Feature","geometry":{"type":"Point","coordinates":[136.0907726,35.6645717]},"properties":{"name":"hokuriku junction 35.6646:136.0908:154","vn_kv":154.0,"vm_pu":1.0149,"va_deg":-35.74}},{"type":"Feature","geometry":{"type":"Point","coordinates":[136.0882539,35.502441]},"properties":{"name":"hokuriku junction 35.5024:136.0883:154","vn_kv":154.0,"vm_pu":1.0159,"va_deg":-35.85}},{"type":"Feature","geometry":{"type":"Point","coordinates":[136.0892048,35.673108]},"properties":{"name":"hokuriku junction 35.6731:136.0892:275","vn_kv":275.0,"vm_pu":1.0201,"va_deg":-35.3}},{"type":"Feature","geometry":{"type":"Point","coordinates":[137.857803,35.7595386]},"properties":{"name":"hokuriku junction 35.7595:137.8578:0","vn_kv":77.0,"vm_pu":1.004,"va_deg":-36.34}},{"type":"Feature","geometry":{"type":"Point","coordinates":[137.9352513,35.7447185]},"properties":{"name":"hokuriku junction 35.7447:137.9353:0","vn_kv":77.0,"vm_pu":1.0086,"va_deg":-36.05}},{"type":"Feature","geometry":{"type":"Point","coordinates":[136.8359384,37.1121542]},"properties":{"name":"hokuriku junction 37.1122:136.8359:66","vn_kv":66.0,"vm_pu":0.9874,"va_deg":-54.38}},{"type":"Feature","geometry":{"type":"Point","coordinates":[137.1971707,37.3650043]},"properties":{"name":"hokuriku junction 37.365:137.1972:66","vn_kv":66.0,"vm_pu":0.9758,"va_deg":-93.11}},{"type":"Feature","geometry":{"type":"Point","coordinates":[136.8948915,37.2549861]},"properties":{"name":"hokuriku junction 37.255:136.8949:66","vn_kv":66.0,"vm_pu":0.9978,"va_deg":-62.73}},{"type":"Feature","geometry":{"type":"Point","coordinates":[136.9164184,37.0485197]},"properties":{"name":"hokuriku junction 37.0485:136.9164:66","vn_kv":66.0,"vm_pu":0.9993,"va_deg":-49.65}},{"type":"Feature","geometry":{"type":"Point","coordinates":[136.854457,37.1139333]},"properties":{"name":"hokuriku junction 37.1139:136.8545:66","vn_kv":66.0,"vm_pu":0.9874,"va_deg":-54.38}},{"type":"Feature","geometry":{"type":"Point","coordinates":[137.926801,36.9899591]},"properties":{"name":"hokuriku junction 36.99:137.9268:0","vn_kv":77.0,"vm_pu":0.9969,"va_deg":-46.02}},{"type":"Feature","geometry":{"type":"Point","coordinates":[137.7452872,37.003032]},"properties":{"name":"hokuriku junction 37.003:137.7453:0","vn_kv":77.0,"vm_pu":0.9992,"va_deg":-45.98}},{"type":"Feature","geometry":{"type":"Point","coordinates":[137.8011898,36.9979295]},"properties":{"name":"hokuriku junction 36.9979:137.8012:0","vn_kv":77.0,"vm_pu":0.9992,"va_deg":-45.98}},{"type":"Feature","geometry":{"type":"Point","coordinates":[136.8952137,37.2568]},"properties":{"name":"hokuriku junction 37.2568:136.8952:66","vn_kv":66.0,"vm_pu":0.9978,"va_deg":-62.73}},{"type":"Feature","geometry":{"type":"Point","coordinates":[136.8692534,35.5044811]},"properties":{"name":"hokuriku junction 35.5045:136.8693:0","vn_kv":77.0,"vm_pu":1.0104,"va_deg":-35.42}},{"type":"Feature","geometry":{"type":"Point","coordinates":[137.81512095833332,37.024389649999996]},"properties":{"name":"\u7cf8\u9b5a\u5ddd\u5e02\u5909\u96fb\u6240","vn_kv":77.0,"vm_pu":0.9978,"va_deg":-45.86}},{"type":"Feature","geometry":{"type":"Point","coordinates":[137.8159705,37.025354400000005]},"properties":{"name":"\u7cf8\u9b5a\u5ddd\u5e02\u5909\u96fb\u6240_2","vn_kv":77.0,"vm_pu":0.9975,"va_deg":-45.7}},{"type":"Feature","geometry":{"type":"Point","coordinates":[136.8931163090909,37.24062938181818]},"properties":{"name":"\u4e0a\u91ce\u5909\u96fb\u6240_2 154kV","vn_kv":154.0,"vm_pu":0.9767,"va_deg":-56.01}},{"type":"Feature","geometry":{"type":"Point","coordinates":[136.8931163090909,37.24062938181818]},"properties":{"name":"\u4e0a\u91ce\u5909\u96fb\u6240_2 66kV","vn_kv":66.0,"vm_pu":0.9978,"va_deg":-62.73}},{"type":"Feature","geometry":{"type":"Point","coordinates":[136.91060894166665,37.23151869166667]},"properties":{"name":"\u5317\u9678\u96fb\u529b\u7a74\u6c34\u5909\u96fb\u6240","vn_kv":66.0,"vm_pu":1.0,"va_deg":-63.09}},{"type":"Feature","geometry":{"type":"Point","coordinates":[137.8406573466667,37.02474536666667]},"properties":{"name":"\u5927\u5b57\u9808\u6ca2\u5909\u96fb\u6240","vn_kv":77.0,"vm_pu":1.0,"va_deg":-43.03}},{"type":"Feature","geometry":{"type":"Point","coordinates":[137.44623947999997,36.57891677]},"properties":{"name":"\u5bcc\u5c71\u5e02\u5909\u96fb\u6240_3","vn_kv":77.0,"vm_pu":0.9996,"va_deg":-39.5}},{"type":"Feature","geometry":{"type":"Point","coordinates":[136.96737845714284,37.03472145714286]},"properties":{"name":"\u4e03\u5c3e\u5909\u96fb\u6240","vn_kv":66.0,"vm_pu":1.0,"va_deg":-51.07}},{"type":"Feature","geometry":{"type":"Point","coordinates":[136.75825909,37.07119874]},"properties":{"name":"\u82e5\u8449\u53f0\u5909\u96fb\u6240 500kV","vn_kv":500.0,"vm_pu":1.0303,"va_deg":-33.95}},{"type":"Feature","geometry":{"type":"Point","coordinates":[136.75825909,37.07119874]},"properties":{"name":"\u82e5\u8449\u53f0\u5909\u96fb\u6240 275kV","vn_kv":275.0,"vm_pu":1.0201,"va_deg":-36.79}},{"type":"Feature","geometry":{"type":"Point","coordinates":[136.75825909,37.07119874]},"properties":{"name":"\u82e5\u8449\u53f0\u5909\u96fb\u6240 66kV","vn_kv":66.0,"vm_pu":1.0,"va_deg":-39.94}},{"type":"Feature","geometry":{"type":"Point","coordinates":[137.791794225,37.010303555]},"properties":{"name":"\u5927\u5b57\u9752\u6d77\u5909\u96fb\u6240 66kV","vn_kv":66.0,"vm_pu":1.0,"va_deg":-45.99}},{"type":"Feature","geometry":{"type":"Point","coordinates":[137.791794225,37.010303555]},"properties":{"name":"\u5927\u5b57\u9752\u6d77\u5909\u96fb\u6240 (untyped)","vn_kv":66.0,"vm_pu":0.9991,"va_deg":-45.98}},{"type":"Feature","geometry":{"type":"Point","coordinates":[136.96556135999998,37.03512624]},"properties":{"name":"\u4e03\u5c3e\u5909\u96fb\u6240","vn_kv":66.0,"vm_pu":1.0,"va_deg":-51.16}},{"type":"Feature","geometry":{"type":"Point","coordinates":[137.25496418,37.43359976]},"properties":{"name":"\u4e0a\u6238\u753a\u5317\u65b9\u5909\u96fb\u6240","vn_kv":66.0,"vm_pu":0.9992,"va_deg":-102.6}},{"type":"Feature","geometry":{"type":"Point","coordinates":[137.2555682,37.43260524444444]},"properties":{"name":"\u5317\u9678\u96fb\u529b\u9001\u914d\u96fb\u3000\u98ef\u7530\u5909\u96fb\u6240","vn_kv":66.0,"vm_pu":1.0,"va_deg":-102.66}},{"type":"Feature","geometry":{"type":"Point","coordinates":[136.90290808,37.38944882]},"properties":{"name":"\u6cb3\u4e95\u753a\u5909\u96fb\u6240","vn_kv":66.0,"vm_pu":0.9345,"va_deg":-69.51}},{"type":"Feature","geometry":{"type":"Point","coordinates":[136.92964083333334,37.073569525]},"properties":{"name":"\u77f3\u5d0e\u753a\u5909\u96fb\u6240","vn_kv":66.0,"vm_pu":1.0,"va_deg":-50.36}},{"type":"Feature","geometry":{"type":"Point","coordinates":[136.79030313333334,37.29380172222223]},"properties":{"name":"\u9580\u524d\u753a\u7530\u6751\u5909\u96fb\u6240","vn_kv":66.0,"vm_pu":0.8968,"va_deg":-72.76}},{"type":"Feature","geometry":{"type":"Point","coordinates":[136.78954865999998,37.29307718]},"properties":{"name":"\u9580\u524d\u753a\u7530\u6751\u5909\u96fb\u6240_2","vn_kv":66.0,"vm_pu":0.8977,"va_deg":-72.65}},{"type":"Feature","geometry":{"type":"Point","coordinates":[137.23214392857145,37.342794485714286]},"properties":{"name":"\u4e0a\u6771\u5909\u96fb\u6240","vn_kv":66.0,"vm_pu":1.0,"va_deg":-95.11}},{"type":"Feature","geometry":{"type":"Point","coordinates":[137.031279125,37.2666544875]},"properties":{"name":"\u80fd\u767b\u753a\u5909\u96fb\u6240","vn_kv":66.0,"vm_pu":0.9542,"va_deg":-71.31}},{"type":"Feature","geometry":{"type":"Point","coordinates":[137.14596108571428,37.30844642857143]},"properties":{"name":"\u5b87\u51fa\u6d25\u65b0\u5909\u96fb\u6240","vn_kv":66.0,"vm_pu":0.9375,"va_deg":-78.55}},{"type":"Feature","geometry":{"type":"Point","coordinates":[136.73501601428572,37.14194101428571]},"properties":{"name":"\u5bcc\u6765\u5730\u982d\u753a\u5909\u96fb\u6240","vn_kv":66.0,"vm_pu":0.9789,"va_deg":-42.41}},{"type":"Feature","geometry":{"type":"Point","coordinates":[136.75044872857143,37.07490307142857]},"properties":{"name":"\u82e5\u8449\u53f0\u5909\u96fb\u6240_2 500kV","vn_kv":500.0,"vm_pu":1.0301,"va_deg":-33.95}},{"type":"Feature","geometry":{"type":"Point","coordinates":[136.75044872857143,37.07490307142857]},"properties":{"name":"\u82e5\u8449\u53f0\u5909\u96fb\u6240_2 66kV","vn_kv":66.0,"vm_pu":1.0,"va_deg":-39.89}},{"type":"Feature","geometry":{"type":"Point","coordinates":[136.73971687142858,37.06962082857143]},"properties":{"name":"\u5fd7\u8cc0\u753a\u5909\u96fb\u6240 500kV","vn_kv":500.0,"vm_pu":1.03,"va_deg":-33.93}},{"type":"Feature","geometry":{"type":"Point","coordinates":[136.73971687142858,37.06962082857143]},"properties":{"name":"\u5fd7\u8cc0\u753a\u5909\u96fb\u6240 275kV","vn_kv":275.0,"vm_pu":1.0201,"va_deg":-36.78}},{"type":"Feature","geometry":{"type":"Point","coordinates":[136.73971687142858,37.06962082857143]},"properties":{"name":"\u5fd7\u8cc0\u753a\u5909\u96fb\u6240 66kV","vn_kv":66.0,"vm_pu":1.0005,"va_deg":-39.92}},{"type":"Feature","geometry":{"type":"Point","coordinates":[137.00730356,37.065427220000004]},"properties":{"name":"\u5927\u7530\u753a\u5909\u96fb\u6240","vn_kv":275.0,"vm_pu":1.02,"va_deg":-37.38}},{"type":"Feature","geometry":{"type":"Point","coordinates":[137.00732268235294,37.06529045294118]},"properties":{"name":"\u5927\u7530\u753a\u5909\u96fb\u6240_2","vn_kv":275.0,"vm_pu":1.02,"va_deg":-37.38}}]}