{"type":"FeatureCollection","features":[{"type":"Feature","geometry":{"type":"Point","coordinates":[127.7022739,26.1787648]},"properties":{"name":"okinawa junction 26.1788:127.7023:66","vn_kv":66.0,"vm_pu":0.9968,"va_deg":-5.71}},{"type":"Feature","geometry":{"type":"Point","coordinates":[127.9182225,26.4469446]},"properties":{"name":"okinawa junction 26.4469:127.9182:66","vn_kv":66.0,"vm_pu":0.9992,"va_deg":-45.2}},{"type":"Feature","geometry":{"type":"Point","coordinates":[127.9713676,26.5362113]},"properties":{"name":"okinawa junction 26.5362:127.9714:66","vn_kv":66.0,"vm_pu":0.9352,"va_deg":-35.13}},{"type":"Feature","geometry":{"type":"Point","coordinates":[127.9728186,26.5337793]},"properties":{"name":"okinawa junction 26.5338:127.9728:66","vn_kv":66.0,"vm_pu":0.9352,"va_deg":-35.13}},{"type":"Feature","geometry":{"type":"Point","coordinates":[127.9180214,26.4470407]},"properties":{"name":"okinawa junction 26.447:127.918:132","vn_kv":132.0,"vm_pu":1.01,"va_deg":1.59}},{"type":"Feature","geometry":{"type":"Point","coordinates":[127.737101,26.1633995]},"properties":{"name":"okinawa junction 26.1634:127.7371:66","vn_kv":66.0,"vm_pu":0.9986,"va_deg":-5.54}},{"type":"Feature","geometry":{"type":"Point","coordinates":[127.9316604,26.6764793]},"properties":{"name":"okinawa junction 26.6765:127.9317:66","vn_kv":66.0,"vm_pu":0.9942,"va_deg":-46.13}},{"type":"Feature","geometry":{"type":"Point","coordinates":[127.9645604,26.636723]},"properties":{"name":"okinawa junction 26.6367:127.9646:66","vn_kv":66.0,"vm_pu":0.9759,"va_deg":-44.42}},{"type":"Feature","geometry":{"type":"Point","coordinates":[127.7958012,26.275044]},"properties":{"name":"okinawa junction 26.275:127.7958:66","vn_kv":66.0,"vm_pu":1.0005,"va_deg":-1.72}},{"type":"Feature","geometry":{"type":"Point","coordinates":[127.8382927,26.3430638]},"properties":{"name":"okinawa junction 26.3431:127.8383:66","vn_kv":66.0,"vm_pu":1.01,"va_deg":-0.0}},{"type":"Feature","geometry":{"type":"Point","coordinates":[127.8538629,26.3300016]},"properties":{"name":"okinawa junction 26.33:127.8539:66","vn_kv":66.0,"vm_pu":1.01,"va_deg":-0.0}},{"type":"Feature","geometry":{"type":"Point","coordinates":[127.8518888,26.3537717]},"properties":{"name":"okinawa junction 26.3538:127.8519:132","vn_kv":132.0,"vm_pu":1.01,"va_deg":0.0}},{"type":"Feature","geometry":{"type":"Point","coordinates":[127.8510413,26.3513802]},"properties":{"name":"okinawa junction 26.3514:127.851:66","vn_kv":66.0,"vm_pu":1.0098,"va_deg":-0.02}},{"type":"Feature","geometry":{"type":"Point","coordinates":[127.9548588,26.6600127]},"properties":{"name":"okinawa junction 26.66:127.9549:66","vn_kv":66.0,"vm_pu":0.9838,"va_deg":-45.45}},{"type":"Feature","geometry":{"type":"Point","coordinates":[128.2669587,26.6714748]},"properties":{"name":"okinawa junction 26.6715:128.267:0","vn_kv":66.0,"vm_pu":1.0001,"va_deg":-46.89}},{"type":"Feature","geometry":{"type":"Point","coordinates":[127.7645641,26.3673173]},"properties":{"name":"okinawa junction 26.3673:127.7646:132","vn_kv":132.0,"vm_pu":1.01,"va_deg":0.06}},{"type":"Feature","geometry":{"type":"Point","coordinates":[127.6832603,26.2182044]},"properties":{"name":"\u4e45\u8302\u5730\u4e8c\u4e01\u76ee\u5909\u96fb\u6240","vn_kv":66.0,"vm_pu":0.9957,"va_deg":-5.72}},{"type":"Feature","geometry":{"type":"Point","coordinates":[127.8722359,26.4597375]},"properties":{"name":"\u4f0a\u82b8\u5909\u96fb\u6240","vn_kv":132.0,"vm_pu":1.01,"va_deg":1.59}},{"type":"Feature","geometry":{"type":"Point","coordinates":[127.88084498333335,26.6921851]},"properties":{"name":"\u6d77\u6d0b\u535a\u5909\u96fb\u6240","vn_kv":66.0,"vm_pu":1.0,"va_deg":-46.62}},{"type":"Feature","geometry":{"type":"Point","coordinates":[127.67452473333333,26.19080983888889]},"properties":{"name":"\u5c0f\u7984\u5909\u96fb\u6240","vn_kv":66.0,"vm_pu":0.9965,"va_deg":-5.74}},{"type":"Feature","geometry":{"type":"Point","coordinates":[127.71293817777779,26.1986037]},"properties":{"name":"\u4e0a\u9593\u5909\u96fb\u6240","vn_kv":66.0,"vm_pu":0.9964,"va_deg":-5.76}},{"type":"Feature","geometry":{"type":"Point","coordinates":[127.73242752307692,26.1816581]},"properties":{"name":"\u5357\u98a8\u539f\u5909\u96fb\u6240 132kV","vn_kv":132.0,"vm_pu":1.0084,"va_deg":-1.8}},{"type":"Feature","geometry":{"type":"Point","coordinates":[127.73242752307692,26.1816581]},"properties":{"name":"\u5357\u98a8\u539f\u5909\u96fb\u6240 66kV","vn_kv":66.0,"vm_pu":1.0063,"va_deg":-2.39}},{"type":"Feature","geometry":{"type":"Point","coordinates":[127.75140372000001,26.12800266]},"properties":{"name":"\u9577\u6bdb\u5909\u96fb\u6240","vn_kv":66.0,"vm_pu":1.0,"va_deg":-5.84}},{"type":"Feature","geometry":{"type":"Point","coordinates":[127.7556547,26.285685820000005]},"properties":{"name":"\u4f0a\u4f50\u4e00\u4e01\u76ee\u5909\u96fb\u6240 132kV","vn_kv":132.0,"vm_pu":1.0097,"va_deg":-1.26}},{"type":"Feature","geometry":{"type":"Point","coordinates":[127.7556547,26.285685820000005]},"properties":{"name":"\u4f0a\u4f50\u4e00\u4e01\u76ee\u5909\u96fb\u6240 66kV","vn_kv":66.0,"vm_pu":1.0076,"va_deg":-1.85}},{"type":"Feature","geometry":{"type":"Point","coordinates":[127.81519551428572,26.433013814285715]},"properties":{"name":"\u4ef2\u6cca\u5909\u96fb\u6240 132kV","vn_kv":132.0,"vm_pu":1.0099,"va_deg":0.19}},{"type":"Feature","geometry":{"type":"Point","coordinates":[127.81519551428572,26.433013814285715]},"properties":{"name":"\u4ef2\u6cca\u5909\u96fb\u6240 66kV","vn_kv":66.0,"vm_pu":1.0078,"va_deg":-0.4}},{"type":"Feature","geometry":{"type":"Point","coordinates":[127.75597053333333,26.28592226666667]},"properties":{"name":"\u4f0a\u4f50\u4e00\u4e01\u76ee\u5909\u96fb\u6240_2 132kV","vn_kv":132.0,"vm_pu":1.0097,"va_deg":-1.25}},{"type":"Feature","geometry":{"type":"Point","coordinates":[127.75597053333333,26.28592226666667]},"properties":{"name":"\u4f0a\u4f50\u4e00\u4e01\u76ee\u5909\u96fb\u6240_2 66kV","vn_kv":66.0,"vm_pu":1.0076,"va_deg":-1.85}},{"type":"Feature","geometry":{"type":"Point","coordinates":[127.68647935714286,26.227339642857142]},"properties":{"name":"\u6cca\u5909\u96fb\u6240","vn_kv":66.0,"vm_pu":0.9963,"va_deg":-5.56}},{"type":"Feature","geometry":{"type":"Point","coordinates":[127.6835070375,26.219869850000002]},"properties":{"name":"\u4e45\u8302\u5730\u5909\u96fb\u6240","vn_kv":66.0,"vm_pu":0.9957,"va_deg":-5.7}},{"type":"Feature","geometry":{"type":"Point","coordinates":[128.03434056666666,26.52546175]},"properties":{"name":"Henoko Substation","vn_kv":66.0,"vm_pu":1.0,"va_deg":-45.09}},{"type":"Feature","geometry":{"type":"Point","coordinates":[127.68021178000001,26.221735920000004]},"properties":{"name":"\u897f\u90a3\u8987\u5909\u96fb\u6240","vn_kv":66.0,"vm_pu":0.9956,"va_deg":-5.72}},{"type":"Feature","geometry":{"type":"Point","coordinates":[127.66236887272727,26.16422818181818]},"properties":{"name":"\u6c96\u7e04\u96fb\u529b\u4e0e\u6839\u5909\u96fb\u6240","vn_kv":66.0,"vm_pu":0.9943,"va_deg":-6.08}},{"type":"Feature","geometry":{"type":"Point","coordinates":[127.99921683333334,26.515583449999998]},"properties":{"name":"Kushi Water Purification Plant Substation","vn_kv":66.0,"vm_pu":0.9993,"va_deg":-45.18}},{"type":"Feature","geometry":{"type":"Point","coordinates":[127.99272556666666,26.508785083333333]},"properties":{"name":"\u677e\u7530\u5909\u96fb\u6240","vn_kv":66.0,"vm_pu":0.9991,"va_deg":-45.2}},{"type":"Feature","geometry":{"type":"Point","coordinates":[127.98761675714286,26.610302938095238]},"properties":{"name":"\u540d\u8b77\u96fb\u529b\u6240","vn_kv":66.0,"vm_pu":0.972,"va_deg":-43.32}},{"type":"Feature","geometry":{"type":"Point","coordinates":[127.826339115,26.391921294999996]},"properties":{"name":"\u3046\u308b\u307e\u5e02\u5909\u96fb\u6240 132kV","vn_kv":132.0,"vm_pu":1.0099,"va_deg":0.06}},{"type":"Feature","geometry":{"type":"Point","coordinates":[127.826339115,26.391921294999996]},"properties":{"name":"\u3046\u308b\u307e\u5e02\u5909\u96fb\u6240 66kV","vn_kv":66.0,"vm_pu":1.0078,"va_deg":-0.53}},{"type":"Feature","geometry":{"type":"Point","coordinates":[127.8115115,26.304452716666663]},"properties":{"name":"\u6e21\u53e3\u5909\u96fb\u6240 132kV","vn_kv":132.0,"vm_pu":1.01,"va_deg":-1.27}},{"type":"Feature","geometry":{"type":"Point","coordinates":[127.8115115,26.304452716666663]},"properties":{"name":"\u6e21\u53e3\u5909\u96fb\u6240 66kV","vn_kv":66.0,"vm_pu":1.0,"va_deg":-1.72}},{"type":"Feature","geometry":{"type":"Point","coordinates":[127.74757690555556,26.204024261111112]},"properties":{"name":"\u4e0e\u90a3\u539f\u5909\u96fb\u6240","vn_kv":132.0,"vm_pu":1.0084,"va_deg":-1.79}},{"type":"Feature","geometry":{"type":"Point","coordinates":[127.66402353181819,26.206119954545454]},"properties":{"name":"\u90a3\u8987\u5909\u96fb\u6240","vn_kv":66.0,"vm_pu":0.9962,"va_deg":-5.77}},{"type":"Feature","geometry":{"type":"Point","coordinates":[127.70907395,26.25931435]},"properties":{"name":"\u6e2f\u5ddd\u5909\u96fb\u6240","vn_kv":66.0,"vm_pu":0.9989,"va_deg":-5.11}},{"type":"Feature","geometry":{"type":"Point","coordinates":[127.71931157692308,26.26866336923077]},"properties":{"name":"\u7267\u6e2f\u4e94\u4e01\u76ee\u5909\u96fb\u6240 132kV","vn_kv":132.0,"vm_pu":1.01,"va_deg":-1.52}},{"type":"Feature","geometry":{"type":"Point","coordinates":[127.71931157692308,26.26866336923077]},"properties":{"name":"\u7267\u6e2f\u4e94\u4e01\u76ee\u5909\u96fb\u6240 66kV","vn_kv":66.0,"vm_pu":0.9993,"va_deg":-5.05}},{"type":"Feature","geometry":{"type":"Point","coordinates":[127.78165586666667,26.307242244444446]},"properties":{"name":"\u745e\u6176\u89a7\u5909\u96fb\u6240 132kV","vn_kv":132.0,"vm_pu":1.0096,"va_deg":-1.08}},{"type":"Feature","geometry":{"type":"Point","coordinates":[127.78165586666667,26.307242244444446]},"properties":{"name":"\u745e\u6176\u89a7\u5909\u96fb\u6240 66kV","vn_kv":66.0,"vm_pu":1.0005,"va_deg":-1.72}},{"type":"Feature","geometry":{"type":"Point","coordinates":[127.8069393625,26.3543070625]},"properties":{"name":"\u7f8e\u91cc\u516d\u4e01\u76ee\u5909\u96fb\u6240","vn_kv":132.0,"vm_pu":1.01,"va_deg":-0.29}},{"type":"Feature","geometry":{"type":"Point","coordinates":[127.8345942875,26.441843075]},"properties":{"name":"\u77f3\u5ddd\u6771\u5c71\u4e00\u4e01\u76ee\u5909\u96fb\u6240 132kV","vn_kv":132.0,"vm_pu":1.01,"va_deg":0.35}},{"type":"Feature","geometry":{"type":"Point","coordinates":[127.8345942875,26.441843075]},"properties":{"name":"\u77f3\u5ddd\u6771\u5c71\u4e00\u4e01\u76ee\u5909\u96fb\u6240 66kV","vn_kv":66.0,"vm_pu":0.9919,"va_deg":-4.63}},{"type":"Feature","geometry":{"type":"Point","coordinates":[127.83872885000001,26.44281275]},"properties":{"name":"\u77f3\u5ddd\u6771\u5c71\u4e8c\u4e01\u76ee\u5909\u96fb\u6240 132kV","vn_kv":132.0,"vm_pu":1.01,"va_deg":0.52}},{"type":"Feature","geometry":{"type":"Point","coordinates":[127.83872885000001,26.44281275]},"properties":{"name":"\u77f3\u5ddd\u6771\u5c71\u4e8c\u4e01\u76ee\u5909\u96fb\u6240 66kV","vn_kv":66.0,"vm_pu":0.9916,"va_deg":-4.67}},{"type":"Feature","geometry":{"type":"Point","coordinates":[127.74284722,26.243005410000002]},"properties":{"name":"\u524d\u7530\u5909\u96fb\u6240 132kV","vn_kv":132.0,"vm_pu":1.0094,"va_deg":-1.6}},{"type":"Feature","geometry":{"type":"Point","coordinates":[127.74284722,26.243005410000002]},"properties":{"name":"\u524d\u7530\u5909\u96fb\u6240 66kV","vn_kv":66.0,"vm_pu":1.0073,"va_deg":-2.19}},{"type":"Feature","geometry":{"type":"Point","coordinates":[127.77264026,26.23184748]},"properties":{"name":"\u5c0f\u90a3\u8987\u5909\u96fb\u6240 132kV","vn_kv":132.0,"vm_pu":1.0091,"va_deg":-1.63}},{"type":"Feature","geometry":{"type":"Point","coordinates":[127.77264026,26.23184748]},"properties":{"name":"\u5c0f\u90a3\u8987\u5909\u96fb\u6240 66kV","vn_kv":66.0,"vm_pu":1.0,"va_deg":-2.18}},{"type":"Feature","geometry":{"type":"Point","coordinates":[127.71922808888888,26.165907322222225]},"properties":{"name":"\u53cb\u5bc4\u5909\u96fb\u6240 132kV","vn_kv":132.0,"vm_pu":1.0083,"va_deg":-1.83}},{"type":"Feature","geometry":{"type":"Point","coordinates":[127.71922808888888,26.165907322222225]},"properties":{"name":"\u53cb\u5bc4\u5909\u96fb\u6240 66kV","vn_kv":66.0,"vm_pu":0.9986,"va_deg":-5.54}},{"type":"Feature","geometry":{"type":"Point","coordinates":[127.78758017777778,26.159644166666666]},"properties":{"name":"\u4f50\u6577\u5909\u96fb\u6240","vn_kv":66.0,"vm_pu":1.0,"va_deg":-6.41}},{"type":"Feature","geometry":{"type":"Point","coordinates":[127.9065965125,26.657140725]},"properties":{"name":"\u6771\u5909\u96fb\u6240","vn_kv":66.0,"vm_pu":1.0,"va_deg":-46.43}},{"type":"Feature","geometry":{"type":"Point","coordinates":[127.69219661428572,26.135709471428573]},"properties":{"name":"\u5927\u91cc\u5909\u96fb\u6240","vn_kv":66.0,"vm_pu":0.9956,"va_deg":-5.92}},{"type":"Feature","geometry":{"type":"Point","coordinates":[128.1295278,26.6574367875]},"properties":{"name":"\u7530\u6e2f\u5909\u96fb\u6240 66kV","vn_kv":66.0,"vm_pu":1.0,"va_deg":-46.88}},{"type":"Feature","geometry":{"type":"Point","coordinates":[128.1295278,26.6574367875]},"properties":{"name":"\u7530\u6e2f\u5909\u96fb\u6240 (untyped)","vn_kv":66.0,"vm_pu":1.0,"va_deg":-46.89}},{"type":"Feature","geometry":{"type":"Point","coordinates":[127.88066141538462,26.3317601]},"properties":{"name":"\u5ddd\u7530\u5909\u96fb\u6240","vn_kv":66.0,"vm_pu":1.0092,"va_deg":-0.11}},{"type":"Feature","geometry":{"type":"Point","coordinates":[127.87361114000001,26.38122156]},"properties":{"name":"\u5b87\u5805\u5909\u96fb\u6240","vn_kv":132.0,"vm_pu":1.01,"va_deg":0.32}},{"type":"Feature","geometry":{"type":"Point","coordinates":[127.85296248571429,26.393099142857146]},"properties":{"name":"\u77f3\u5ddd\u6771\u6069\u7d0d\u5909\u96fb\u6240 132kV","vn_kv":132.0,"vm_pu":1.0099,"va_deg":0.22}},{"type":"Feature","geometry":{"type":"Point","coordinates":[127.85296248571429,26.393099142857146]},"properties":{"name":"\u77f3\u5ddd\u6771\u6069\u7d0d\u5909\u96fb\u6240 66kV","vn_kv":66.0,"vm_pu":1.0079,"va_deg":-0.37}},{"type":"Feature","geometry":{"type":"Point","coordinates":[127.97858872857144,26.674391042857142]},"properties":{"name":"\u4ef2\u5b97\u6839\u5909\u96fb\u6240","vn_kv":66.0,"vm_pu":0.9826,"va_deg":-45.6}},{"type":"Feature","geometry":{"type":"Point","coordinates":[127.93694794999999,26.611571683333334]},"properties":{"name":"\u5c71\u5165\u7aef\u5909\u96fb\u6240","vn_kv":66.0,"vm_pu":0.9731,"va_deg":-44.77}},{"type":"Feature","geometry":{"type":"Point","coordinates":[127.99077056666667,26.587020222222222]},"properties":{"name":"\u540d\u8b77\u5e02\u5909\u96fb\u6240","vn_kv":66.0,"vm_pu":0.9713,"va_deg":-43.09}},{"type":"Feature","geometry":{"type":"Point","coordinates":[127.93961664000001,26.535644689999998]},"properties":{"name":"\u559c\u702c\u5909\u96fb\u6240","vn_kv":66.0,"vm_pu":0.9255,"va_deg":-31.54}},{"type":"Feature","geometry":{"type":"Point","coordinates":[127.82627025833334,26.456100683333332]},"properties":{"name":"\u6069\u7d0d\u6751\u5909\u96fb\u6240","vn_kv":66.0,"vm_pu":0.9913,"va_deg":-4.71}},{"type":"Feature","geometry":{"type":"Point","coordinates":[127.82292558888889,26.4118603]},"properties":{"name":"\u77f3\u5ddd\u66d9\u4e09\u4e01\u76ee\u5909\u96fb\u6240","vn_kv":132.0,"vm_pu":1.0099,"va_deg":0.06}},{"type":"Feature","geometry":{"type":"Point","coordinates":[127.75916895217391,26.23577952173913]},"properties":{"name":"\u897f\u539f\u5909\u96fb\u6240 132kV","vn_kv":132.0,"vm_pu":1.0091,"va_deg":-1.64}},{"type":"Feature","geometry":{"type":"Point","coordinates":[127.75916895217391,26.23577952173913]},"properties":{"name":"\u897f\u539f\u5909\u96fb\u6240 66kV","vn_kv":66.0,"vm_pu":1.0001,"va_deg":-2.18}},{"type":"Feature","geometry":{"type":"Point","coordinates":[127.68764318333335,26.175396316666667]},"properties":{"name":"\u4e0a\u7530\u5909\u96fb\u6240","vn_kv":66.0,"vm_pu":0.9968,"va_deg":-5.71}},{"type":"Feature","geometry":{"type":"Point","coordinates":[127.70300098571428,26.229641828571427]},"properties":{"name":"\u5317\u90a3\u8987\u5909\u96fb\u6240","vn_kv":66.0,"vm_pu":0.9969,"va_deg":-5.36}},{"type":"Feature","geometry":{"type":"Point","coordinates":[127.67995471428571,26.20854825714286]},"properties":{"name":"\u58f7\u5ddd\u5909\u96fb\u6240","vn_kv":66.0,"vm_pu":0.9959,"va_deg":-5.78}},{"type":"Feature","geometry":{"type":"Point","coordinates":[127.688380725,26.241629425]},"properties":{"name":"\u66d9\u5909\u96fb\u6240","vn_kv":66.0,"vm_pu":0.9983,"va_deg":-5.2}},{"type":"Feature","geometry":{"type":"Point","coordinates":[127.6898627,26.2017538]},"properties":{"name":"\u53e4\u6ce2\u8535\u4e00\u4e01\u76ee\u5909\u96fb\u6240","vn_kv":66.0,"vm_pu":0.9949,"va_deg":-5.9}},{"type":"Feature","geometry":{"type":"Point","coordinates":[127.75352676,26.23686292]},"properties":{"name":"\u6d25\u82b1\u6ce2\u5909\u96fb\u6240","vn_kv":132.0,"vm_pu":1.0093,"va_deg":-1.62}},{"type":"Feature","geometry":{"type":"Point","coordinates":[127.81938098,26.174096580000004]},"properties":{"name":"\u77e5\u5ff5\u4e45\u624b\u5805\u5909\u96fb\u6240","vn_kv":66.0,"vm_pu":0.9972,"va_deg":-6.77}},{"type":"Feature","geometry":{"type":"Point","coordinates":[127.65853901999999,26.194423719999996]},"properties":{"name":"\u8d64\u5dba\u5909\u96fb\u6240","vn_kv":66.0,"vm_pu":0.995,"va_deg":-5.91}},{"type":"Feature","geometry":{"type":"Point","coordinates":[127.75687207142857,26.3255255]},"properties":{"name":"\u7f8e\u6d5c\u4e09\u4e01\u76ee\u5909\u96fb\u6240","vn_kv":66.0,"vm_pu":1.0071,"va_deg":-1.4}},{"type":"Feature","geometry":{"type":"Point","coordinates":[127.72365649999999,26.232293557142857]},"properties":{"name":"\u9996\u91cc\u5927\u540d\u753a\u4e09\u4e01\u76ee\u5909\u96fb\u6240","vn_kv":66.0,"vm_pu":0.9952,"va_deg":-5.57}},{"type":"Feature","geometry":{"type":"Point","coordinates":[127.68647898333334,26.22736865]},"properties":{"name":"\u4e0a\u4e4b\u5c4b\u4e00\u4e01\u76ee\u5909\u96fb\u6240","vn_kv":66.0,"vm_pu":0.9967,"va_deg":-5.48}}]}