{"type":"FeatureCollection","features":[{"type":"Feature","geometry":{"type":"LineString","coordinates":[[127.6698211,26.1977719],[127.6698647,26.1992819]]},"properties":{"name":"okinawa_line_0","loading_pct":87.0,"p_mw":-119.3,"synthetic":false,"tie":false}},{"type":"Feature","geometry":{"type":"LineString","coordinates":[[127.6851357,26.1863202],[127.6865868,26.1858046]]},"properties":{"name":"okinawa_line_1","loading_pct":88.4,"p_mw":101.3,"synthetic":false,"tie":false}},{"type":"Feature","geometry":{"type":"LineString","coordinates":[[127.6718532,26.2044745],[127.6728806,26.2051518]]},"properties":{"name":"okinawa_line_2","loading_pct":85.3,"p_mw":-155.3,"synthetic":false,"tie":false}},{"type":"Feature","geometry":{"type":"LineString","coordinates":[[127.7024737,26.177104],[127.7022739,26.1787648]]},"properties":{"name":"okinawa_line_3","loading_pct":26.2,"p_mw":18.0,"synthetic":false,"tie":false}},{"type":"Feature","geometry":{"type":"LineString","coordinates":[[127.6991467,26.1834143],[127.6998049,26.1837041],[127.7012587,26.1840482],[127.7024909,26.1843433],[127.7045605,26.1852012],[127.7056172,26.1856465],[127.7066848,26.1860821],[127.7081519,26.1869221]]},"properties":{"name":"okinawa_line_4","loading_pct":52.5,"p_mw":36.0,"synthetic":false,"tie":false}},{"type":"Feature","geometry":{"type":"LineString","coordinates":[[127.7250493,26.2556281],[127.7234378,26.2567159]]},"properties":{"name":"okinawa_line_6","loading_pct":69.3,"p_mw":-190.1,"synthetic":false,"tie":false}},{"type":"Feature","geometry":{"type":"LineString","coordinates":[[127.7182893,26.2101681],[127.7196868,26.2110537]]},"properties":{"name":"okinawa_line_10","loading_pct":26.2,"p_mw":18.0,"synthetic":false,"tie":false}},{"type":"Feature","geometry":{"type":"LineString","coordinates":[[127.6828587,26.1439871],[127.6799834,26.1449357],[127.6791438,26.1463058],[127.6784062,26.1498162],[127.6764214,26.1515256],[127.6756597,26.1533819],[127.6733637,26.1539405]]},"properties":{"name":"okinawa_line_14","loading_pct":52.5,"p_mw":36.0,"synthetic":false,"tie":false}},{"type":"Feature","geometry":{"type":"LineString","coordinates":[[127.7382132,26.1934251],[127.7390383,26.1943346]]},"properties":{"name":"okinawa_line_15","loading_pct":88.4,"p_mw":-121.2,"synthetic":false,"tie":false}},{"type":"Feature","geometry":{"type":"LineString","coordinates":[[127.9182225,26.4469446],[127.9184538,26.4472223],[127.9189822,26.4483751],[127.9191753,26.4495806],[127.91884,26.4515642],[127.9191163,26.4534805],[127.9187676,26.4553343],[127.9212272,26.4562684],[127.9232227,26.4575267],[127.9245397,26.4587058],[127.9270985,26.4590659],[127.9294455,26.4599208],[127.9300597,26.4623532],[127.9304439,26.4650427],[127.9317662,26.4669108],[127.9328887,26.4692686],[127.9334567,26.4721408],[127.9337101,26.4738791],[127.9339471,26.4756764],[127.9351948,26.477696],[127.9377561,26.4789524],[127.9404361,26.48027],[127.9431288,26.4813829],[127.9465059,26.4834624],[127.9487449,26.4848562],[127.9527898,26.4874652],[127.9549095,26.4887101],[127.9567953,26.4900234],[127.9594739,26.4919073],[127.9628713,26.4928437],[127.9657591,26.4936524],[127.9678837,26.4948334],[127.9716676,26.4969485],[127.9751808,26.4989183],[127.9776402,26.5002248],[127.9804689,26.5017164]]},"properties":{"name":"okinawa_line_17","loading_pct":26.2,"p_mw":-18.0,"synthetic":false,"tie":false}},{"type":"Feature","geometry":{"type":"LineString","coordinates":[[127.9927095,26.5117648],[127.9949079,26.5152653]]},"properties":{"name":"okinawa_line_18","loading_pct":52.5,"p_mw":-36.0,"synthetic":false,"tie":false}},{"type":"Feature","geometry":{"type":"LineString","coordinates":[[127.9713676,26.5362113],[127.9718421,26.5350723],[127.9728186,26.5337793]]},"properties":{"name":"okinawa_line_19","loading_pct":26.2,"p_mw":-18.0,"synthetic":false,"tie":false}},{"type":"Feature","geometry":{"type":"LineString","coordinates":[[127.9728186,26.5337793],[127.971105,26.5327809],[127.9679159,26.5322434],[127.9658452,26.5334193],[127.9633856,26.5333833],[127.9617763,26.5333952],[127.9586488,26.5327905],[127.9562402,26.5317826],[127.9542915,26.5319297],[127.950629,26.5302804]]},"properties":{"name":"okinawa_line_20","loading_pct":80.0,"p_mw":-300.2,"synthetic":false,"tie":false}},{"type":"Feature","geometry":{"type":"LineString","coordinates":[[127.9728186,26.5337793],[127.9722151,26.5369792],[127.9738915,26.5390608],[127.9760105,26.5418395],[127.97866,26.5449706],[127.9796851,26.5467824],[127.9810369,26.5481261],[127.9830379,26.5499112],[127.9847987,26.5517107],[127.9859709,26.5537165],[127.9868935,26.5547506],[127.9886584,26.556778],[127.9887389,26.5593139],[127.9900934,26.5612452],[127.9916706,26.5634068],[127.9943957,26.5659186],[127.9955168,26.56838],[127.9976438,26.5709469],[127.997566,26.5734537],[127.9959031,26.5748115]]},"properties":{"name":"okinawa_line_21","loading_pct":80.0,"p_mw":264.3,"synthetic":false,"tie":false}},{"type":"Feature","geometry":{"type":"LineString","coordinates":[[128.0001962,26.5969314],[128.0000675,26.5990563]]},"properties":{"name":"okinawa_line_23","loading_pct":80.0,"p_mw":246.3,"synthetic":false,"tie":false}},{"type":"Feature","geometry":{"type":"LineString","coordinates":[[128.0000675,26.5990563],[127.9994076,26.6003226],[127.9988041,26.6013131]]},"properties":{"name":"okinawa_line_24","loading_pct":80.0,"p_mw":162.3,"synthetic":false,"tie":false}},{"type":"Feature","geometry":{"type":"LineString","coordinates":[[128.0000675,26.5990563],[128.0020952,26.5972431],[128.0035812,26.5947872],[128.0062365,26.5929836],[128.0089188,26.5911799],[128.0110645,26.5895537],[128.0127275,26.5883928],[128.0123252,26.5858455],[128.0116707,26.5833989],[128.0109787,26.5790669],[128.0117404,26.5764954],[128.0117083,26.5742021],[128.0097449,26.5712899],[128.0098093,26.5683392],[128.0099165,26.5649998],[128.0100399,26.5628838],[128.0105871,26.5599329],[128.0105603,26.5566508],[128.0119067,26.5546642],[128.0143154,26.5529895],[128.0178183,26.551526],[128.01961,26.5495105],[128.0223464,26.5469992],[128.0247184,26.545959],[128.0261466,26.5447604],[128.028506,26.5428118],[128.0298179,26.5418077],[128.0308738,26.5408896],[128.0323779,26.5394271],[128.0345982,26.537305]]},"properties":{"name":"okinawa_line_25","loading_pct":96.3,"p_mw":66.0,"synthetic":false,"tie":false}},{"type":"Feature","geometry":{"type":"LineString","coordinates":[[127.9180214,26.4470407],[127.9181689,26.4473289],[127.9162592,26.4481454],[127.9100606,26.4494229],[127.9069554,26.4531444],[127.9044914,26.4537411],[127.9014993,26.4539827],[127.8986102,26.4547973],[127.8964376,26.4557002],[127.894544,26.456531],[127.8922373,26.458015],[127.8905314,26.458284],[127.8886378,26.4585673],[127.8866422,26.4594222]]},"properties":{"name":"okinawa_line_26","loading_pct":4.6,"p_mw":-12.6,"synthetic":false,"tie":false}},{"type":"Feature","geometry":{"type":"LineString","coordinates":[[127.8586829,26.4602674],[127.85496,26.4590956],[127.8523529,26.4582936],[127.8497028,26.4556858],[127.8481954,26.4542546],[127.8467363,26.4526745]]},"properties":{"name":"okinawa_line_27","loading_pct":9.2,"p_mw":-25.2,"synthetic":false,"tie":false}},{"type":"Feature","geometry":{"type":"LineString","coordinates":[[127.832931,26.3818117],[127.8353906,26.3797476],[127.838451,26.3773327],[127.8372145,26.3756602],[127.8391966,26.3735744],[127.840873,26.370782],[127.8415221,26.367843],[127.8420076,26.3654447],[127.8426191,26.362592],[127.8446388,26.3604651],[127.8457949,26.359636],[127.8485709,26.3578455],[127.8509554,26.3556896],[127.8518888,26.3537717]]},"properties":{"name":"okinawa_line_33","loading_pct":27.9,"p_mw":-76.6,"synthetic":false,"tie":false}},{"type":"Feature","geometry":{"type":"LineString","coordinates":[[127.7996662,26.3448401],[127.7984565,26.3429316],[127.7975205,26.3415712],[127.7964047,26.339689],[127.7939692,26.3377372],[127.7911395,26.3372709],[127.7886558,26.3375617],[127.7863437,26.3351843],[127.7837098,26.3341339],[127.7814379,26.3328838],[127.7821031,26.330742],[127.7830821,26.3283284],[127.7841389,26.3261167],[127.7850804,26.3242055],[127.78629,26.3229193],[127.7878833,26.3220226],[127.7879369,26.3209576],[127.7872143,26.3194482]]},"properties":{"name":"okinawa_line_36","loading_pct":66.5,"p_mw":91.2,"synthetic":false,"tie":false}},{"type":"Feature","geometry":{"type":"LineString","coordinates":[[127.8094268,26.3162574],[127.8106096,26.3187097],[127.812911,26.3208037],[127.8147295,26.322501],[127.8156468,26.32378],[127.8172508,26.3250614],[127.8196809,26.3266672],[127.8220707,26.3284053],[127.8249031,26.3330233],[127.8257453,26.3352925],[127.8278348,26.3367636],[127.8294548,26.3387564],[127.833049,26.3401746],[127.834556,26.341034],[127.8370455,26.3422826],[127.8382927,26.3430638]]},"properties":{"name":"okinawa_line_38","loading_pct":58.0,"p_mw":-159.0,"synthetic":false,"tie":false}},{"type":"Feature","geometry":{"type":"LineString","coordinates":[[127.8116611,26.2914455],[127.8128573,26.290284],[127.8118381,26.2873045],[127.8111675,26.2853518],[127.8104004,26.2835265],[127.8112453,26.2829829],[127.8100839,26.2831489],[127.80826,26.2822062],[127.8059345,26.2809027],[127.8040838,26.2804385],[127.800023,26.277959],[127.798883,26.2771677],[127.7971047,26.2758233],[127.7958012,26.275044]]},"properties":{"name":"okinawa_line_39","loading_pct":80.0,"p_mw":219.5,"synthetic":false,"tie":false}},{"type":"Feature","geometry":{"type":"LineString","coordinates":[[127.8382927,26.3430638],[127.838687,26.3466597],[127.840063,26.3494382],[127.8426862,26.3509644],[127.8450733,26.3511952],[127.8474015,26.3513298],[127.8510413,26.3513802]]},"properties":{"name":"okinawa_line_40","loading_pct":69.1,"p_mw":-189.6,"synthetic":false,"tie":false}},{"type":"Feature","geometry":{"type":"LineString","coordinates":[[127.8104407,26.4177866],[127.810033,26.4206019]]},"properties":{"name":"okinawa_line_42","loading_pct":43.0,"p_mw":-59.0,"synthetic":false,"tie":false}},{"type":"Feature","geometry":{"type":"LineString","coordinates":[[127.8227225,26.4396006],[127.8253967,26.4418269]]},"properties":{"name":"okinawa_line_43","loading_pct":56.1,"p_mw":-77.0,"synthetic":false,"tie":false}},{"type":"Feature","geometry":{"type":"LineString","coordinates":[[127.7578774,26.2364962],[127.7553561,26.2378579]]},"properties":{"name":"okinawa_line_45","loading_pct":9.1,"p_mw":25.1,"synthetic":false,"tie":false}},{"type":"Feature","geometry":{"type":"LineString","coordinates":[[127.7330691,26.2688687],[127.7362937,26.2696084],[127.7368382,26.2697936],[127.7374443,26.2700654],[127.7378891,26.2703491],[127.7386541,26.2710161],[127.7390572,26.2717634],[127.7397844,26.2732116],[127.7404492,26.2740305],[127.7435115,26.276754],[127.7452181,26.2778898]]},"properties":{"name":"okinawa_line_49","loading_pct":73.0,"p_mw":-200.3,"synthetic":false,"tie":false}},{"type":"Feature","geometry":{"type":"LineString","coordinates":[[127.7010807,26.2502759],[127.6989286,26.2488509]]},"properties":{"name":"okinawa_line_50","loading_pct":82.7,"p_mw":299.2,"synthetic":false,"tie":false}},{"type":"Feature","geometry":{"type":"LineString","coordinates":[[127.7559355,26.2858905],[127.7554247,26.2858709]]},"properties":{"name":"okinawa_line_53","loading_pct":77.6,"p_mw":212.9,"synthetic":false,"tie":false}},{"type":"Feature","geometry":{"type":"LineString","coordinates":[[127.7378869,26.1637389],[127.7396884,26.1654601],[127.7418753,26.166192],[127.744351,26.1657467],[127.7474087,26.1666952],[127.7505335,26.1668203],[127.7532989,26.1673596],[127.7545148,26.167424],[127.7570191,26.1676629],[127.7604416,26.1679301],[127.763589,26.1670278],[127.7647626,26.1656769],[127.7662083,26.1642734],[127.7682441,26.1639724],[127.7710363,26.1636619],[127.7735576,26.1633104]]},"properties":{"name":"okinawa_line_54","loading_pct":43.8,"p_mw":30.0,"synthetic":false,"tie":false}},{"type":"Feature","geometry":{"type":"LineString","coordinates":[[127.7378869,26.1637389],[127.7380747,26.1617287],[127.7388659,26.1587411],[127.7397725,26.1570655],[127.7395472,26.1543594],[127.7393541,26.1519301],[127.7403594,26.150547],[127.7406228,26.1501846],[127.7414891,26.1485931],[127.7423421,26.1460289],[127.7437609,26.1441219],[127.7442652,26.1419982],[127.7448955,26.1399973]]},"properties":{"name":"okinawa_line_55","loading_pct":26.2,"p_mw":18.0,"synthetic":false,"tie":false}},{"type":"Feature","geometry":{"type":"LineString","coordinates":[[127.9316604,26.6764793],[127.9295307,26.6741425],[127.9294878,26.6727524],[127.9283613,26.6713095],[127.9286241,26.6704131],[127.9285544,26.6683086],[127.927503,26.666789],[127.9251212,26.6663719],[127.9231685,26.6667171],[127.9208136,26.6670143],[127.9185015,26.6674218],[127.9149288,26.6657056]]},"properties":{"name":"okinawa_line_56","loading_pct":17.6,"p_mw":12.1,"synthetic":false,"tie":false}},{"type":"Feature","geometry":{"type":"LineString","coordinates":[[127.9316604,26.6764793],[127.9329076,26.677994],[127.9312554,26.6808388],[127.9298902,26.6824589],[127.9270148,26.6854642],[127.9245257,26.6860369],[127.9198748,26.6874628],[127.9171953,26.6890325],[127.913298,26.6902883],[127.9108867,26.6909904],[127.9088375,26.692735],[127.9061231,26.6950378],[127.9035348,26.6971921],[127.900764,26.6975468],[127.8979558,26.6978679],[127.894941,26.6973982],[127.8947586,26.6966482]]},"properties":{"name":"okinawa_line_57","loading_pct":8.4,"p_mw":-5.8,"synthetic":false,"tie":false}},{"type":"Feature","geometry":{"type":"LineString","coordinates":[[127.9316604,26.6764793],[127.9336801,26.6752713],[127.9355791,26.673934],[127.9365554,26.6728914],[127.9392832,26.6723401],[127.942577,26.6712711],[127.9450929,26.6705233],[127.9470134,26.6686082],[127.9489017,26.6665229],[127.9505968,26.6641955],[127.952469,26.6621485],[127.9548588,26.6600127]]},"properties":{"name":"okinawa_line_58","loading_pct":35.4,"p_mw":-24.3,"synthetic":false,"tie":false}},{"type":"Feature","geometry":{"type":"LineString","coordinates":[[127.6875727,26.2378406],[127.6857936,26.2340964]]},"properties":{"name":"okinawa_line_59","loading_pct":82.8,"p_mw":281.2,"synthetic":false,"tie":false}},{"type":"Feature","geometry":{"type":"LineString","coordinates":[[127.6862755,26.2283918],[127.686044,26.2271205]]},"properties":{"name":"okinawa_line_60","loading_pct":83.0,"p_mw":263.2,"synthetic":false,"tie":false}},{"type":"Feature","geometry":{"type":"LineString","coordinates":[[127.6853345,26.2257159],[127.6838782,26.222892]]},"properties":{"name":"okinawa_line_61","loading_pct":83.3,"p_mw":245.2,"synthetic":false,"tie":false}},{"type":"Feature","geometry":{"type":"LineString","coordinates":[[127.6826604,26.2205886],[127.681165,26.2213592]]},"properties":{"name":"okinawa_line_62","loading_pct":26.2,"p_mw":18.0,"synthetic":false,"tie":false}},{"type":"Feature","geometry":{"type":"LineString","coordinates":[[127.6818519,26.2193967],[127.6812466,26.2186652]]},"properties":{"name":"okinawa_line_63","loading_pct":83.9,"p_mw":209.2,"synthetic":false,"tie":false}},{"type":"Feature","geometry":{"type":"LineString","coordinates":[[127.9823461,26.6221523],[127.9807717,26.624869],[127.9795164,26.6271205],[127.977671,26.6282426],[127.9744416,26.6300145],[127.9720572,26.6331243],[127.969957,26.634148],[127.9676852,26.6352581],[127.9645604,26.636723]]},"properties":{"name":"okinawa_line_64","loading_pct":80.0,"p_mw":96.2,"synthetic":false,"tie":false}},{"type":"Feature","geometry":{"type":"LineString","coordinates":[[127.9988229,26.6013155],[128.0019638,26.6026034],[128.0031198,26.6041358],[128.0037662,26.605251],[128.0053407,26.6061647],[128.0086827,26.6076012],[128.0115956,26.6085653],[128.0129877,26.6091025],[128.0150396,26.6103854],[128.0181858,26.6123111],[128.022429,26.6140161],[128.0251273,26.6157786],[128.0281985,26.6177689],[128.0294135,26.6187473],[128.030929,26.6204162],[128.0331257,26.6216775],[128.0356657,26.6232912],[128.0390695,26.6260655],[128.0407029,26.627015],[128.0442783,26.6284776],[128.0460754,26.6288325],[128.049278,26.6307098],[128.0521104,26.6319303],[128.0534971,26.6334408],[128.0555543,26.6344957],[128.057971,26.6350232],[128.0610931,26.6356393],[128.0627722,26.635987],[128.0665782,26.6379242],[128.0684933,26.6388352],[128.0706149,26.6380201],[128.0725434,26.6372912],[128.0771568,26.6368237],[128.0779286,26.6368059],[128.0782941,26.6367974],[128.081612,26.6362267],[128.0837443,26.6371882],[128.0860564,26.6380321],[128.087942,26.6387585],[128.0912009,26.6397463],[128.0938616,26.6395233],[128.0964902,26.6395545],[128.0985743,26.6418393],[128.102206,26.6435175],[128.1058055,26.6442942],[128.1093326,26.6450877],[128.111591,26.6460107],[128.1132004,26.6465861],[128.116065,26.6473724],[128.1182376,26.6480652],[128.1204209,26.6498464]]},"properties":{"name":"okinawa_line_65","loading_pct":70.0,"p_mw":48.0,"synthetic":false,"tie":false}},{"type":"Feature","geometry":{"type":"LineString","coordinates":[[127.9645604,26.636723],[127.9626936,26.6388736],[127.9624709,26.6412663],[127.9615134,26.6428702],[127.9622591,26.6458141],[127.9627204,26.6485039],[127.9609126,26.6506567],[127.9577824,26.6515892],[127.9550841,26.6532385],[127.9548776,26.6548973],[127.955001,26.6573664],[127.9548588,26.6600127]]},"properties":{"name":"okinawa_line_66","loading_pct":87.9,"p_mw":60.3,"synthetic":false,"tie":false}},{"type":"Feature","geometry":{"type":"LineString","coordinates":[[127.9645604,26.636723],[127.963914,26.6343662],[127.9621196,26.6327766],[127.9620284,26.6317456],[127.9631093,26.6308681],[127.962369,26.6288468],[127.9610628,26.6268783],[127.9602152,26.6246364],[127.9608133,26.6227134],[127.9592389,26.6212842],[127.9567739,26.6193276],[127.9554623,26.617402],[127.9523429,26.6169224],[127.9512781,26.6159537],[127.9485717,26.6140017]]},"properties":{"name":"okinawa_line_67","loading_pct":26.2,"p_mw":18.0,"synthetic":false,"tie":false}},{"type":"Feature","geometry":{"type":"LineString","coordinates":[[127.8510413,26.3513802],[127.8517225,26.3522431],[127.8518888,26.3537717]]},"properties":{"name":"okinawa_line_68","loading_pct":80.3,"p_mw":-220.2,"synthetic":false,"tie":false}},{"type":"Feature","geometry":{"type":"LineString","coordinates":[[127.8518888,26.3537717],[127.8541124,26.3541803],[127.8553972,26.3542644],[127.856985,26.3543197],[127.8580311,26.356353],[127.8596136,26.3563818],[127.8620785,26.3560934],[127.8636476,26.3568625],[127.8629261,26.3588068],[127.8644147,26.3590015],[127.8639883,26.3610996],[127.8656512,26.3633466],[127.8654823,26.3658868],[127.867282,26.3673816],[127.8677407,26.3684895],[127.868304,26.370287]]},"properties":{"name":"okinawa_line_70","loading_pct":80.2,"p_mw":-309.3,"synthetic":false,"tie":false}},{"type":"Feature","geometry":{"type":"LineString","coordinates":[[127.9548588,26.6600127],[127.9588178,26.6603028],[127.9615778,26.6610099],[127.9642814,26.662532],[127.9657459,26.6638408],[127.968176,26.6652406]]},"properties":{"name":"okinawa_line_71","loading_pct":26.2,"p_mw":18.0,"synthetic":false,"tie":false}},{"type":"Feature","geometry":{"type":"LineString","coordinates":[[127.6763154,26.2140405],[127.679822,26.2169114]]},"properties":{"name":"okinawa_line_72","loading_pct":84.2,"p_mw":-191.2,"synthetic":false,"tie":false}},{"type":"Feature","geometry":{"type":"LineString","coordinates":[[128.0112279,26.5220898],[128.013414,26.5222264],[128.0161123,26.5227484],[128.0185988,26.5232198],[128.0203852,26.5232416]]},"properties":{"name":"okinawa_line_73","loading_pct":78.7,"p_mw":-54.0,"synthetic":false,"tie":false}},{"type":"Feature","geometry":{"type":"LineString","coordinates":[[128.2669587,26.6714748],[128.2646674,26.6718811],[128.2628375,26.6741724],[128.2596658,26.6734557],[128.2594857,26.6716036],[128.2585993,26.6697702],[128.2569551,26.6683949],[128.2559098,26.6647274],[128.2544469,26.6613841],[128.2520042,26.6592717],[128.2510989,26.6573065],[128.2503444,26.6554935],[128.2494061,26.6530745],[128.2472067,26.6504027],[128.2447983,26.6495061],[128.2433074,26.6470994],[128.2411741,26.6448837],[128.2409178,26.6423242],[128.2403688,26.6403783],[128.2378031,26.638777],[128.2351695,26.6370501],[128.2338683,26.6367134],[128.2317637,26.6369195],[128.2308326,26.6359361],[128.2288476,26.6356127],[128.227104,26.6333563],[128.2245922,26.6335484],[128.2226731,26.6346466],[128.219934,26.6346006],[128.2176988,26.6343924],[128.21627,26.6347337],[128.2140178,26.6358268],[128.2122544,26.636698],[128.2097546,26.6376105],[128.2069095,26.639267],[128.205066,26.6391611],[128.2023028,26.637796],[128.2006526,26.636885],[128.1972099,26.6347845],[128.195491,26.6336053],[128.1932001,26.6338311],[128.1905331,26.6349326],[128.1884023,26.6348225],[128.1853266,26.6347353],[128.1833063,26.6357942],[128.1804249,26.6363079],[128.1778238,26.6355382],[128.1760675,26.636486],[128.1727943,26.6378183],[128.1711906,26.6383939],[128.1688825,26.638627],[128.1653805,26.6399033],[128.1640067,26.6403919],[128.1617204,26.6414092],[128.1591613,26.6417733],[128.1568481,26.6415479],[128.1545609,26.6409153],[128.1521707,26.6406754],[128.1496116,26.6404149],[128.146984,26.6401475],[128.1442119,26.6407417],[128.1425508,26.6417715],[128.1401026,26.643118],[128.1380871,26.6445773]]},"properties":{"name":"okinawa_line_74","loading_pct":26.2,"p_mw":-18.0,"synthetic":false,"tie":false}},{"type":"Feature","geometry":{"type":"LineString","coordinates":[[127.66236887272727,26.16422818181818],[127.6733637,26.1539405]]},"properties":{"name":"recon_line_15_71","loading_pct":26.2,"p_mw":-18.0,"synthetic":true,"tie":false}},{"type":"Feature","geometry":{"type":"LineString","coordinates":[[127.6898627,26.2017538],[127.67995471428571,26.20854825714286]]},"properties":{"name":"recon_line_51_49","loading_pct":26.2,"p_mw":-18.0,"synthetic":true,"tie":false}},{"type":"Feature","geometry":{"type":"LineString","coordinates":[[127.81938098,26.174096580000004],[127.78758017777778,26.159644166666666]]},"properties":{"name":"recon_line_54_32","loading_pct":26.2,"p_mw":-18.0,"synthetic":true,"tie":false}},{"type":"Feature","geometry":{"type":"LineString","coordinates":[[127.65853901999999,26.194423719999996],[127.66402353181819,26.206119954545454]]},"properties":{"name":"recon_line_55_22","loading_pct":26.2,"p_mw":-18.0,"synthetic":true,"tie":false}},{"type":"Feature","geometry":{"type":"LineString","coordinates":[[127.75687207142857,26.3255255],[127.78165586666667,26.307242244444446]]},"properties":{"name":"recon_line_56_25","loading_pct":26.2,"p_mw":-18.0,"synthetic":true,"tie":false}},{"type":"Feature","geometry":{"type":"LineString","coordinates":[[127.72365649999999,26.232293557142857],[127.70300098571428,26.229641828571427]]},"properties":{"name":"recon_line_57_47","loading_pct":26.2,"p_mw":-18.0,"synthetic":true,"tie":false}},{"type":"Feature","geometry":{"type":"LineString","coordinates":[[128.1380871,26.6445773],[128.1295278,26.6574367875]]},"properties":{"name":"recon_line_79_35","loading_pct":52.5,"p_mw":-36.0,"synthetic":true,"tie":false}}]}