{"type":"FeatureCollection","features":[{"type":"Feature","geometry":{"type":"Point","coordinates":[133.4954996,33.569586]},"properties":{"name":"shikoku junction 33.5696:133.4955:66","vn_kv":66.0,"vm_pu":1.0,"va_deg":-20.08}},{"type":"Feature","geometry":{"type":"Point","coordinates":[133.5309519,33.571787]},"properties":{"name":"shikoku junction 33.5718:133.531:66","vn_kv":66.0,"vm_pu":1.0,"va_deg":-22.11}},{"type":"Feature","geometry":{"type":"Point","coordinates":[132.8313397,34.4806417]},"properties":{"name":"shikoku junction 34.4806:132.8313:220","vn_kv":220.0,"vm_pu":1.0,"va_deg":-0.17}},{"type":"Feature","geometry":{"type":"Point","coordinates":[133.4890081,33.5203715]},"properties":{"name":"shikoku junction 33.5204:133.489:0","vn_kv":77.0,"vm_pu":1.0,"va_deg":-23.24}},{"type":"Feature","geometry":{"type":"Point","coordinates":[133.542102,33.5304948]},"properties":{"name":"shikoku junction 33.5305:133.5421:0","vn_kv":77.0,"vm_pu":1.0,"va_deg":-22.2}},{"type":"Feature","geometry":{"type":"Point","coordinates":[133.4825753,33.5235046]},"properties":{"name":"shikoku junction 33.5235:133.4826:0","vn_kv":77.0,"vm_pu":1.0,"va_deg":-23.24}},{"type":"Feature","geometry":{"type":"Point","coordinates":[132.4043833,34.3903926]},"properties":{"name":"shikoku junction 34.3904:132.4044:0","vn_kv":77.0,"vm_pu":1.0,"va_deg":-8.85}},{"type":"Feature","geometry":{"type":"Point","coordinates":[132.4141147,34.4020924]},"properties":{"name":"shikoku junction 34.4021:132.4141:0","vn_kv":77.0,"vm_pu":1.0,"va_deg":-8.83}},{"type":"Feature","geometry":{"type":"Point","coordinates":[132.7067392,34.4895615]},"properties":{"name":"shikoku junction 34.4896:132.7067:220","vn_kv":220.0,"vm_pu":1.0,"va_deg":-5.18}},{"type":"Feature","geometry":{"type":"Point","coordinates":[132.2582846,34.4111235]},"properties":{"name":"shikoku junction 34.4111:132.2583:110","vn_kv":110.0,"vm_pu":1.0,"va_deg":-8.76}},{"type":"Feature","geometry":{"type":"Point","coordinates":[132.2564574,34.4134344]},"properties":{"name":"shikoku junction 34.4134:132.2565:500","vn_kv":500.0,"vm_pu":1.0,"va_deg":-9.82}},{"type":"Feature","geometry":{"type":"Point","coordinates":[131.826977,34.2013077]},"properties":{"name":"shikoku junction 34.2013:131.827:500","vn_kv":500.0,"vm_pu":1.0,"va_deg":-9.82}},{"type":"Feature","geometry":{"type":"Point","coordinates":[132.5555113,33.5654622]},"properties":{"name":"shikoku junction 33.5655:132.5555:187","vn_kv":187.0,"vm_pu":1.0,"va_deg":-10.39}},{"type":"Feature","geometry":{"type":"Point","coordinates":[132.5959612,34.406864]},"properties":{"name":"shikoku junction 34.4069:132.596:110","vn_kv":110.0,"vm_pu":1.0,"va_deg":-7.56}},{"type":"Feature","geometry":{"type":"Point","coordinates":[133.5174171,33.544596]},"properties":{"name":"shikoku junction 33.5446:133.5174:66","vn_kv":66.0,"vm_pu":1.0,"va_deg":-21.19}},{"type":"Feature","geometry":{"type":"Point","coordinates":[133.5552203,33.5433205]},"properties":{"name":"shikoku junction 33.5433:133.5552:0","vn_kv":77.0,"vm_pu":1.0,"va_deg":-21.83}},{"type":"Feature","geometry":{"type":"Point","coordinates":[132.5702741,34.3926358]},"properties":{"name":"shikoku junction 34.3926:132.5703:110","vn_kv":110.0,"vm_pu":1.0,"va_deg":-7.56}},{"type":"Feature","geometry":{"type":"Point","coordinates":[131.8252881,34.1979847]},"properties":{"name":"shikoku junction 34.198:131.8253:220","vn_kv":220.0,"vm_pu":1.0,"va_deg":-7.98}},{"type":"Feature","geometry":{"type":"Point","coordinates":[131.8488595,34.124796]},"properties":{"name":"shikoku junction 34.1248:131.8489:220","vn_kv":220.0,"vm_pu":1.0,"va_deg":-7.98}},{"type":"Feature","geometry":{"type":"Point","coordinates":[133.68185,33.5758285]},"properties":{"name":"shikoku junction 33.5758:133.6818:66","vn_kv":66.0,"vm_pu":1.0,"va_deg":-17.85}},{"type":"Feature","geometry":{"type":"Point","coordinates":[133.7337845,33.5594176]},"properties":{"name":"shikoku junction 33.5594:133.7338:66","vn_kv":66.0,"vm_pu":1.0,"va_deg":-18.77}},{"type":"Feature","geometry":{"type":"Point","coordinates":[133.2132483,34.421133]},"properties":{"name":"shikoku junction 34.4211:133.2132:110","vn_kv":110.0,"vm_pu":1.0,"va_deg":-12.07}},{"type":"Feature","geometry":{"type":"Point","coordinates":[132.2604356,34.4113531]},"properties":{"name":"shikoku junction 34.4114:132.2604:110","vn_kv":110.0,"vm_pu":1.0,"va_deg":-8.66}},{"type":"Feature","geometry":{"type":"Point","coordinates":[132.2604356,34.4113531]},"properties":{"name":"shikoku junction 34.4114:132.2604:220","vn_kv":220.0,"vm_pu":1.0,"va_deg":-8.66}},{"type":"Feature","geometry":{"type":"Point","coordinates":[131.9006968,34.1480301]},"properties":{"name":"shikoku junction 34.148:131.9007:66","vn_kv":66.0,"vm_pu":1.0,"va_deg":-7.07}},{"type":"Feature","geometry":{"type":"Point","coordinates":[131.955958,34.3579877]},"properties":{"name":"shikoku junction 34.358:131.956:110","vn_kv":110.0,"vm_pu":1.0,"va_deg":-8.42}},{"type":"Feature","geometry":{"type":"Point","coordinates":[134.4912851,33.746118]},"properties":{"name":"shikoku junction 33.7461:134.4913:66","vn_kv":66.0,"vm_pu":1.0,"va_deg":-8.54}},{"type":"Feature","geometry":{"type":"Point","coordinates":[134.3364466,33.611473]},"properties":{"name":"shikoku junction 33.6115:134.3364:66","vn_kv":66.0,"vm_pu":1.0,"va_deg":-24.87}},{"type":"Feature","geometry":{"type":"Point","coordinates":[133.0990532,34.4001016]},"properties":{"name":"shikoku junction 34.4001:133.0991:0","vn_kv":77.0,"vm_pu":1.0,"va_deg":-8.56}},{"type":"Feature","geometry":{"type":"Point","coordinates":[133.4936243,33.5249864]},"properties":{"name":"shikoku junction 33.525:133.4936:0","vn_kv":77.0,"vm_pu":1.0,"va_deg":-23.24}},{"type":"Feature","geometry":{"type":"Point","coordinates":[133.4934868,33.5249973]},"properties":{"name":"shikoku junction 33.525:133.4935:0","vn_kv":77.0,"vm_pu":1.0,"va_deg":-23.24}},{"type":"Feature","geometry":{"type":"Point","coordinates":[133.0976974,34.4001725]},"properties":{"name":"shikoku junction 34.4002:133.0977:0","vn_kv":77.0,"vm_pu":1.0,"va_deg":-8.56}},{"type":"Feature","geometry":{"type":"Point","coordinates":[132.436818,33.4561462]},"properties":{"name":"shikoku junction 33.4561:132.4368:66","vn_kv":66.0,"vm_pu":1.0,"va_deg":-14.95}},{"type":"Feature","geometry":{"type":"Point","coordinates":[132.3996087,33.5110951]},"properties":{"name":"shikoku junction 33.5111:132.3996:187","vn_kv":187.0,"vm_pu":1.0,"va_deg":-10.24}},{"type":"Feature","geometry":{"type":"Point","coordinates":[132.625708,33.5358675]},"properties":{"name":"shikoku junction 33.5359:132.6257:66","vn_kv":66.0,"vm_pu":1.0,"va_deg":-13.45}},{"type":"Feature","geometry":{"type":"Point","coordinates":[132.5920095,33.5268835]},"properties":{"name":"shikoku junction 33.5269:132.592:66","vn_kv":66.0,"vm_pu":1.0,"va_deg":-13.45}},{"type":"Feature","geometry":{"type":"Point","coordinates":[132.5488749,33.5166369]},"properties":{"name":"shikoku junction 33.5166:132.5489:66","vn_kv":66.0,"vm_pu":1.0,"va_deg":-13.45}},{"type":"Feature","geometry":{"type":"Point","coordinates":[132.4351895,34.4594919]},"properties":{"name":"shikoku junction 34.4595:132.4352:220","vn_kv":220.0,"vm_pu":1.0,"va_deg":-8.64}},{"type":"Feature","geometry":{"type":"Point","coordinates":[133.4878963,33.5682399]},"properties":{"name":"shikoku junction 33.5682:133.4879:66","vn_kv":66.0,"vm_pu":1.0,"va_deg":-19.88}},{"type":"Feature","geometry":{"type":"Point","coordinates":[133.4867878,33.5684205]},"properties":{"name":"shikoku junction 33.5684:133.4868:66","vn_kv":66.0,"vm_pu":1.0,"va_deg":-19.83}},{"type":"Feature","geometry":{"type":"Point","coordinates":[133.5894736,33.6107716]},"properties":{"name":"shikoku junction 33.6108:133.5895:66","vn_kv":66.0,"vm_pu":1.0,"va_deg":-19.19}},{"type":"Feature","geometry":{"type":"Point","coordinates":[133.7830871,34.4573518]},"properties":{"name":"shikoku junction 34.4574:133.7831:500","vn_kv":500.0,"vm_pu":1.0,"va_deg":-7.48}},{"type":"Feature","geometry":{"type":"Point","coordinates":[132.6531403,33.5258807]},"properties":{"name":"shikoku junction 33.5259:132.6531:0","vn_kv":77.0,"vm_pu":1.0,"va_deg":-13.39}},{"type":"Feature","geometry":{"type":"Point","coordinates":[132.6847984,33.450181]},"properties":{"name":"shikoku junction 33.4502:132.6848:0","vn_kv":77.0,"vm_pu":1.0,"va_deg":-13.39}},{"type":"Feature","geometry":{"type":"Point","coordinates":[132.5561106,33.3314067]},"properties":{"name":"shikoku junction 33.3314:132.5561:66","vn_kv":66.0,"vm_pu":1.0,"va_deg":-20.8}},{"type":"Feature","geometry":{"type":"Point","coordinates":[132.5138525,33.3553439]},"properties":{"name":"shikoku junction 33.3553:132.5139:66","vn_kv":66.0,"vm_pu":1.0,"va_deg":-19.65}},{"type":"Feature","geometry":{"type":"Point","coordinates":[132.4788069,33.4069114]},"properties":{"name":"shikoku junction 33.4069:132.4788:66","vn_kv":66.0,"vm_pu":1.0,"va_deg":-16.86}},{"type":"Feature","geometry":{"type":"Point","coordinates":[134.8903843,34.4701314]},"properties":{"name":"shikoku junction 34.4701:134.8904:0","vn_kv":77.0,"vm_pu":1.0,"va_deg":-8.13}},{"type":"Feature","geometry":{"type":"Point","coordinates":[132.3641135,33.2256978]},"properties":{"name":"shikoku junction 33.2257:132.3641:0","vn_kv":77.0,"vm_pu":1.0,"va_deg":0.0}},{"type":"Feature","geometry":{"type":"Point","coordinates":[132.3956985,33.2050368]},"properties":{"name":"shikoku junction 33.205:132.3957:0","vn_kv":77.0,"vm_pu":1.0,"va_deg":0.0}},{"type":"Feature","geometry":{"type":"Point","coordinates":[133.6681618,33.6793239]},"properties":{"name":"shikoku junction 33.6793:133.6682:66","vn_kv":66.0,"vm_pu":1.0,"va_deg":-15.72}},{"type":"Feature","geometry":{"type":"Point","coordinates":[133.4669924,33.5697014]},"properties":{"name":"shikoku junction 33.5697:133.467:187","vn_kv":187.0,"vm_pu":1.0,"va_deg":-11.02}},{"type":"Feature","geometry":{"type":"Point","coordinates":[133.948578,33.5200601]},"properties":{"name":"shikoku junction 33.5201:133.9486:187","vn_kv":187.0,"vm_pu":1.0,"va_deg":-12.42}},{"type":"Feature","geometry":{"type":"Point","coordinates":[133.8105342,33.6630879]},"properties":{"name":"shikoku junction 33.6631:133.8105:66","vn_kv":66.0,"vm_pu":1.0,"va_deg":-15.72}},{"type":"Feature","geometry":{"type":"Point","coordinates":[133.8372101,33.6774435]},"properties":{"name":"shikoku junction 33.6774:133.8372:66","vn_kv":66.0,"vm_pu":1.0,"va_deg":-15.72}},{"type":"Feature","geometry":{"type":"Point","coordinates":[133.7272248,33.6393405]},"properties":{"name":"shikoku junction 33.6393:133.7272:66","vn_kv":66.0,"vm_pu":1.0,"va_deg":-15.72}},{"type":"Feature","geometry":{"type":"Point","coordinates":[133.8133263,33.6605295]},"properties":{"name":"shikoku junction 33.6605:133.8133:66","vn_kv":66.0,"vm_pu":1.0,"va_deg":-15.72}},{"type":"Feature","geometry":{"type":"Point","coordinates":[133.7297246,33.6375495]},"properties":{"name":"shikoku junction 33.6375:133.7297:66","vn_kv":66.0,"vm_pu":1.0,"va_deg":-15.72}},{"type":"Feature","geometry":{"type":"Point","coordinates":[132.8791143,33.0399251]},"properties":{"name":"shikoku junction 33.0399:132.8791:66","vn_kv":66.0,"vm_pu":1.0,"va_deg":-24.53}},{"type":"Feature","geometry":{"type":"Point","coordinates":[133.1260551,34.429141]},"properties":{"name":"shikoku junction 34.4291:133.1261:110","vn_kv":110.0,"vm_pu":1.0,"va_deg":-8.47}},{"type":"Feature","geometry":{"type":"Point","coordinates":[132.5724787,33.2938757]},"properties":{"name":"shikoku junction 33.2939:132.5725:66","vn_kv":66.0,"vm_pu":1.0,"va_deg":-21.91}},{"type":"Feature","geometry":{"type":"Point","coordinates":[132.5563568,34.3864844]},"properties":{"name":"shikoku junction 34.3865:132.5564:0","vn_kv":77.0,"vm_pu":1.0,"va_deg":-5.85}},{"type":"Feature","geometry":{"type":"Point","coordinates":[132.6186783,34.4261518]},"properties":{"name":"shikoku junction 34.4262:132.6187:0","vn_kv":77.0,"vm_pu":1.0,"va_deg":-5.68}},{"type":"Feature","geometry":{"type":"Point","coordinates":[133.4302935,33.5007444]},"properties":{"name":"shikoku junction 33.5007:133.4303:0","vn_kv":77.0,"vm_pu":1.0,"va_deg":0.0}},{"type":"Feature","geometry":{"type":"Point","coordinates":[133.4314468,33.4981454]},"properties":{"name":"shikoku junction 33.4981:133.4314:0","vn_kv":77.0,"vm_pu":1.0,"va_deg":0.0}},{"type":"Feature","geometry":{"type":"Point","coordinates":[133.4128028,33.573161]},"properties":{"name":"shikoku junction 33.5732:133.4128:110","vn_kv":110.0,"vm_pu":1.0,"va_deg":-15.85}},{"type":"Feature","geometry":{"type":"Point","coordinates":[133.1543678,34.3953483]},"properties":{"name":"shikoku junction 34.3953:133.1544:0","vn_kv":77.0,"vm_pu":1.0,"va_deg":-11.86}},{"type":"Feature","geometry":{"type":"Point","coordinates":[133.1543118,34.3959957]},"properties":{"name":"shikoku junction 34.396:133.1543:0","vn_kv":77.0,"vm_pu":1.0,"va_deg":-11.86}},{"type":"Feature","geometry":{"type":"Point","coordinates":[133.3338016,34.4965998]},"properties":{"name":"shikoku junction 34.4966:133.3338:0","vn_kv":77.0,"vm_pu":1.0,"va_deg":-11.86}},{"type":"Feature","geometry":{"type":"Point","coordinates":[132.0918169,33.3937632]},"properties":{"name":"shikoku junction 33.3938:132.0918:0","vn_kv":77.0,"vm_pu":1.0,"va_deg":-11.74}},{"type":"Feature","geometry":{"type":"Point","coordinates":[132.1869392,33.4144274]},"properties":{"name":"shikoku junction 33.4144:132.1869:0","vn_kv":77.0,"vm_pu":1.0,"va_deg":-11.74}},{"type":"Feature","geometry":{"type":"Point","coordinates":[132.1870277,33.4144223]},"properties":{"name":"shikoku junction 33.4144:132.187:66","vn_kv":66.0,"vm_pu":1.0,"va_deg":-11.74}},{"type":"Feature","geometry":{"type":"Point","coordinates":[132.2172046,33.4286534]},"properties":{"name":"shikoku junction 33.4287:132.2172:66","vn_kv":66.0,"vm_pu":1.0,"va_deg":-11.74}},{"type":"Feature","geometry":{"type":"Point","coordinates":[132.2170696,33.4287784]},"properties":{"name":"shikoku junction 33.4288:132.2171:66","vn_kv":66.0,"vm_pu":1.0,"va_deg":-11.74}},{"type":"Feature","geometry":{"type":"Point","coordinates":[132.5003825,33.622194]},"properties":{"name":"shikoku junction 33.6222:132.5004:66","vn_kv":66.0,"vm_pu":1.0,"va_deg":-13.78}},{"type":"Feature","geometry":{"type":"Point","coordinates":[132.6492865,33.5442868]},"properties":{"name":"shikoku junction 33.5443:132.6493:66","vn_kv":66.0,"vm_pu":1.0,"va_deg":-13.39}},{"type":"Feature","geometry":{"type":"Point","coordinates":[132.6487699,33.5442317]},"properties":{"name":"shikoku junction 33.5442:132.6488:66","vn_kv":66.0,"vm_pu":1.0,"va_deg":-13.39}},{"type":"Feature","geometry":{"type":"Point","coordinates":[132.4124795,33.4984747]},"properties":{"name":"shikoku junction 33.4985:132.4125:66","vn_kv":66.0,"vm_pu":1.0,"va_deg":-14.0}},{"type":"Feature","geometry":{"type":"Point","coordinates":[132.4064443,33.4863728]},"properties":{"name":"shikoku junction 33.4864:132.4064:66","vn_kv":66.0,"vm_pu":1.0,"va_deg":-14.0}},{"type":"Feature","geometry":{"type":"Point","coordinates":[132.6341616,33.3656754]},"properties":{"name":"shikoku junction 33.3657:132.6342:66","vn_kv":66.0,"vm_pu":1.0,"va_deg":-20.8}},{"type":"Feature","geometry":{"type":"Point","coordinates":[132.5797114,33.2632641]},"properties":{"name":"shikoku junction 33.2633:132.5797:66","vn_kv":66.0,"vm_pu":1.0,"va_deg":-22.2}},{"type":"Feature","geometry":{"type":"Point","coordinates":[132.9500917,32.9883228]},"properties":{"name":"shikoku junction 32.9883:132.9501:66","vn_kv":66.0,"vm_pu":1.0,"va_deg":-25.31}},{"type":"Feature","geometry":{"type":"Point","coordinates":[132.949923,32.7823303]},"properties":{"name":"shikoku junction 32.7823:132.9499:66","vn_kv":66.0,"vm_pu":1.0,"va_deg":-25.31}},{"type":"Feature","geometry":{"type":"Point","coordinates":[133.1174364,33.1705389]},"properties":{"name":"shikoku junction 33.1705:133.1174:66","vn_kv":66.0,"vm_pu":1.0,"va_deg":-27.41}},{"type":"Feature","geometry":{"type":"Point","coordinates":[132.5672752,33.2059823]},"properties":{"name":"shikoku junction 33.206:132.5673:66","vn_kv":66.0,"vm_pu":1.0,"va_deg":-23.28}},{"type":"Feature","geometry":{"type":"Point","coordinates":[132.5309827,32.9959862]},"properties":{"name":"shikoku junction 32.996:132.531:66","vn_kv":66.0,"vm_pu":1.0,"va_deg":-27.48}},{"type":"Feature","geometry":{"type":"Point","coordinates":[132.5443646,33.013683]},"properties":{"name":"shikoku junction 33.0137:132.5444:66","vn_kv":66.0,"vm_pu":1.0,"va_deg":-27.48}},{"type":"Feature","geometry":{"type":"Point","coordinates":[132.9226587,33.2248125]},"properties":{"name":"shikoku junction 33.2248:132.9227:66","vn_kv":66.0,"vm_pu":1.0,"va_deg":-27.41}},{"type":"Feature","geometry":{"type":"Point","coordinates":[132.9215951,33.2275512]},"properties":{"name":"shikoku junction 33.2276:132.9216:66","vn_kv":66.0,"vm_pu":1.0,"va_deg":-27.41}},{"type":"Feature","geometry":{"type":"Point","coordinates":[132.9341891,33.3636557]},"properties":{"name":"shikoku junction 33.3637:132.9342:66","vn_kv":66.0,"vm_pu":1.0,"va_deg":-27.41}},{"type":"Feature","geometry":{"type":"Point","coordinates":[134.0656835,33.3680593]},"properties":{"name":"shikoku junction 33.3681:134.0657:66","vn_kv":66.0,"vm_pu":1.0,"va_deg":-21.32}},{"type":"Feature","geometry":{"type":"Point","coordinates":[134.0777283,33.3709577]},"properties":{"name":"shikoku junction 33.371:134.0777:66","vn_kv":66.0,"vm_pu":1.0,"va_deg":-21.32}},{"type":"Feature","geometry":{"type":"Point","coordinates":[134.0131343,33.4374744]},"properties":{"name":"shikoku junction 33.4375:134.0131:66","vn_kv":66.0,"vm_pu":1.0,"va_deg":-18.37}},{"type":"Feature","geometry":{"type":"Point","coordinates":[133.8912932,33.5086]},"properties":{"name":"shikoku junction 33.5086:133.8913:66","vn_kv":66.0,"vm_pu":1.0,"va_deg":-19.17}},{"type":"Feature","geometry":{"type":"Point","coordinates":[133.7345619,33.5609134]},"properties":{"name":"shikoku junction 33.5609:133.7346:66","vn_kv":66.0,"vm_pu":1.0,"va_deg":-18.77}},{"type":"Feature","geometry":{"type":"Point","coordinates":[133.487563,33.5936857]},"properties":{"name":"shikoku junction 33.5937:133.4876:66","vn_kv":66.0,"vm_pu":1.0,"va_deg":-19.79}},{"type":"Feature","geometry":{"type":"Point","coordinates":[133.4842155,33.5896128]},"properties":{"name":"shikoku junction 33.5896:133.4842:66","vn_kv":66.0,"vm_pu":1.0,"va_deg":-19.79}},{"type":"Feature","geometry":{"type":"Point","coordinates":[133.4846539,33.5679795]},"properties":{"name":"shikoku junction 33.568:133.4847:66","vn_kv":66.0,"vm_pu":1.0,"va_deg":-19.79}},{"type":"Feature","geometry":{"type":"Point","coordinates":[133.4738088,33.6076529]},"properties":{"name":"shikoku junction 33.6077:133.4738:66","vn_kv":66.0,"vm_pu":1.0,"va_deg":-19.79}},{"type":"Feature","geometry":{"type":"Point","coordinates":[133.5566242,33.5340748]},"properties":{"name":"shikoku junction 33.5341:133.5566:66","vn_kv":66.0,"vm_pu":1.0,"va_deg":-21.78}},{"type":"Feature","geometry":{"type":"Point","coordinates":[133.5596154,33.5336407]},"properties":{"name":"shikoku junction 33.5336:133.5596:0","vn_kv":77.0,"vm_pu":1.0,"va_deg":-21.73}},{"type":"Feature","geometry":{"type":"Point","coordinates":[133.0438021,33.5437605]},"properties":{"name":"shikoku junction 33.5438:133.0438:66","vn_kv":66.0,"vm_pu":1.0,"va_deg":-6.24}},{"type":"Feature","geometry":{"type":"Point","coordinates":[133.0175008,33.5561719]},"properties":{"name":"shikoku junction 33.5562:133.0175:66","vn_kv":66.0,"vm_pu":1.0,"va_deg":-6.24}},{"type":"Feature","geometry":{"type":"Point","coordinates":[133.0043268,33.5665794]},"properties":{"name":"shikoku junction 33.5666:133.0043:66","vn_kv":66.0,"vm_pu":1.0,"va_deg":-6.24}},{"type":"Feature","geometry":{"type":"Point","coordinates":[133.0423513,33.540349]},"properties":{"name":"shikoku junction 33.5403:133.0424:66","vn_kv":66.0,"vm_pu":1.0,"va_deg":-6.24}},{"type":"Feature","geometry":{"type":"Point","coordinates":[133.0006952,33.534625]},"properties":{"name":"shikoku junction 33.5346:133.0007:66","vn_kv":66.0,"vm_pu":1.0,"va_deg":-6.24}},{"type":"Feature","geometry":{"type":"Point","coordinates":[132.5903372,33.5313137]},"properties":{"name":"shikoku junction 33.5313:132.5903:66","vn_kv":66.0,"vm_pu":1.0,"va_deg":-13.45}},{"type":"Feature","geometry":{"type":"Point","coordinates":[133.188415,33.5639728]},"properties":{"name":"shikoku junction 33.564:133.1884:66","vn_kv":66.0,"vm_pu":1.0,"va_deg":-6.69}},{"type":"Feature","geometry":{"type":"Point","coordinates":[133.2113528,33.5614187]},"properties":{"name":"shikoku junction 33.5614:133.2114:66","vn_kv":66.0,"vm_pu":1.0,"va_deg":-6.69}},{"type":"Feature","geometry":{"type":"Point","coordinates":[132.5614548,33.2096725]},"properties":{"name":"shikoku junction 33.2097:132.5615:66","vn_kv":66.0,"vm_pu":1.0,"va_deg":-23.28}},{"type":"Feature","geometry":{"type":"Point","coordinates":[133.9488208,33.5253931]},"properties":{"name":"shikoku junction 33.5254:133.9488:187","vn_kv":187.0,"vm_pu":1.0,"va_deg":-12.42}},{"type":"Feature","geometry":{"type":"Point","coordinates":[132.4937779,34.39276580000001]},"properties":{"name":"\u5e83\u5cf6\u88dc\u52a9\u304d\u96fb\u533a\u5206\u6240 110kV","vn_kv":110.0,"vm_pu":1.0,"va_deg":-8.71}},{"type":"Feature","geometry":{"type":"Point","coordinates":[134.00284602666667,34.225577433333335]},"properties":{"name":"\u9999\u5ddd\u5909\u96fb\u6240 187kV","vn_kv":187.0,"vm_pu":1.0,"va_deg":-8.52}},{"type":"Feature","geometry":{"type":"Point","coordinates":[134.00284602666667,34.225577433333335]},"properties":{"name":"\u9999\u5ddd\u5909\u96fb\u6240 66kV","vn_kv":66.0,"vm_pu":1.0,"va_deg":-9.73}},{"type":"Feature","geometry":{"type":"Point","coordinates":[133.94238639999998,34.244087660000005]},"properties":{"name":"\u7dbe\u5357\u5909\u96fb\u6240","vn_kv":66.0,"vm_pu":1.0,"va_deg":-9.72}},{"type":"Feature","geometry":{"type":"Point","coordinates":[133.52252395454545,33.56432414090909]},"properties":{"name":"\u5c0f\u9ad8\u5742\u5909\u96fb\u6240","vn_kv":66.0,"vm_pu":1.0,"va_deg":-22.38}},{"type":"Feature","geometry":{"type":"Point","coordinates":[132.3004083,34.356812222222224]},"properties":{"name":"\u5eff\u65e5\u5e02\u5909\u96fb\u6240 220kV","vn_kv":220.0,"vm_pu":1.0,"va_deg":-8.42}},{"type":"Feature","geometry":{"type":"Point","coordinates":[132.3004083,34.356812222222224]},"properties":{"name":"\u5eff\u65e5\u5e02\u5909\u96fb\u6240 110kV","vn_kv":110.0,"vm_pu":1.01,"va_deg":-8.82}},{"type":"Feature","geometry":{"type":"Point","coordinates":[133.92743405,34.286543375]},"properties":{"name":"\u5e9c\u4e2d\u5909\u96fb\u6240","vn_kv":66.0,"vm_pu":1.0,"va_deg":-9.63}},{"type":"Feature","geometry":{"type":"Point","coordinates":[133.22352293584908,33.91201962012578]},"properties":{"name":"\u897f\u6761\u5909\u96fb\u6240 187kV","vn_kv":187.0,"vm_pu":1.0,"va_deg":-8.95}},{"type":"Feature","geometry":{"type":"Point","coordinates":[133.22352293584908,33.91201962012578]},"properties":{"name":"\u897f\u6761\u5909\u96fb\u6240 66kV","vn_kv":66.0,"vm_pu":1.0,"va_deg":-9.73}},{"type":"Feature","geometry":{"type":"Point","coordinates":[133.54694701764706,33.535241299999996]},"properties":{"name":"\u5b55\u5909\u96fb\u6240 66kV","vn_kv":66.0,"vm_pu":1.0,"va_deg":-21.78}},{"type":"Feature","geometry":{"type":"Point","coordinates":[133.54694701764706,33.535241299999996]},"properties":{"name":"\u5b55\u5909\u96fb\u6240 (untyped)","vn_kv":66.0,"vm_pu":1.0,"va_deg":-21.83}},{"type":"Feature","geometry":{"type":"Point","coordinates":[133.56649068333334,33.56219216666667]},"properties":{"name":"\u77e5\u5bc4\u753a\u4e09\u4e01\u76ee\u5909\u96fb\u6240","vn_kv":66.0,"vm_pu":1.0,"va_deg":-22.72}},{"type":"Feature","geometry":{"type":"Point","coordinates":[133.4852405,33.50784556666667]},"properties":{"name":"\u6625\u91ce\u5909\u96fb\u6240","vn_kv":77.0,"vm_pu":1.0,"va_deg":-23.48}},{"type":"Feature","geometry":{"type":"Point","coordinates":[134.40978489999998,34.0003852]},"properties":{"name":"\u963f\u6ce2\u5909\u96fb\u6240 500kV","vn_kv":500.0,"vm_pu":1.0,"va_deg":-6.09}},{"type":"Feature","geometry":{"type":"Point","coordinates":[134.40978489999998,34.0003852]},"properties":{"name":"\u963f\u6ce2\u5909\u96fb\u6240 187kV","vn_kv":187.0,"vm_pu":1.0,"va_deg":-6.64}},{"type":"Feature","geometry":{"type":"Point","coordinates":[133.67109453333333,33.5735139]},"properties":{"name":"\u7acb\u7530\u5909\u96fb\u6240","vn_kv":66.0,"vm_pu":1.0,"va_deg":-17.97}},{"type":"Feature","geometry":{"type":"Point","coordinates":[133.74902855,33.55285635]},"properties":{"name":"\u591c\u9808\u753a\u5909\u96fb\u6240","vn_kv":66.0,"vm_pu":1.0,"va_deg":-19.24}},{"type":"Feature","geometry":{"type":"Point","coordinates":[132.90544661666667,34.352287591666666]},"properties":{"name":"\u672c\u753a\u56db\u4e01\u76ee\u5909\u96fb\u6240 110kV","vn_kv":110.0,"vm_pu":1.01,"va_deg":-6.02}},{"type":"Feature","geometry":{"type":"Point","coordinates":[132.90544661666667,34.352287591666666]},"properties":{"name":"\u672c\u753a\u56db\u4e01\u76ee\u5909\u96fb\u6240 (untyped)","vn_kv":110.0,"vm_pu":1.0,"va_deg":-6.02}},{"type":"Feature","geometry":{"type":"Point","coordinates":[134.34902277499998,33.603207125]},"properties":{"name":"\u591a\u826f\u5909\u96fb\u6240","vn_kv":66.0,"vm_pu":1.0,"va_deg":-25.3}},{"type":"Feature","geometry":{"type":"Point","coordinates":[134.51664706,34.07241368]},"properties":{"name":"\u5357\u5e84\u753a\u4e00\u4e01\u76ee\u5909\u96fb\u6240","vn_kv":66.0,"vm_pu":1.0,"va_deg":-11.48}},{"type":"Feature","geometry":{"type":"Point","coordinates":[133.27332962,33.513920240000004]},"properties":{"name":"\u4f50\u5ddd\u5909\u96fb\u6240","vn_kv":66.0,"vm_pu":1.0,"va_deg":-7.42}},{"type":"Feature","geometry":{"type":"Point","coordinates":[133.6900929190909,33.63578189181818]},"properties":{"name":"\u571f\u4f50\u5c71\u7530\u753a\u65b0\u6539\u5909\u96fb\u6240 187kV","vn_kv":187.0,"vm_pu":1.0,"va_deg":-11.0}},{"type":"Feature","geometry":{"type":"Point","coordinates":[133.6900929190909,33.63578189181818]},"properties":{"name":"\u571f\u4f50\u5c71\u7530\u753a\u65b0\u6539\u5909\u96fb\u6240 66kV","vn_kv":66.0,"vm_pu":1.0,"va_deg":-15.72}},{"type":"Feature","geometry":{"type":"Point","coordinates":[133.53220093636364,33.55112897272727]},"properties":{"name":"\u5927\u539f\u753a\u5909\u96fb\u6240","vn_kv":66.0,"vm_pu":1.0,"va_deg":-21.44}},{"type":"Feature","geometry":{"type":"Point","coordinates":[133.47651691034483,33.56580347758621]},"properties":{"name":"\u9ad8\u77e5\u5909\u96fb\u6240 187kV","vn_kv":187.0,"vm_pu":1.0,"va_deg":-11.06}},{"type":"Feature","geometry":{"type":"Point","coordinates":[133.47651691034483,33.56580347758621]},"properties":{"name":"\u9ad8\u77e5\u5909\u96fb\u6240 110kV","vn_kv":110.0,"vm_pu":1.0,"va_deg":-15.85}},{"type":"Feature","geometry":{"type":"Point","coordinates":[133.47651691034483,33.56580347758621]},"properties":{"name":"\u9ad8\u77e5\u5909\u96fb\u6240 66kV","vn_kv":66.0,"vm_pu":1.0,"va_deg":-19.72}},{"type":"Feature","geometry":{"type":"Point","coordinates":[132.55713502222224,33.55652688974359]},"properties":{"name":"\u5927\u6d32\u5909\u96fb\u6240 187kV","vn_kv":187.0,"vm_pu":1.0,"va_deg":-10.42}},{"type":"Feature","geometry":{"type":"Point","coordinates":[132.55713502222224,33.55652688974359]},"properties":{"name":"\u5927\u6d32\u5909\u96fb\u6240 66kV","vn_kv":66.0,"vm_pu":1.0,"va_deg":-13.78}},{"type":"Feature","geometry":{"type":"Point","coordinates":[132.55713502222224,33.55652688974359]},"properties":{"name":"\u5927\u6d32\u5909\u96fb\u6240 (untyped)","vn_kv":187.0,"vm_pu":1.0,"va_deg":-10.43}},{"type":"Feature","geometry":{"type":"Point","coordinates":[133.56864279,33.57861851]},"properties":{"name":"\u4e00\u5bae\u5357\u753a\u4e00\u4e01\u76ee\u5909\u96fb\u6240","vn_kv":66.0,"vm_pu":1.0,"va_deg":-22.25}},{"type":"Feature","geometry":{"type":"Point","coordinates":[133.53852006666668,33.5730349]},"properties":{"name":"\u4f0a\u52e2\u5d0e\u753a\u5909\u96fb\u6240","vn_kv":66.0,"vm_pu":1.0,"va_deg":-22.25}},{"type":"Feature","geometry":{"type":"Point","coordinates":[132.9868282,34.04838121]},"properties":{"name":"\u7247\u5c71\u56db\u4e01\u76ee\u5909\u96fb\u6240","vn_kv":66.0,"vm_pu":1.0,"va_deg":-10.37}},{"type":"Feature","geometry":{"type":"Point","coordinates":[133.53417606,33.50856974]},"properties":{"name":"\u9577\u6d5c\u5bae\u7530\u5909\u96fb\u6240","vn_kv":77.0,"vm_pu":1.0,"va_deg":-23.2}},{"type":"Feature","geometry":{"type":"Point","coordinates":[133.54049156666667,33.5042152]},"properties":{"name":"\u702c\u6238\u5357\u753a\u4e8c\u4e01\u76ee\u5909\u96fb\u6240","vn_kv":77.0,"vm_pu":1.0,"va_deg":-23.28}},{"type":"Feature","geometry":{"type":"Point","coordinates":[134.3521668,33.9686362625]},"properties":{"name":"\u795e\u9818\u5909\u96fb\u6240","vn_kv":66.0,"vm_pu":1.0,"va_deg":-10.26}},{"type":"Feature","geometry":{"type":"Point","coordinates":[134.2888445,33.547578550000004]},"properties":{"name":"\u56db\u56fd\u96fb\u529b \u7532\u6d66\u5909\u96fb\u6240","vn_kv":66.0,"vm_pu":1.0,"va_deg":-25.89}},{"type":"Feature","geometry":{"type":"Point","coordinates":[133.60397222857142,33.56580278571429]},"properties":{"name":"\u4ecb\u826f\u5909\u96fb\u6240","vn_kv":66.0,"vm_pu":1.0,"va_deg":-20.81}},{"type":"Feature","geometry":{"type":"Point","coordinates":[134.04885515,33.464339949999996]},"properties":{"name":"\u5927\u5b57\u9577\u5c71\u5909\u96fb\u6240","vn_kv":187.0,"vm_pu":1.01,"va_deg":-13.0}},{"type":"Feature","geometry":{"type":"Point","coordinates":[134.05038265409837,33.46235280655738]},"properties":{"name":"\u5317\u5ddd\u6751\u5909\u96fb\u6240 187kV","vn_kv":187.0,"vm_pu":1.0,"va_deg":-13.0}},{"type":"Feature","geometry":{"type":"Point","coordinates":[134.05038265409837,33.46235280655738]},"properties":{"name":"\u5317\u5ddd\u6751\u5909\u96fb\u6240 66kV","vn_kv":66.0,"vm_pu":1.0,"va_deg":-17.04}},{"type":"Feature","geometry":{"type":"Point","coordinates":[132.71294275,32.935237099999995]},"properties":{"name":"\u897f\u7247\u5cf6\u5909\u96fb\u6240","vn_kv":66.0,"vm_pu":1.0,"va_deg":-31.53}},{"type":"Feature","geometry":{"type":"Point","coordinates":[132.808885,32.9549788]},"properties":{"name":"\u5e73\u7530\u753a\u6771\u5e73\u4e8c\u4e01\u76ee\u5909\u96fb\u6240","vn_kv":66.0,"vm_pu":1.0,"va_deg":-28.41}},{"type":"Feature","geometry":{"type":"Point","coordinates":[133.04250094,34.39811775]},"properties":{"name":"\u6cbc\u7530\u4e00\u4e01\u76ee\u5909\u96fb\u6240","vn_kv":110.0,"vm_pu":1.0,"va_deg":-8.47}},{"type":"Feature","geometry":{"type":"Point","coordinates":[134.20831756666666,34.076855599999995]},"properties":{"name":"\u963f\u6ce2\u753a\u5584\u5730\u5909\u96fb\u6240","vn_kv":66.0,"vm_pu":1.0,"va_deg":-8.75}},{"type":"Feature","geometry":{"type":"Point","coordinates":[133.90700556666667,33.704618233333335]},"properties":{"name":"\u7269\u90e8\u753a\u62bc\u8c37\u5909\u96fb\u6240","vn_kv":110.0,"vm_pu":1.01,"va_deg":-10.44}},{"type":"Feature","geometry":{"type":"Point","coordinates":[132.68702082022472,33.24656432359551]},"properties":{"name":"\u5e83\u898b\u5909\u96fb\u6240 187kV","vn_kv":187.0,"vm_pu":1.0,"va_deg":-12.21}},{"type":"Feature","geometry":{"type":"Point","coordinates":[132.68702082022472,33.24656432359551]},"properties":{"name":"\u5e83\u898b\u5909\u96fb\u6240 66kV","vn_kv":66.0,"vm_pu":1.0,"va_deg":-17.42}},{"type":"Feature","geometry":{"type":"Point","coordinates":[132.31263722413794,33.48823893448276]},"properties":{"name":"\u4e5d\u753a\u5909\u96fb\u6240 500kV","vn_kv":500.0,"vm_pu":1.03,"va_deg":-5.69}},{"type":"Feature","geometry":{"type":"Point","coordinates":[132.31263722413794,33.48823893448276]},"properties":{"name":"\u4e5d\u753a\u5909\u96fb\u6240 187kV","vn_kv":187.0,"vm_pu":1.0,"va_deg":-10.06}},{"type":"Feature","geometry":{"type":"Point","coordinates":[132.31263722413794,33.48823893448276]},"properties":{"name":"\u4e5d\u753a\u5909\u96fb\u6240 66kV","vn_kv":66.0,"vm_pu":1.0,"va_deg":-11.74}},{"type":"Feature","geometry":{"type":"Point","coordinates":[134.13847916666666,33.51693133333333]},"properties":{"name":"\u5927\u5b57\u4e8c\u30bf\u53c8\u5909\u96fb\u6240","vn_kv":187.0,"vm_pu":1.01,"va_deg":-13.06}},{"type":"Feature","geometry":{"type":"Point","coordinates":[134.11425415,33.5917081]},"properties":{"name":"\u5317\u5ddd\u6751\u5909\u96fb\u6240_2","vn_kv":187.0,"vm_pu":1.01,"va_deg":-13.1}},{"type":"Feature","geometry":{"type":"Point","coordinates":[132.42837025,33.3845738]},"properties":{"name":"\u4e09\u74f6\u753a\u671d\u7acb\u5909\u96fb\u6240","vn_kv":66.0,"vm_pu":1.0,"va_deg":-17.26}},{"type":"Feature","geometry":{"type":"Point","coordinates":[132.5434746,33.280874575]},"properties":{"name":"\u5409\u7530\u753a\u6771\u5c0f\u8def\u5909\u96fb\u6240","vn_kv":66.0,"vm_pu":1.0,"va_deg":-22.35}},{"type":"Feature","geometry":{"type":"Point","coordinates":[132.52754545714285,33.12853161428571]},"properties":{"name":"\u5b87\u548c\u5cf6\u5e02\u5909\u96fb\u6240","vn_kv":66.0,"vm_pu":1.0,"va_deg":-26.26}},{"type":"Feature","geometry":{"type":"Point","coordinates":[133.56938364285713,33.5310761]},"properties":{"name":"\u4ec1\u4e95\u7530\u5909\u96fb\u6240 66kV","vn_kv":66.0,"vm_pu":1.0,"va_deg":-21.71}},{"type":"Feature","geometry":{"type":"Point","coordinates":[133.56938364285713,33.5310761]},"properties":{"name":"\u4ec1\u4e95\u7530\u5909\u96fb\u6240 (untyped)","vn_kv":66.0,"vm_pu":1.0,"va_deg":-21.73}},{"type":"Feature","geometry":{"type":"Point","coordinates":[133.896582425,33.505516400000005]},"properties":{"name":"\u56db\u56fd\u96fb\u529b\u9001\u914d\u96fb \u5b89\u82b8\u5909\u96fb\u6240","vn_kv":66.0,"vm_pu":1.0,"va_deg":-19.31}},{"type":"Feature","geometry":{"type":"Point","coordinates":[134.0091625,33.429810233333335]},"properties":{"name":"\u677e\u672c\u5909\u96fb\u6240","vn_kv":66.0,"vm_pu":1.0,"va_deg":-18.66}},{"type":"Feature","geometry":{"type":"Point","coordinates":[134.42005156,33.67362358]},"properties":{"name":"\u725f\u5c90\u5909\u96fb\u6240","vn_kv":66.0,"vm_pu":1.0,"va_deg":-18.31}},{"type":"Feature","geometry":{"type":"Point","coordinates":[134.52553323333333,33.73659106666667]},"properties":{"name":"\u7f8e\u6ce2\u753a\u5909\u96fb\u6240","vn_kv":66.0,"vm_pu":1.0,"va_deg":-9.58}},{"type":"Feature","geometry":{"type":"Point","coordinates":[132.81665045,33.57271668333333]},"properties":{"name":"\u5c0f\u7530\u5909\u96fb\u6240","vn_kv":66.0,"vm_pu":1.0,"va_deg":-13.0}},{"type":"Feature","geometry":{"type":"Point","coordinates":[134.14920105,33.292412825]},"properties":{"name":"\u6d6e\u6d25\u4e8c\u756a\u753a\u5909\u96fb\u6240","vn_kv":66.0,"vm_pu":1.0,"va_deg":-24.81}},{"type":"Feature","geometry":{"type":"Point","coordinates":[132.5836122909091,33.2361011]},"properties":{"name":"\u5b87\u548c\u5cf6\u5909\u96fb\u6240","vn_kv":66.0,"vm_pu":1.0,"va_deg":-22.04}},{"type":"Feature","geometry":{"type":"Point","coordinates":[132.56825446666667,32.9665311]},"properties":{"name":"\u5fa1\u8358\u5e73\u57ce\u5909\u96fb\u6240","vn_kv":66.0,"vm_pu":1.0,"va_deg":-27.84}},{"type":"Feature","geometry":{"type":"Point","coordinates":[133.140002075,33.206879925]},"properties":{"name":"\u53e4\u5e02\u753a\u5909\u96fb\u6240","vn_kv":66.0,"vm_pu":1.0,"va_deg":-28.09}},{"type":"Feature","geometry":{"type":"Point","coordinates":[132.69378163333332,33.2499992]},"properties":{"name":"\u51fa\u76ee\u5909\u96fb\u6240","vn_kv":66.0,"vm_pu":1.0,"va_deg":-17.48}},{"type":"Feature","geometry":{"type":"Point","coordinates":[132.556252325,33.231668125]},"properties":{"name":"\u4f4f\u5409\u753a\u4e8c\u4e01\u76ee\u5909\u96fb\u6240","vn_kv":66.0,"vm_pu":1.0,"va_deg":-23.35}},{"type":"Feature","geometry":{"type":"Point","coordinates":[133.12765616363637,33.54406317272728]},"properties":{"name":"\u5927\u6e21\u5909\u96fb\u6240","vn_kv":66.0,"vm_pu":1.0,"va_deg":-6.24}},{"type":"Feature","geometry":{"type":"Point","coordinates":[133.12264053333334,33.45621393333334]},"properties":{"name":"\u9ed2\u5ddd\u5909\u96fb\u6240","vn_kv":66.0,"vm_pu":1.0,"va_deg":0.0}},{"type":"Feature","geometry":{"type":"Point","coordinates":[133.86253213333333,34.3270088]},"properties":{"name":"\u662d\u548c\u753a\u4e8c\u4e01\u76ee\u5909\u96fb\u6240_2 500kV","vn_kv":500.0,"vm_pu":1.0,"va_deg":-7.48}},{"type":"Feature","geometry":{"type":"Point","coordinates":[133.86253213333333,34.3270088]},"properties":{"name":"\u662d\u548c\u753a\u4e8c\u4e01\u76ee\u5909\u96fb\u6240_2 66kV","vn_kv":66.0,"vm_pu":1.0,"va_deg":-8.44}},{"type":"Feature","geometry":{"type":"Point","coordinates":[132.49392984000002,34.3910942]},"properties":{"name":"\u5927\u5dde\u56db\u4e01\u76ee\u5909\u96fb\u6240 110kV","vn_kv":110.0,"vm_pu":1.0,"va_deg":-8.7}},{"type":"Feature","geometry":{"type":"Point","coordinates":[133.84264344,34.195924860000005]},"properties":{"name":"\u5409\u91ce\u4e0b\u5909\u96fb\u6240","vn_kv":66.0,"vm_pu":1.0,"va_deg":-9.64}},{"type":"Feature","geometry":{"type":"Point","coordinates":[132.51899667142857,33.358016557142854]},"properties":{"name":"\u536f\u4e4b\u753a\u5909\u96fb\u6240","vn_kv":66.0,"vm_pu":1.0,"va_deg":-19.74}},{"type":"Feature","geometry":{"type":"Point","coordinates":[134.46748974285714,33.801870671428574]},"properties":{"name":"\u9262\u5909\u96fb\u6240","vn_kv":66.0,"vm_pu":1.0,"va_deg":0.0}}]}