{"type":"FeatureCollection","features":[{"type":"Feature","geometry":{"type":"LineString","coordinates":[[127.67485,26.1906],[127.68986,26.20175]]},"properties":{"name":"leadin","p_mw":21.0,"loading_pct":32.0,"p24":[16.1,15.2,14.7,14.1,14.7,15.9,17.6,19.3,20.2,20.3,20.3,20.4,20.1,19.9,20.1,20.5,21.4,21.9,21.9,21.1,20.0,18.9,17.8,16.9],"ld24":[24.1,22.7,21.8,20.9,21.8,23.8,26.5,29.3,30.4,30.6,30.5,30.7,30.8,30.4,30.8,30.8,32.2,33.2,33.2,31.8,30.6,28.6,26.8,25.4]}},{"type":"Feature","geometry":{"type":"LineString","coordinates":[[127.67244,26.19257],[127.67132,26.19397],[127.67043,26.19487],[127.6694,26.19592],[127.66925,26.19607],[127.66956,26.19697],[127.66959,26.19707],[127.66982,26.19777],[127.66986,26.19928]]},"properties":{"name":"那覇高安線; 那覇小禄線","p_mw":40.5,"loading_pct":30.8,"p24":[25.9,24.6,23.6,22.7,23.6,25.8,30.3,34.2,38.2,38.5,38.3,38.6,36.1,35.5,36.0,38.8,41.0,42.4,42.3,40.4,35.8,33.2,30.7,28.8],"ld24":[19.5,18.4,17.6,16.9,17.6,19.4,23.0,26.2,32.0,32.2,32.0,32.4,27.8,27.3,27.7,32.6,34.7,36.1,36.0,34.1,27.5,25.4,23.3,21.8]}},{"type":"Feature","geometry":{"type":"LineString","coordinates":[[127.67782,26.18925],[127.67887,26.18877],[127.67987,26.18835],[127.68021,26.18821],[127.68159,26.18766],[127.68351,26.18692],[127.68514,26.18632],[127.68659,26.1858],[127.6877,26.18552],[127.68814,26.18541],[127.68998,26.18506],[127.69089,26.18489],[127.69258,26.18455],[127.69424,26.18421],[127.69588,26.18379],[127.69756,26.18375],[127.69915,26.18341]]},"properties":{"name":"那覇高安線; 小禄線","p_mw":-82.5,"loading_pct":62.7,"p24":[-58.1,-55.0,-52.9,-50.9,-53.0,-57.6,-65.5,-72.7,-78.6,-79.1,-78.8,-79.5,-76.3,-75.2,-76.1,-79.8,-83.7,-86.2,-86.1,-82.5,-75.7,-70.9,-66.2,-62.6],"ld24":[43.6,41.0,39.4,37.7,39.4,43.2,49.5,55.5,61.3,61.7,61.4,62.0,58.6,57.7,58.5,62.3,65.8,68.1,68.0,64.7,58.0,54.0,50.0,47.2]}},{"type":"Feature","geometry":{"type":"LineString","coordinates":[[127.66986,26.19928],[127.65854,26.19442]]},"properties":{"name":"leadin","p_mw":21.0,"loading_pct":32.0,"p24":[16.1,15.2,14.7,14.1,14.7,15.9,17.6,19.3,20.2,20.3,20.3,20.4,20.1,19.9,20.1,20.5,21.3,21.9,21.9,21.1,20.0,18.8,17.7,16.9],"ld24":[24.1,22.7,21.8,20.9,21.8,23.8,26.5,29.3,30.4,30.6,30.5,30.7,30.8,30.4,30.8,30.9,32.3,33.2,33.2,31.8,30.6,28.6,26.8,25.4]}},{"type":"Feature","geometry":{"type":"LineString","coordinates":[[127.66986,26.19928],[127.66989,26.20009],[127.66975,26.20088],[127.66969,26.20122],[127.66906,26.20176],[127.66903,26.20178],[127.66841,26.20231],[127.66741,26.20313],[127.66701,26.20345],[127.66603,26.20439]]},"properties":{"name":"那覇高安線; 那覇小禄線","p_mw":19.4,"loading_pct":14.8,"p24":[9.8,9.3,8.9,8.6,9.0,9.8,12.7,14.9,17.9,18.1,18.0,18.2,16.0,15.6,15.9,18.3,19.6,20.4,20.4,19.3,15.8,14.3,12.9,11.8],"ld24":[7.6,7.2,6.8,6.6,6.8,7.6,9.8,11.5,18.6,18.8,18.6,18.9,12.4,12.2,12.4,19.0,20.5,21.5,21.4,20.1,12.3,11.1,10.0,9.1]}},{"type":"Feature","geometry":{"type":"LineString","coordinates":[[127.66679,26.20527],[127.66792,26.20483],[127.66947,26.20424],[127.67095,26.20422],[127.67185,26.20447],[127.67288,26.20515],[127.67334,26.2056],[127.67372,26.20613]]},"properties":{"name":"那覇変電所~壷川変電所線","p_mw":8.8,"loading_pct":13.5,"p24":[-6.3,-5.9,-5.7,-5.4,-5.7,-6.1,-4.9,-4.4,-2.3,-2.2,-2.3,-2.2,-4.1,-4.2,-4.1,-2.1,-1.7,-1.5,-1.5,-1.8,-4.2,-4.5,-4.8,-5.1],"ld24":[9.9,9.3,9.0,8.6,9.0,9.7,7.7,7.0,23.0,23.2,23.1,23.3,6.6,6.7,6.6,23.5,25.1,26.3,26.2,24.6,6.7,7.1,7.7,8.1]}},{"type":"Feature","geometry":{"type":"LineString","coordinates":[[127.69915,26.18341],[127.70011,26.18231],[127.70053,26.18131],[127.70175,26.18055],[127.70227,26.17876],[127.70247,26.1771],[127.70283,26.17495]]},"properties":{"name":"那覇高安線; 小禄線","p_mw":-103.7,"loading_pct":78.6,"p24":[-74.3,-70.4,-67.7,-65.1,-67.7,-73.7,-83.2,-92.1,-99.1,-99.7,-99.2,-100.1,-96.6,-95.3,-96.4,-100.5,-105.3,-108.4,-108.3,-103.9,-95.8,-89.9,-84.1,-79.7],"ld24":[55.6,52.3,50.2,48.1,50.3,55.0,62.7,70.0,76.1,76.7,76.3,77.0,73.9,72.8,73.7,77.3,81.5,84.2,84.1,80.2,73.2,68.2,63.4,59.8]}},{"type":"Feature","geometry":{"type":"LineString","coordinates":[[127.69915,26.18341],[127.6998,26.1837],[127.70126,26.18405],[127.70249,26.18434],[127.70456,26.1852],[127.70562,26.18565],[127.70668,26.18608],[127.70815,26.18692],[127.70931,26.1886],[127.71073,26.19074],[127.7117,26.19216],[127.71264,26.1935],[127.71264,26.19359],[127.71273,26.19562]]},"properties":{"name":"繁多川線","p_mw":21.0,"loading_pct":15.9,"p24":[16.1,15.2,14.7,14.1,14.7,15.9,17.6,19.3,20.2,20.3,20.3,20.4,20.1,19.9,20.1,20.5,21.3,21.9,21.9,21.1,20.0,18.8,17.7,16.9],"ld24":[12.0,11.3,10.9,10.4,10.9,11.9,13.2,14.6,15.1,15.2,15.1,15.3,15.3,15.1,15.3,15.3,16.0,16.5,16.5,15.8,15.2,14.3,13.3,12.7]}},{"type":"Feature","geometry":{"type":"LineString","coordinates":[[127.70283,26.17495],[127.70494,26.17306],[127.70717,26.17149],[127.70979,26.16979],[127.71209,26.16844],[127.71347,26.16771],[127.7152,26.16732],[127.71667,26.16702]]},"properties":{"name":"那覇高安線; 小禄線","p_mw":-124.9,"loading_pct":94.5,"p24":[-90.5,-85.7,-82.4,-79.2,-82.5,-89.7,-100.9,-111.5,-119.4,-120.2,-119.6,-120.6,-116.9,-115.3,-116.6,-121.1,-126.8,-130.5,-130.4,-125.1,-115.9,-108.9,-101.9,-96.7],"ld24":[67.5,63.6,61.0,58.5,61.1,66.9,75.9,84.6,91.0,91.6,91.2,92.0,89.2,87.8,89.0,92.4,97.2,100.4,100.3,95.8,88.4,82.4,76.7,72.5]}},{"type":"Feature","geometry":{"type":"LineString","coordinates":[[127.70283,26.17495],[127.70222,26.17457],[127.69973,26.17487],[127.69736,26.174],[127.69522,26.17428],[127.69269,26.17557],[127.68987,26.17655]]},"properties":{"name":"沖縄電力 66.0kV線","p_mw":21.0,"loading_pct":15.9,"p24":[16.1,15.2,14.7,14.1,14.7,15.9,17.6,19.3,20.2,20.3,20.2,20.4,20.1,19.9,20.1,20.5,21.3,21.9,21.9,21.1,20.0,18.8,17.7,16.9],"ld24":[12.0,11.3,10.9,10.4,10.9,11.9,13.2,14.6,15.1,15.2,15.1,15.2,15.3,15.1,15.3,15.3,16.0,16.4,16.4,15.8,15.2,14.2,13.3,12.7]}},{"type":"Feature","geometry":{"type":"LineString","coordinates":[[127.74192,26.24341],[127.72366,26.23229]]},"properties":{"name":"leadin","p_mw":21.0,"loading_pct":31.0,"p24":[16.1,15.2,14.7,14.1,14.7,15.9,17.6,19.3,20.2,20.3,20.3,20.4,20.1,19.9,20.1,20.5,21.4,21.9,21.9,21.1,20.0,18.9,17.8,16.9],"ld24":[23.6,22.3,21.5,20.6,21.5,23.4,25.9,28.5,29.7,29.8,29.7,30.0,29.9,29.4,29.8,30.1,31.4,32.3,32.2,31.0,29.6,27.8,26.1,24.9]}},{"type":"Feature","geometry":{"type":"LineString","coordinates":[[127.74493,26.24163],[127.74626,26.24107],[127.74805,26.24107],[127.74942,26.24038],[127.74964,26.24028],[127.75083,26.23953],[127.75133,26.2393]]},"properties":{"name":"西原幹線;前田線","p_mw":-10.8,"loading_pct":15.8,"p24":[-11.1,-10.6,-10.3,-9.9,-10.3,-10.9,-12.1,-13.1,-13.7,-13.8,-13.8,-13.8,-13.6,-13.5,-13.6,-13.9,-14.4,-14.8,-14.7,-14.3,-13.5,-12.9,-12.2,-11.7],"ld24":[16.3,15.5,15.0,14.5,15.1,16.0,17.8,19.3,23.1,23.3,23.2,23.4,20.1,19.9,20.1,23.5,24.9,25.9,25.8,24.5,20.0,18.9,17.9,17.2]}},{"type":"Feature","geometry":{"type":"LineString","coordinates":[[127.7393,26.24494],[127.73786,26.24586],[127.73548,26.24762],[127.73381,26.24857],[127.73243,26.24969],[127.73075,26.25076],[127.72946,26.25156],[127.72808,26.25265],[127.72727,26.25338],[127.72643,26.25439],[127.72505,26.25563],[127.72363,26.25428],[127.72179,26.25315],[127.71794,26.25004],[127.71671,26.24905],[127.71556,26.24826],[127.71385,26.24747],[127.71275,26.24681],[127.71216,26.24625],[127.71177,26.2458],[127.71098,26.24432],[127.70739,26.2356],[127.70725,26.23533],[127.70692,26.23481],[127.70643,26.23422],[127.70362,26.2316]]},"properties":{"name":"浦添大名線","p_mw":5.3,"loading_pct":7.8,"p24":[16.1,15.3,14.7,14.1,14.7,16.0,17.6,19.3,20.3,20.4,20.3,20.5,20.2,19.9,20.1,20.5,21.4,22.0,22.0,21.1,20.0,18.9,17.8,17.0],"ld24":[23.7,22.3,21.5,20.6,21.5,23.4,26.0,28.6,29.8,29.9,29.8,30.0,29.9,29.5,29.9,30.1,31.5,32.4,32.3,31.1,29.7,27.9,26.2,24.9]}},{"type":"Feature","geometry":{"type":"LineString","coordinates":[[127.7393,26.24494],[127.73786,26.24586],[127.73548,26.24762],[127.73381,26.24857],[127.73243,26.24969],[127.73075,26.25076],[127.72946,26.25156],[127.72808,26.25265],[127.72727,26.25338],[127.72643,26.25439],[127.72505,26.25563],[127.72344,26.25672],[127.72233,26.25771],[127.72202,26.25868],[127.72174,26.25955],[127.721,26.26098],[127.71993,26.26293],[127.71974,26.26443],[127.72022,26.26661]]},"properties":{"name":"西原幹線","p_mw":-112.5,"loading_pct":15.4,"p24":[-193.4,-181.5,-170.5,-162.7,-170.6,-196.8,-111.9,-76.5,-58.4,-56.0,-57.7,-54.6,-58.3,-63.7,-59.2,-53.0,-35.0,-28.4,-28.0,-40.3,-61.6,-85.3,-108.6,-126.1],"ld24":[23.8,22.2,20.8,19.8,20.9,24.2,15.1,13.0,9.0,8.9,9.0,8.8,11.8,12.2,11.9,8.7,7.9,8.0,7.9,8.1,12.0,13.4,14.8,16.3]}},{"type":"Feature","geometry":{"type":"LineString","coordinates":[[127.74493,26.24163],[127.74626,26.24107],[127.74805,26.24107],[127.74942,26.24038],[127.74964,26.24028],[127.75083,26.23953],[127.75133,26.2393]]},"properties":{"name":"西原幹線;前田線","p_mw":61.2,"loading_pct":9.9,"p24":[144.9,135.7,126.4,120.4,126.6,148.7,58.8,18.2,-2.9,-5.6,-3.6,-7.2,-2.6,3.6,-1.6,-9.0,-29.7,-38.2,-38.4,-23.6,1.1,28.3,55.0,75.0],"ld24":[17.9,16.7,15.5,14.7,15.5,18.3,9.2,8.5,5.4,5.6,5.5,5.7,8.4,8.4,8.4,5.8,7.4,8.4,8.4,6.9,8.4,8.3,9.0,10.4]}},{"type":"Feature","geometry":{"type":"LineString","coordinates":[[127.71487,26.20086],[127.71649,26.20248],[127.71857,26.20459],[127.71909,26.20653],[127.71943,26.20855],[127.71829,26.21017],[127.71969,26.21105]]},"properties":{"name":"leadin","p_mw":0.0,"loading_pct":0.0,"p24":[0.0,0.0,0.0,0.0,0.0,0.0,0.0,0.0,-0.0,-0.0,-0.0,-0.0,0.0,0.0,0.0,-0.0,-0.0,-0.0,-0.0,-0.0,0.0,0.0,0.0,0.0],"ld24":[0.0,0.0,0.0,0.0,0.0,0.0,0.0,0.0,0.0,0.0,0.0,0.0,0.0,0.0,0.0,0.0,0.0,0.0,0.0,0.0,0.0,0.0,0.0,0.0]}},{"type":"Feature","geometry":{"type":"LineString","coordinates":[[127.71888,26.16264],[127.71763,26.16001],[127.71751,26.1579],[127.71681,26.15538],[127.71618,26.15388],[127.71393,26.15137],[127.71237,26.14901],[127.71041,26.14705],[127.70749,26.14692],[127.70432,26.14711],[127.70175,26.14583],[127.70005,26.14312],[127.69765,26.14147],[127.69537,26.14019],[127.69395,26.1382]]},"properties":{"name":"友寄変電所~大里変電所線","p_mw":21.0,"loading_pct":31.7,"p24":[16.1,15.2,14.7,14.1,14.7,16.0,17.6,19.3,20.3,20.4,20.3,20.4,20.1,19.9,20.1,20.5,21.4,22.0,21.9,21.1,20.0,18.9,17.8,17.0],"ld24":[23.9,22.6,21.7,20.8,21.7,23.7,26.4,29.1,30.0,30.2,30.1,30.3,30.6,30.1,30.5,30.4,31.8,32.7,32.7,31.4,30.3,28.4,26.6,25.3]}},{"type":"Feature","geometry":{"type":"LineString","coordinates":[[127.7221,26.16734],[127.7233,26.16773],[127.7247,26.16842],[127.72563,26.16887],[127.72708,26.17141],[127.72647,26.17341],[127.72857,26.17508],[127.73065,26.17835],[127.73161,26.18095]]},"properties":{"name":"友寄変電所~南風原変電所線","p_mw":-118.9,"loading_pct":178.6,"p24":[-92.0,-87.0,-83.6,-80.3,-83.7,-91.1,-101.9,-112.2,-118.6,-119.3,-118.8,-119.8,-117.6,-116.0,-117.3,-120.3,-125.8,-129.4,-129.3,-124.1,-116.6,-109.7,-102.8,-97.7],"ld24":[136.7,128.8,123.6,118.5,123.8,135.3,152.3,169.1,176.2,177.3,176.5,177.9,178.0,175.3,177.6,178.6,187.0,192.5,192.3,184.5,176.4,164.9,153.8,145.6]}},{"type":"Feature","geometry":{"type":"LineString","coordinates":[[127.72144,26.16519],[127.72341,26.16478],[127.72565,26.16437],[127.72729,26.16404],[127.72934,26.16247],[127.73156,26.16261],[127.73415,26.16306],[127.7371,26.1634],[127.73789,26.16374]]},"properties":{"name":"沖縄電力 66.0kV線","p_mw":25.0,"loading_pct":37.6,"p24":[32.3,30.6,29.4,28.3,29.4,32.0,35.3,38.7,40.8,41.1,40.9,41.2,40.4,39.9,40.3,41.4,43.2,44.4,44.3,42.6,40.1,37.8,35.6,34.0],"ld24":[48.0,45.2,43.4,41.7,43.5,47.5,52.8,58.4,90.6,91.4,90.8,91.9,61.3,60.4,61.1,92.4,98.5,102.6,102.4,96.7,60.8,57.0,53.3,50.7]}},{"type":"Feature","geometry":{"type":"LineString","coordinates":[[127.68882,26.13725],[127.68615,26.1387],[127.68451,26.1391],[127.68415,26.1406],[127.68381,26.14202],[127.68286,26.14399],[127.67998,26.14494],[127.67914,26.14631],[127.67841,26.14982],[127.67642,26.15153],[127.67566,26.15338],[127.67336,26.15394]]},"properties":{"name":"namebind","p_mw":0.0,"loading_pct":0.1,"p24":[0.0,0.0,0.0,0.0,0.0,0.0,0.0,0.0,-0.0,-0.0,-0.0,-0.0,0.0,0.0,0.0,-0.0,-0.0,-0.0,-0.0,-0.0,0.0,0.0,0.0,0.0],"ld24":[0.1,0.1,0.1,0.1,0.1,0.1,0.1,0.1,0.1,0.1,0.1,0.1,0.1,0.1,0.1,0.1,0.1,0.1,0.1,0.1,0.1,0.1,0.1,0.1]}},{"type":"Feature","geometry":{"type":"LineString","coordinates":[[127.73283,26.18447],[127.7346,26.18679],[127.73556,26.18808],[127.73685,26.19028],[127.73821,26.19343],[127.73904,26.19433],[127.73938,26.1968],[127.74061,26.19901],[127.74178,26.20135],[127.74312,26.20223],[127.74529,26.20304]]},"properties":{"name":"南風原変電所~与那原変電所線","p_mw":-83.6,"loading_pct":124.5,"p24":[-58.1,-54.8,-52.7,-50.6,-52.8,-57.5,-64.1,-70.6,-74.1,-74.5,-74.2,-74.8,-74.0,-73.0,-73.8,-75.1,-78.5,-80.8,-80.7,-77.5,-73.4,-69.0,-64.7,-61.5],"ld24":[85.8,80.8,77.6,74.4,77.7,84.8,95.1,105.4,109.4,110.0,109.5,110.4,110.9,109.2,110.6,110.9,115.9,119.4,119.2,114.4,109.9,102.8,96.0,91.1]}},{"type":"Feature","geometry":{"type":"LineString","coordinates":[[127.7221,26.16734],[127.7233,26.16773],[127.7247,26.16842],[127.72563,26.16887],[127.72708,26.17141],[127.72647,26.17341],[127.72857,26.17508],[127.73065,26.17835],[127.73161,26.18095]]},"properties":{"name":"友寄変電所~南風原変電所線","p_mw":-88.3,"loading_pct":11.1,"p24":[-74.7,-70.7,-68.1,-65.5,-68.1,-74.0,-82.4,-90.6,-97.0,-97.5,-97.1,-97.9,-94.7,-93.5,-94.5,-98.3,-102.6,-105.6,-105.4,-101.3,-94.0,-88.5,-83.2,-79.2],"ld24":[9.2,8.7,8.4,8.0,8.4,9.1,10.3,11.4,11.9,11.9,11.9,12.0,11.9,11.8,11.9,12.0,12.6,13.0,12.9,12.4,11.8,11.1,10.4,9.8]}},{"type":"Feature","geometry":{"type":"LineString","coordinates":[[127.73283,26.18447],[127.7346,26.18679],[127.73556,26.18808],[127.73685,26.19028],[127.73821,26.19343],[127.73904,26.19433],[127.73938,26.1968],[127.74061,26.19901],[127.74178,26.20135],[127.74312,26.20223],[127.74529,26.20304]]},"properties":{"name":"南風原変電所~与那原変電所線","p_mw":-160.3,"loading_pct":20.0,"p24":[-136.5,-129.3,-124.4,-119.7,-124.6,-135.3,-150.8,-165.8,-176.9,-177.9,-177.2,-178.6,-173.5,-171.2,-173.1,-179.3,-187.3,-192.6,-192.4,-184.9,-172.1,-162.1,-152.2,-144.8],"ld24":[16.8,15.9,15.2,14.6,15.3,16.7,18.7,20.7,21.6,21.8,21.7,21.8,21.8,21.4,21.7,21.9,22.9,23.6,23.6,22.6,21.6,20.2,18.9,17.9]}},{"type":"Feature","geometry":{"type":"LineString","coordinates":[[127.74823,26.20432],[127.75174,26.20718],[127.753,26.20949],[127.7539,26.21126],[127.75502,26.21297],[127.75429,26.21459],[127.75294,26.21706],[127.7556,26.22048],[127.75697,26.22234],[127.75811,26.22408],[127.75816,26.2258],[127.75832,26.22704],[127.75808,26.22851],[127.75827,26.23015],[127.75791,26.23203],[127.75807,26.2337]]},"properties":{"name":"与那原変電所~西原変電所線","p_mw":-44.5,"loading_pct":65.8,"p24":[-33.0,-31.1,-29.9,-28.7,-30.0,-32.6,-36.0,-39.5,-40.9,-41.2,-41.0,-41.3,-41.3,-40.7,-41.2,-41.5,-43.3,-44.5,-44.5,-42.7,-41.0,-38.6,-36.3,-34.6],"ld24":[48.6,45.8,44.0,42.2,44.1,48.0,53.1,58.5,60.0,60.3,60.1,60.5,61.4,60.5,61.3,60.8,63.4,65.3,65.2,62.6,60.9,57.2,53.6,51.0]}},{"type":"Feature","geometry":{"type":"LineString","coordinates":[[127.74823,26.20432],[127.75174,26.20718],[127.753,26.20949],[127.7539,26.21126],[127.75502,26.21297],[127.75429,26.21459],[127.75294,26.21706],[127.7556,26.22048],[127.75697,26.22234],[127.75811,26.22408],[127.75816,26.2258],[127.75832,26.22704],[127.75808,26.22851],[127.75827,26.23015],[127.75791,26.23203],[127.75807,26.2337]]},"properties":{"name":"与那原変電所~西原変電所線","p_mw":-218.8,"loading_pct":27.1,"p24":[-189.3,-179.2,-172.4,-165.8,-172.6,-187.6,-209.3,-230.3,-245.0,-246.5,-245.4,-247.4,-241.0,-237.8,-240.5,-248.3,-259.4,-266.9,-266.5,-256.1,-239.1,-225.0,-211.2,-200.9],"ld24":[23.2,21.9,21.1,20.2,21.1,23.0,25.8,28.6,29.9,30.1,30.0,30.2,30.1,29.6,30.0,30.3,31.7,32.6,32.6,31.3,29.8,27.9,26.1,24.7]}},{"type":"Feature","geometry":{"type":"LineString","coordinates":[[127.99056,26.5091],[127.98865,26.5076],[127.98535,26.50579],[127.98331,26.50314],[127.98047,26.50172],[127.97764,26.50022],[127.97518,26.49892],[127.97167,26.49695],[127.96788,26.49483],[127.96576,26.49365],[127.96287,26.49284],[127.95947,26.49191],[127.9568,26.49002],[127.95491,26.48871],[127.95279,26.48747],[127.94874,26.48486],[127.94651,26.48346],[127.94313,26.48138],[127.94044,26.48027],[127.93776,26.47895],[127.93519,26.4777],[127.93395,26.47568],[127.93371,26.47388],[127.93346,26.47214],[127.93289,26.46927],[127.93177,26.46691],[127.93044,26.46504],[127.93006,26.46235],[127.92945,26.45992],[127.9271,26.45907],[127.92454,26.45871],[127.92322,26.45753],[127.92123,26.45627],[127.91877,26.45533],[127.91912,26.45348],[127.91884,26.45156],[127.91918,26.44958],[127.91898,26.44838],[127.91845,26.44722],[127.91822,26.44694],[127.87224,26.45974]]},"properties":{"name":"namebind","p_mw":-122.5,"loading_pct":107.8,"p24":[-108.8,-103.2,-99.6,-96.0,-99.7,-107.7,-118.2,-129.4,-139.2,-140.0,-139.4,-140.4,-136.6,-133.9,-136.0,-140.9,-146.9,-151.0,-150.8,-145.2,-134.8,-126.5,-119.2,-113.9],"ld24":[88.0,81.7,77.9,74.2,78.0,86.8,100.3,119.2,106.4,107.0,106.5,107.4,141.7,130.4,138.0,107.8,112.7,116.0,115.9,111.2,133.3,113.6,101.7,94.5]}},{"type":"Feature","geometry":{"type":"LineString","coordinates":[[127.99271,26.51176],[127.99491,26.51527],[127.99683,26.51683]]},"properties":{"name":"松田変電所~Henoko Substation線","p_mw":101.5,"loading_pct":89.8,"p24":[92.7,88.0,84.9,81.9,85.0,91.8,100.6,110.2,119.0,119.6,119.2,120.0,116.5,114.1,115.9,120.5,125.6,129.1,128.9,124.1,114.9,107.7,101.5,97.0],"ld24":[75.1,69.7,66.4,63.3,66.5,74.0,85.6,102.1,92.7,93.2,92.8,93.6,122.2,112.0,118.9,94.0,98.3,101.4,101.2,97.0,114.6,97.1,86.8,80.6]}},{"type":"Feature","geometry":{"type":"LineString","coordinates":[[127.94273,26.5258],[127.94595,26.52724],[127.94819,26.52867],[127.95063,26.53028],[127.95429,26.53193],[127.95624,26.53178],[127.95865,26.53279],[127.96178,26.5334],[127.96339,26.53338],[127.96585,26.53342],[127.96792,26.53224],[127.9711,26.53278],[127.97282,26.53378],[127.97222,26.53698],[127.97389,26.53906],[127.97601,26.54184],[127.97866,26.54497],[127.97969,26.54678],[127.98104,26.54813],[127.98304,26.54991],[127.9848,26.55171],[127.98597,26.55372],[127.98689,26.55475],[127.98866,26.55678],[127.98874,26.55931],[127.99009,26.56125],[127.99167,26.56341],[127.9944,26.56592],[127.99552,26.56838],[127.99764,26.57095],[127.99757,26.57345],[127.9959,26.57481],[127.99472,26.57684],[127.99371,26.57753],[127.99319,26.57857],[127.99368,26.58095]]},"properties":{"name":"喜瀬変電所~名護市変電所線","p_mw":87.3,"loading_pct":76.7,"p24":[73.2,68.5,65.5,62.4,65.5,72.4,82.1,92.6,90.5,91.0,90.6,91.4,100.5,97.3,99.6,91.7,96.0,98.9,98.7,94.7,98.2,89.8,83.0,78.2],"ld24":[59.4,54.4,51.3,48.4,51.4,58.5,69.8,85.7,73.0,73.5,73.1,73.8,105.2,95.3,101.9,74.1,77.9,80.5,80.4,76.8,97.8,80.9,71.0,65.0]}},{"type":"Feature","geometry":{"type":"LineString","coordinates":[[127.94273,26.5258],[127.94366,26.52385],[127.94495,26.52151],[127.94503,26.51936],[127.94391,26.51721],[127.9426,26.51536],[127.94064,26.5153],[127.93815,26.51552],[127.93564,26.51514],[127.93354,26.51448],[127.93114,26.51347],[127.9295,26.5125],[127.92739,26.51144],[127.92617,26.51045],[127.92476,26.50874],[127.92182,26.50713],[127.91999,26.5064],[127.91812,26.50542],[127.91794,26.50331],[127.91713,26.50225],[127.91701,26.50053],[127.91308,26.49908],[127.91154,26.49647],[127.90691,26.49543],[127.90425,26.49616],[127.90106,26.49511],[127.89903,26.49339],[127.89729,26.49274],[127.89421,26.49249],[127.8914,26.49437],[127.89028,26.49593],[127.88877,26.49532],[127.88653,26.4949],[127.88441,26.49653],[127.88129,26.49837],[127.87958,26.50008],[127.87833,26.50135],[127.87574,26.50148],[127.87356,26.50235],[127.8718,26.50433],[127.86956,26.50419],[127.8667,26.50186],[127.86397,26.50105],[127.86249,26.4992],[127.85947,26.49743],[127.85704,26.49467],[127.85281,26.49303],[127.85229,26.49188],[127.85261,26.48969],[127.85251,26.48886],[127.8528,26.48746],[127.85259,26.48519],[127.85242,26.48216],[127.85132,26.47891],[127.85097,26.47613],[127.84993,26.47414],[127.84956,26.47231],[127.8483,26.46927],[127.84938,26.46714],[127.84881,26.46472],[127.84753,26.46256],[127.84641,26.46124],[127.84534,26.45894],[127.84379,26.45624],[127.84266,26.45393]]},"properties":{"name":"恩納村変電所~喜瀬変電所線","p_mw":-108.3,"loading_pct":189.7,"p24":[-89.3,-83.7,-80.1,-76.5,-80.2,-88.4,-99.7,-111.9,-110.7,-111.4,-110.9,-111.8,-120.6,-117.1,-119.7,-112.2,-117.3,-120.8,-120.6,-115.8,-118.2,-108.7,-100.7,-95.1],"ld24":[144.7,132.9,125.6,118.6,125.8,142.6,169.1,205.8,173.4,174.6,173.8,175.3,249.6,227.6,242.5,176.0,184.7,190.6,190.3,182.1,233.3,194.9,171.9,157.8]}},{"type":"Feature","geometry":{"type":"LineString","coordinates":[[127.94273,26.5258],[127.94256,26.52776],[127.94251,26.52932],[127.9421,26.5317],[127.94032,26.53408]]},"properties":{"name":"沖縄電力 66.0kV線","p_mw":21.0,"loading_pct":36.5,"p24":[16.1,15.2,14.7,14.1,14.7,15.9,17.6,19.3,20.2,20.3,20.3,20.4,20.1,19.9,20.1,20.5,21.3,21.9,21.9,21.1,20.0,18.8,17.7,16.9],"ld24":[26.0,24.1,23.0,21.9,23.0,25.7,29.6,34.7,30.3,30.5,30.4,30.6,39.9,37.5,39.2,30.7,32.2,33.1,33.1,31.7,38.1,33.3,30.0,27.9]}},{"type":"Feature","geometry":{"type":"LineString","coordinates":[[127.99368,26.58095],[127.9949,26.58157],[127.99607,26.58218],[127.99873,26.58436],[128.00004,26.58726],[128.00127,26.59021],[128.00008,26.59259],[127.99974,26.59432],[128.0002,26.59693],[128.00007,26.59906]]},"properties":{"name":"沖縄電力 66.0kV線","p_mw":64.9,"loading_pct":115.9,"p24":[56.3,52.6,50.1,47.7,50.2,55.6,63.3,71.6,68.9,69.4,69.1,69.6,77.6,75.2,77.0,69.9,73.2,75.3,75.2,72.2,75.9,69.4,64.0,60.2],"ld24":[92.4,84.3,79.4,74.7,79.5,90.9,109.3,135.4,120.6,121.5,120.9,122.1,168.5,151.5,162.9,122.6,129.5,134.1,133.9,127.4,155.8,127.6,111.3,101.4]}},{"type":"Feature","geometry":{"type":"LineString","coordinates":[[127.99368,26.58095],[127.99351,26.58241],[127.99424,26.58334],[127.99277,26.58422]]},"properties":{"name":"沖縄電力 66.0kV線","p_mw":21.0,"loading_pct":37.5,"p24":[16.1,15.2,14.7,14.1,14.7,15.9,17.6,19.3,20.2,20.3,20.2,20.4,20.1,19.9,20.1,20.5,21.3,21.9,21.9,21.1,20.0,18.8,17.7,16.9],"ld24":[26.4,24.5,23.2,22.1,23.3,26.0,30.3,36.0,30.1,30.3,30.2,30.4,42.2,39.2,41.2,30.6,31.9,32.9,32.8,31.5,40.0,34.3,30.7,28.5]}},{"type":"Feature","geometry":{"type":"LineString","coordinates":[[128.00007,26.59906],[127.99941,26.60032],[127.9988,26.60131]]},"properties":{"name":"名護市変電所~名護電力所線","p_mw":126.5,"loading_pct":230.7,"p24":[115.4,108.9,104.7,100.5,104.8,114.3,127.0,140.6,145.5,146.3,145.7,146.8,150.0,146.3,149.0,147.4,153.8,158.2,158.0,151.9,147.5,137.1,128.2,121.8],"ld24":[191.3,176.0,166.7,157.9,167.0,188.4,222.6,272.2,222.9,224.2,223.3,225.0,336.7,303.4,325.6,225.9,236.1,243.0,242.7,233.1,311.7,257.1,226.2,207.8]}},{"type":"Feature","geometry":{"type":"LineString","coordinates":[[128.00007,26.59906],[128.0021,26.59724],[128.00358,26.59479],[128.00624,26.59298],[128.00892,26.59118],[128.01106,26.58955],[128.01273,26.58839],[128.01233,26.58585],[128.01167,26.5834],[128.01098,26.57907],[128.01174,26.5765],[128.01171,26.5742],[128.00974,26.57129],[128.00981,26.56834],[128.00992,26.565],[128.01004,26.56288],[128.01059,26.55993],[128.01056,26.55665],[128.01191,26.55466],[128.01432,26.55299],[128.01782,26.55153],[128.01961,26.54951],[128.02235,26.547],[128.02472,26.54596],[128.02615,26.54476],[128.02851,26.54281],[128.02982,26.54181],[128.03087,26.54089],[128.03238,26.53943],[128.0346,26.5373],[128.03711,26.5355],[128.03757,26.53248],[128.03558,26.52904],[128.03475,26.52824]]},"properties":{"name":"Henoko Substation~名護市変電所線","p_mw":-62.1,"loading_pct":57.8,"p24":[-59.4,-56.6,-54.7,-52.9,-54.8,-58.9,-64.0,-69.6,-77.0,-77.4,-77.1,-77.6,-73.2,-71.9,-72.9,-77.9,-81.2,-83.4,-83.3,-80.2,-72.3,-68.2,-64.5,-61.9],"ld24":[49.6,46.0,43.8,41.7,43.8,48.9,56.8,68.6,56.9,57.3,57.0,57.5,84.5,76.2,81.7,57.7,60.2,62.0,61.9,59.5,78.3,65.0,57.7,53.3]}},{"type":"Feature","geometry":{"type":"LineString","coordinates":[[127.87889,26.46217],[127.87175,26.46196]]},"properties":{"name":"伊芸変電所~石川東山二丁目変電所線","p_mw":0.0,"loading_pct":0.0,"p24":[-0.0,0.0,-0.0,-0.0,-0.0,-0.0,0.0,0.0,0.0,0.0,-0.0,0.0,0.0,0.0,0.0,0.0,0.0,-0.0,0.0,-0.0,-0.0,0.0,0.0,0.0],"ld24":[0.0,0.0,0.0,0.0,0.0,0.0,0.0,0.0,0.0,0.0,0.0,0.0,0.0,0.0,0.0,0.0,0.0,0.0,0.0,0.0,0.0,0.0,0.0,0.0]}},{"type":"Feature","geometry":{"type":"LineString","coordinates":[[127.869,26.46186],[127.8664,26.4613],[127.86324,26.46066],[127.86103,26.46041],[127.85868,26.46027],[127.85496,26.4591],[127.85235,26.45829],[127.8497,26.45569],[127.8482,26.45425],[127.84674,26.45267],[127.84472,26.4506],[127.84256,26.44777],[127.84136,26.44633],[127.83988,26.44492]]},"properties":{"name":"伊芸変電所~石川東山二丁目変電所線","p_mw":107.0,"loading_pct":39.3,"p24":[299.8,307.4,308.6,317.2,308.9,301.2,286.6,270.4,260.5,259.5,260.2,258.8,258.7,263.4,260.0,258.2,250.1,244.6,244.9,252.5,262.0,274.7,285.2,292.6],"ld24":[109.9,112.7,113.1,116.3,113.3,110.5,105.1,99.2,95.5,95.2,95.4,94.9,94.9,96.6,95.3,94.7,91.7,89.7,89.8,92.6,96.1,100.7,104.6,107.3]}},{"type":"Feature","geometry":{"type":"LineString","coordinates":[[127.9988,26.60131],[127.99836,26.60234],[127.99669,26.60462],[127.99516,26.60648],[127.9946,26.60778],[127.99319,26.60934],[127.99205,26.60945],[127.98929,26.60919]]},"properties":{"name":"沖縄電力 66.0kV線","p_mw":111.4,"loading_pct":205.3,"p24":[99.1,93.5,89.8,86.2,89.9,98.1,109.0,120.8,124.8,125.5,125.0,126.0,129.1,125.8,128.3,126.4,132.0,135.7,135.5,130.3,126.9,117.8,110.1,104.6],"ld24":[165.7,152.1,143.8,136.0,144.1,163.1,193.4,237.7,188.1,189.2,188.4,189.9,296.4,265.9,286.2,190.6,199.1,204.9,204.6,196.6,273.5,224.2,196.6,180.3]}},{"type":"Feature","geometry":{"type":"LineString","coordinates":[[127.99882,26.60132],[128.00196,26.6026],[128.00312,26.60414],[128.00377,26.60525],[128.00534,26.60616],[128.00868,26.6076],[128.0116,26.60857],[128.01299,26.6091],[128.01504,26.61039],[128.01819,26.61231],[128.02243,26.61402],[128.02513,26.61578],[128.0282,26.61777],[128.02941,26.61875],[128.03093,26.62042],[128.03313,26.62168],[128.03567,26.62329],[128.03907,26.62607],[128.0407,26.62702],[128.04428,26.62848],[128.04608,26.62883],[128.04928,26.63071],[128.05211,26.63193],[128.0535,26.63344],[128.05555,26.6345],[128.05797,26.63502],[128.06109,26.63564],[128.06277,26.63599],[128.06658,26.63792],[128.06849,26.63884],[128.07061,26.63802],[128.07254,26.63729],[128.07716,26.63682],[128.07829,26.6368],[128.08161,26.63623],[128.08374,26.63719],[128.08606,26.63803],[128.08794,26.63876],[128.0912,26.63975],[128.09386,26.63952],[128.09649,26.63955],[128.09857,26.64184],[128.10221,26.64352],[128.10581,26.64429],[128.10933,26.64509],[128.11159,26.64601],[128.1132,26.64659],[128.11606,26.64737],[128.11824,26.64807],[128.12042,26.64985],[128.12193,26.65145],[128.12392,26.65313],[128.12639,26.65461],[128.12795,26.65551]]},"properties":{"name":"名護電力所~田港変電所線","p_mw":15.0,"loading_pct":26.9,"p24":[16.2,15.3,14.8,14.2,14.8,16.1,17.8,19.5,20.5,20.6,20.5,20.7,20.5,20.1,20.4,20.7,21.6,22.2,22.2,21.4,20.3,19.1,17.9,17.1],"ld24":[27.3,25.6,24.5,23.5,24.5,27.0,31.0,36.6,37.8,38.1,37.9,38.3,43.2,39.9,42.1,38.5,40.5,42.0,41.9,39.9,40.7,34.9,31.4,29.3]}},{"type":"Feature","geometry":{"type":"LineString","coordinates":[[127.98696,26.61363],[127.98596,26.61612],[127.98658,26.61802],[127.98552,26.61962],[127.98235,26.62215],[127.98077,26.62487],[127.97952,26.62712],[127.97767,26.62824],[127.97444,26.63001],[127.97206,26.63312],[127.96996,26.63415],[127.96769,26.63526],[127.96456,26.63672]]},"properties":{"name":"沖縄電力 66.0kV線","p_mw":89.6,"loading_pct":167.1,"p24":[82.5,77.8,74.8,71.8,74.9,81.6,90.7,100.5,103.9,104.5,104.1,104.9,107.4,104.7,106.7,105.3,109.9,113.0,112.9,108.5,105.5,98.0,91.6,87.0],"ld24":[138.9,127.4,120.4,113.8,120.6,136.7,162.5,200.8,159.8,160.7,160.0,161.3,252.6,225.4,243.4,161.9,169.2,174.2,174.0,167.1,232.2,189.1,165.3,151.3]}},{"type":"Feature","geometry":{"type":"LineString","coordinates":[[127.82954,26.39074],[127.83227,26.38979],[127.83318,26.38995],[127.83465,26.39026],[127.83692,26.39034],[127.8403,26.39053],[127.84396,26.39113],[127.84735,26.39235],[127.85037,26.39333]]},"properties":{"name":"うるま市変電所~石川東恩納変電所線","p_mw":-5.7,"loading_pct":8.5,"p24":[-12.7,-12.2,-12.0,-11.7,-12.0,-12.4,-12.7,-13.0,-13.0,-13.0,-13.0,-13.0,-13.3,-13.2,-13.2,-13.0,-13.2,-13.4,-13.3,-13.1,-13.2,-13.0,-12.7,-12.5],"ld24":[18.8,18.2,17.8,17.4,17.8,18.4,18.8,19.3,19.5,19.5,19.5,19.5,19.5,19.5,19.5,19.5,19.8,20.0,20.0,19.7,19.5,19.2,18.8,18.6]}},{"type":"Feature","geometry":{"type":"LineString","coordinates":[[127.82674,26.38915],[127.82659,26.38591],[127.82582,26.38365],[127.82441,26.38178],[127.82217,26.37987],[127.82021,26.37863],[127.818,26.37599],[127.81664,26.37446],[127.815,26.37172],[127.81431,26.36884],[127.81379,26.36632],[127.81133,26.36553],[127.81159,26.36313],[127.81015,26.36058],[127.80963,26.3588],[127.80831,26.35633]]},"properties":{"name":"美里六丁目変電所~うるま市変電所線","p_mw":9.1,"loading_pct":14.0,"p24":[24.3,23.0,22.5,21.7,22.5,23.5,23.0,23.3,22.8,22.8,22.8,22.8,23.4,23.4,23.4,22.8,22.9,23.2,23.1,22.9,23.4,23.2,23.1,22.9],"ld24":[36.2,34.4,33.6,32.4,33.7,35.1,34.2,34.5,34.3,34.3,34.3,34.3,34.6,34.6,34.6,34.4,34.5,34.9,34.8,34.4,34.6,34.4,34.2,34.1]}},{"type":"Feature","geometry":{"type":"LineString","coordinates":[[127.82954,26.39074],[127.83227,26.38979],[127.83318,26.38995],[127.83465,26.39026],[127.83692,26.39034],[127.8403,26.39053],[127.84396,26.39113],[127.84735,26.39235],[127.85037,26.39333]]},"properties":{"name":"うるま市変電所~石川東恩納変電所線","p_mw":-83.7,"loading_pct":30.5,"p24":[-85.0,-91.0,-91.7,-97.5,-91.8,-88.8,-117.7,-132.6,-141.2,-142.2,-141.5,-142.8,-140.2,-137.9,-139.8,-143.5,-151.2,-153.8,-154.0,-148.9,-138.8,-128.9,-119.1,-111.8],"ld24":[31.0,33.2,33.5,35.6,33.5,32.4,43.0,48.4,51.9,52.3,52.0,52.5,51.2,50.3,51.0,52.7,55.6,56.5,56.6,54.7,50.7,47.1,43.5,40.8]}},{"type":"Feature","geometry":{"type":"LineString","coordinates":[[127.82674,26.38915],[127.82659,26.38591],[127.82582,26.38365],[127.82441,26.38178],[127.82217,26.37987],[127.82021,26.37863],[127.818,26.37599],[127.81664,26.37446],[127.815,26.37172],[127.81431,26.36884],[127.81379,26.36632],[127.81133,26.36553],[127.81159,26.36313],[127.81015,26.36058],[127.80963,26.3588],[127.80831,26.35633]]},"properties":{"name":"美里六丁目変電所~うるま市変電所線","p_mw":216.8,"loading_pct":15.9,"p24":[449.4,423.9,418.5,400.7,418.9,426.6,401.8,390.0,383.5,382.7,383.3,382.3,384.1,385.8,384.3,381.8,375.8,377.9,377.1,377.6,385.1,392.9,400.7,406.5],"ld24":[33.0,31.1,30.7,29.4,30.7,31.3,29.5,28.6,28.3,28.2,28.2,28.2,28.1,28.3,28.1,28.1,27.7,27.9,27.8,27.8,28.2,28.8,29.4,29.8]}},{"type":"Feature","geometry":{"type":"LineString","coordinates":[[127.82467,26.39462],[127.82317,26.39566],[127.82128,26.3963],[127.82126,26.40012],[127.82117,26.40397],[127.81856,26.40571],[127.8153,26.40754],[127.81318,26.40898],[127.8112,26.41198],[127.81045,26.41524],[127.81044,26.41779],[127.81003,26.4206],[127.81041,26.42372],[127.81449,26.42976]]},"properties":{"name":"うるま市変電所~仲泊変電所線","p_mw":-143.9,"loading_pct":52.8,"p24":[-422.6,-383.2,-374.6,-345.0,-375.0,-391.6,-307.1,-265.6,-241.8,-239.0,-241.1,-237.3,-244.6,-250.9,-245.6,-235.5,-214.2,-211.5,-210.2,-220.5,-248.3,-275.9,-303.2,-323.8],"ld24":[155.7,141.0,137.9,126.9,138.0,144.2,113.0,97.8,88.9,87.8,88.6,87.2,90.1,92.3,90.4,86.5,78.7,77.7,77.2,81.0,91.4,101.5,111.6,119.1]}},{"type":"Feature","geometry":{"type":"LineString","coordinates":[[127.82702,26.3891],[127.82732,26.38647],[127.82929,26.38487],[127.83145,26.38488],[127.83192,26.38248],[127.83293,26.38181],[127.83539,26.37975],[127.83845,26.37733],[127.83721,26.37566],[127.8392,26.37357],[127.84087,26.37078],[127.84152,26.36784],[127.84201,26.36544],[127.84262,26.36259],[127.84464,26.36047],[127.84579,26.35964],[127.84857,26.35785],[127.85096,26.35569],[127.85189,26.35377]]},"properties":{"name":"宇堅変電所~うるま市変電所線","p_mw":-43.1,"loading_pct":15.7,"p24":[7.9,2.9,2.1,-2.1,2.1,4.3,-29.6,-48.3,-58.9,-60.1,-59.2,-60.9,-57.8,-54.9,-57.3,-61.7,-71.3,-75.1,-75.3,-68.5,-56.1,-43.6,-31.3,-22.1],"ld24":[3.9,2.2,1.9,1.4,1.9,2.8,10.9,17.6,21.6,22.0,21.7,22.3,21.1,20.1,21.0,22.6,26.2,27.5,27.6,25.1,20.5,15.9,11.5,8.2]}},{"type":"Feature","geometry":{"type":"LineString","coordinates":[[127.828,26.39442],[127.82729,26.39664],[127.82407,26.39687],[127.82286,26.3987],[127.82247,26.4015],[127.82248,26.40168],[127.82253,26.40443],[127.82313,26.40542],[127.82341,26.40655],[127.82325,26.40681],[127.8238,26.40751],[127.82196,26.4107]]},"properties":{"name":"うるま市変電所~石川曙三丁目変電所線","p_mw":14.7,"loading_pct":5.4,"p24":[11.3,10.7,10.3,9.9,10.3,11.2,12.3,13.5,14.1,14.2,14.2,14.3,14.1,13.9,14.0,14.3,14.9,15.3,15.3,14.8,14.0,13.2,12.4,11.8],"ld24":[4.1,3.9,3.7,3.6,3.7,4.1,4.5,4.9,5.2,5.2,5.2,5.2,5.2,5.1,5.1,5.2,5.5,5.6,5.6,5.4,5.1,4.8,4.5,4.3]}},{"type":"Feature","geometry":{"type":"LineString","coordinates":[[127.85557,26.39144],[127.85776,26.38986],[127.85856,26.38817],[127.85938,26.38617],[127.86203,26.38637],[127.86607,26.38718],[127.8674,26.38836],[127.87008,26.38734],[127.87046,26.38554],[127.872,26.38281]]},"properties":{"name":"宇堅変電所~石川東恩納変電所線","p_mw":-125.1,"loading_pct":22.8,"p24":[-125.1,-129.2,-128.7,-133.2,-128.8,-128.3,-160.4,-178.5,-188.7,-190.0,-189.1,-190.7,-187.8,-185.0,-187.3,-191.5,-200.8,-204.6,-204.7,-198.1,-186.1,-174.0,-162.1,-153.2],"ld24":[22.8,23.6,23.5,24.3,23.5,23.4,29.3,32.6,34.5,34.7,34.6,34.9,34.3,33.7,34.2,35.0,36.7,37.4,37.4,36.2,33.9,31.7,29.6,27.9]}},{"type":"Feature","geometry":{"type":"LineString","coordinates":[[127.80516,26.35258],[127.8039,26.35081],[127.79967,26.34484],[127.79846,26.34293],[127.79752,26.34157],[127.7964,26.33969],[127.79397,26.33774],[127.79114,26.33727],[127.78866,26.33756],[127.78634,26.33518],[127.78371,26.33413],[127.78144,26.33288],[127.78167,26.3321],[127.7821,26.33074],[127.78308,26.32833],[127.78414,26.32612],[127.78508,26.32421],[127.78629,26.32292],[127.78788,26.32202],[127.78794,26.32096],[127.78721,26.31945],[127.78674,26.31829],[127.78735,26.31689],[127.78831,26.31593],[127.78862,26.31386],[127.78766,26.31212],[127.78389,26.30998]]},"properties":{"name":"美里六丁目変電所~瑞慶覧変電所線","p_mw":32.3,"loading_pct":47.4,"p24":[37.4,35.3,34.4,33.0,34.4,36.3,35.2,35.5,34.8,34.8,34.8,34.8,35.7,35.6,35.7,34.8,34.9,35.3,35.2,34.8,35.6,35.4,35.2,35.0],"ld24":[55.7,52.7,51.4,49.3,51.4,54.0,52.1,52.5,52.1,52.1,52.1,52.2,52.7,52.6,52.7,52.2,52.3,52.9,52.8,52.3,52.7,52.4,52.2,52.0]}},{"type":"Feature","geometry":{"type":"LineString","coordinates":[[127.80516,26.35258],[127.8039,26.35081],[127.79967,26.34484],[127.79846,26.34293],[127.79752,26.34157],[127.7964,26.33969],[127.79397,26.33774],[127.79114,26.33727],[127.78866,26.33756],[127.78634,26.33518],[127.78371,26.33413],[127.78144,26.33288],[127.78167,26.3321],[127.7821,26.33074],[127.78308,26.32833],[127.78414,26.32612],[127.78508,26.32421],[127.78629,26.32292],[127.78788,26.32202],[127.78794,26.32096],[127.78721,26.31945],[127.78674,26.31829],[127.78735,26.31689],[127.78831,26.31593],[127.78862,26.31386],[127.78766,26.31212],[127.78389,26.30998]]},"properties":{"name":"美里六丁目変電所~瑞慶覧変電所線","p_mw":177.6,"loading_pct":16.3,"p24":[408.4,385.2,381.2,365.0,381.6,386.3,359.3,344.7,336.8,335.8,336.5,335.2,337.2,339.4,337.5,334.6,327.2,328.1,327.3,329.4,338.5,348.3,357.9,365.2],"ld24":[37.5,35.4,35.0,33.5,35.0,35.5,33.0,31.7,30.8,30.7,30.8,30.6,30.9,31.2,31.0,30.6,29.9,30.0,29.9,30.1,31.1,32.0,32.9,33.6]}},{"type":"Feature","geometry":{"type":"LineString","coordinates":[[127.81097,26.30245],[127.81012,26.3002],[127.80934,26.29808],[127.80978,26.29615],[127.81022,26.29456],[127.81057,26.29278],[127.81166,26.29145],[127.81286,26.29028],[127.81184,26.2873],[127.81117,26.28535],[127.8104,26.28353],[127.81125,26.28298],[127.81008,26.28315],[127.80826,26.28221],[127.80593,26.2809],[127.80408,26.28044],[127.80002,26.27796],[127.79888,26.27717],[127.7971,26.27582],[127.7958,26.27504]]},"properties":{"name":"西原変電所~渡口変電所線","p_mw":6.0,"loading_pct":8.9,"p24":[8.3,7.9,7.7,7.3,7.7,8.1,10.2,11.7,12.1,12.2,12.2,12.3,12.5,12.2,12.4,12.3,13.1,13.5,13.5,12.9,12.3,11.3,10.3,9.6],"ld24":[12.2,11.5,11.2,10.7,11.2,11.8,15.0,17.2,18.0,18.1,18.0,18.2,18.4,18.0,18.3,18.3,19.4,20.0,20.0,19.1,18.2,16.6,15.2,14.1]}},{"type":"Feature","geometry":{"type":"LineString","coordinates":[[127.81045,26.307],[127.80939,26.30836],[127.80741,26.30814],[127.80433,26.30782],[127.80136,26.30743],[127.79948,26.30733],[127.79756,26.30714],[127.79381,26.30762],[127.79214,26.30749],[127.78887,26.30875],[127.7867,26.30881],[127.78517,26.30852]]},"properties":{"name":"瑞慶覧変電所~渡口変電所線","p_mw":5.4,"loading_pct":9.3,"p24":[-8.5,-8.0,-7.8,-7.5,-7.8,-8.3,-2.7,0.4,2.4,2.6,2.4,2.7,1.9,1.5,1.9,2.9,4.5,5.2,5.2,4.0,1.7,-0.4,-2.4,-3.9],"ld24":[14.7,13.9,13.4,12.4,13.4,14.3,7.6,6.0,10.2,10.4,10.2,10.5,6.7,6.4,6.6,10.6,12.4,13.5,13.4,11.8,6.5,6.1,7.3,8.8]}},{"type":"Feature","geometry":{"type":"LineString","coordinates":[[127.81269,26.30564],[127.80939,26.31062],[127.80935,26.3133],[127.80943,26.31626],[127.81061,26.31871],[127.81291,26.3208],[127.81473,26.3225],[127.81565,26.32378],[127.81725,26.32506],[127.81968,26.32667],[127.82207,26.32841],[127.8249,26.33302],[127.82575,26.33529],[127.82783,26.33676],[127.82945,26.33876],[127.83305,26.34017],[127.83456,26.34103],[127.83705,26.34228],[127.83829,26.34306],[127.83912,26.34135],[127.84001,26.33887],[127.84089,26.33718],[127.84189,26.33505],[127.84349,26.33423],[127.84596,26.33177],[127.84776,26.32995],[127.85035,26.32726],[127.85213,26.32852],[127.85386,26.33],[127.88066,26.33176]]},"properties":{"name":"渡口変電所~美里六丁目変電所線","p_mw":13.6,"loading_pct":7.1,"p24":[16.1,15.2,14.7,14.1,14.7,16.0,17.6,19.3,20.3,20.4,20.3,20.4,20.1,19.9,20.1,20.5,21.4,22.0,21.9,21.1,20.0,18.9,17.8,17.0],"ld24":[8.4,8.0,7.7,7.3,7.8,8.3,9.0,9.7,10.8,10.9,10.9,11.0,10.1,10.0,10.1,11.0,11.6,12.0,12.0,11.4,10.0,9.5,9.1,8.7]}},{"type":"Feature","geometry":{"type":"LineString","coordinates":[[127.81097,26.30245],[127.81012,26.3002],[127.80934,26.29808],[127.80978,26.29615],[127.81022,26.29456],[127.81057,26.29278],[127.81166,26.29145],[127.81286,26.29028],[127.81184,26.2873],[127.81117,26.28535],[127.8104,26.28353],[127.81125,26.28298],[127.81008,26.28315],[127.80826,26.28221],[127.80593,26.2809],[127.80408,26.28044],[127.80002,26.27796],[127.79888,26.27717],[127.7971,26.27582],[127.7958,26.27504],[127.79456,26.27428],[127.79262,26.27312],[127.79156,26.27191],[127.78944,26.26889],[127.78813,26.26725],[127.78758,26.26493],[127.78711,26.26361],[127.78641,26.26179],[127.78546,26.25893],[127.78452,26.25686],[127.78383,26.25483],[127.78296,26.25277],[127.7826,26.25142],[127.7811,26.24971],[127.7797,26.24845],[127.77782,26.24601],[127.77639,26.24399],[127.77494,26.24271],[127.77283,26.24101],[127.77147,26.23968],[127.76958,26.2378],[127.7667,26.23592],[127.76328,26.23592],[127.75972,26.23584]]},"properties":{"name":"西原変電所~渡口変電所線","p_mw":259.4,"loading_pct":31.5,"p24":[139.4,133.2,132.2,128.2,132.3,133.1,256.2,329.0,371.7,376.6,373.0,379.7,366.3,355.1,364.5,382.9,420.8,440.6,440.4,409.5,359.6,310.9,262.9,227.1],"ld24":[16.9,16.2,16.1,15.6,16.1,16.2,31.1,40.0,45.2,45.8,45.4,46.2,44.5,43.2,44.3,46.6,51.2,53.6,53.6,49.8,43.7,37.8,31.9,27.6]}},{"type":"Feature","geometry":{"type":"LineString","coordinates":[[127.81269,26.30564],[127.80939,26.31062],[127.80935,26.3133],[127.80943,26.31626],[127.81061,26.31871],[127.81291,26.3208],[127.81473,26.3225],[127.81565,26.32378],[127.81725,26.32506],[127.81968,26.32667],[127.82207,26.32841],[127.8249,26.33302],[127.82575,26.33529],[127.82783,26.33676],[127.82945,26.33876],[127.83305,26.34017],[127.83456,26.34103],[127.83705,26.34228],[127.83829,26.34306],[127.83869,26.34666],[127.84006,26.34944],[127.84269,26.35096],[127.84507,26.3512],[127.8474,26.35133],[127.85104,26.35138],[127.85172,26.35224],[127.85189,26.35377]]},"properties":{"name":"渡口変電所~美里六丁目変電所線","p_mw":-9.4,"loading_pct":3.6,"p24":[-182.6,-174.2,-171.7,-166.1,-171.8,-176.0,-109.2,-71.4,-50.0,-47.4,-49.3,-45.8,-52.1,-57.9,-53.0,-44.2,-24.6,-16.7,-16.4,-30.4,-55.6,-80.8,-105.8,-124.4],"ld24":[67.3,64.2,63.2,61.2,63.3,64.8,40.2,26.4,18.4,17.4,18.1,16.9,19.3,21.4,19.6,16.3,9.1,6.2,6.1,11.2,20.6,29.8,39.0,45.8]}},{"type":"Feature","geometry":{"type":"LineString","coordinates":[[127.81737,26.43486],[127.81952,26.43734],[127.82272,26.4396],[127.8254,26.44183],[127.82851,26.4431],[127.83153,26.44435],[127.83413,26.44389]]},"properties":{"name":"仲泊変電所~石川東山一丁目変電所線","p_mw":-183.3,"loading_pct":67.0,"p24":[-461.3,-419.6,-409.2,-378.3,-409.7,-430.3,-353.1,-318.8,-295.5,-293.1,-294.8,-291.6,-302.9,-307.1,-303.4,-290.1,-272.0,-271.2,-269.8,-277.4,-305.3,-327.2,-349.9,-367.1],"ld24":[169.2,153.9,150.2,138.9,150.4,157.8,129.4,116.7,108.7,107.8,108.4,107.3,110.7,112.3,110.9,106.7,100.1,99.8,99.2,102.0,111.6,119.8,128.2,134.6]}},{"type":"Feature","geometry":{"type":"LineString","coordinates":[[127.83507,26.44312],[127.83814,26.44228]]},"properties":{"name":"石川東山一丁目変電所~石川東山二丁目変電所線","p_mw":53.1,"loading_pct":43.6,"p24":[36.1,33.8,32.0,30.7,32.1,36.2,44.4,52.8,50.8,51.2,50.9,51.5,59.9,56.8,59.0,51.8,55.0,57.0,56.9,54.1,57.7,50.5,45.1,41.4],"ld24":[28.4,26.0,24.3,23.0,24.4,28.3,36.1,45.8,37.3,37.6,37.4,37.8,56.9,51.4,55.1,38.0,40.4,41.9,41.8,39.7,52.8,42.9,36.8,33.1]}},{"type":"Feature","geometry":{"type":"LineString","coordinates":[[127.83413,26.44389],[127.83153,26.44435],[127.82851,26.4431],[127.8254,26.44183],[127.82272,26.4396],[127.81952,26.43734],[127.81737,26.43486]]},"properties":{"name":"仲泊変電所~石川東山一丁目変電所線","p_mw":-21.8,"loading_pct":36.5,"p24":[-9.1,-8.7,-8.0,-7.9,-8.0,-9.7,-14.9,-19.5,-18.5,-18.7,-18.6,-18.9,-23.2,-21.6,-22.8,-19.0,-20.8,-21.8,-21.8,-20.3,-22.1,-18.2,-15.3,-13.2],"ld24":[16.5,14.8,13.3,12.6,13.3,16.9,26.0,36.1,27.2,27.6,27.3,27.8,47.2,41.7,45.4,28.0,30.7,32.0,32.0,29.9,43.1,33.1,26.8,22.8]}},{"type":"Feature","geometry":{"type":"LineString","coordinates":[[127.83797,26.44061],[127.8387,26.43826],[127.83904,26.43717],[127.83964,26.43515],[127.84063,26.43181],[127.84008,26.43108]]},"properties":{"name":"leadin","p_mw":-51.7,"loading_pct":40.0,"p24":[-44.1,-41.3,-39.6,-37.7,-39.6,-43.4,-47.5,-52.7,-52.4,-52.7,-52.5,-52.9,-56.7,-55.0,-56.2,-53.1,-55.2,-56.8,-56.7,-54.6,-55.5,-51.3,-48.0,-45.7],"ld24":[33.0,30.6,29.2,27.7,29.3,32.4,36.2,41.5,38.4,38.6,38.4,38.7,47.1,44.5,46.3,38.9,40.4,41.6,41.5,40.0,45.2,40.0,36.6,34.5]}},{"type":"Feature","geometry":{"type":"LineString","coordinates":[[127.83587,26.4451],[127.83594,26.44734],[127.83761,26.4478],[127.83897,26.44815],[127.8396,26.45049],[127.84086,26.45271],[127.84266,26.45393]]},"properties":{"name":"石川東山二丁目変電所~石川東山一丁目変電所線","p_mw":138.1,"loading_pct":220.3,"p24":[110.5,103.3,98.6,94.0,98.7,109.3,124.2,141.5,138.3,139.1,138.5,139.7,155.8,149.5,154.0,140.3,147.0,151.6,151.4,145.0,151.3,136.8,125.7,118.1],"ld24":[168.1,155.0,147.0,139.2,147.2,165.7,194.6,233.4,202.8,204.1,203.1,204.9,277.7,255.8,270.7,205.7,215.7,222.5,222.1,212.7,261.5,222.0,197.6,182.3]}},{"type":"Feature","geometry":{"type":"LineString","coordinates":[[127.84266,26.45393],[127.84051,26.45407],[127.83738,26.45605],[127.83521,26.45757],[127.83209,26.45801],[127.82952,26.45899],[127.82784,26.45827]]},"properties":{"name":"恩納村変電所~喜瀬変電所線","p_mw":21.0,"loading_pct":31.9,"p24":[16.1,15.2,14.7,14.1,14.7,15.9,17.6,19.3,20.2,20.3,20.3,20.4,20.1,19.9,20.1,20.5,21.3,21.9,21.9,21.1,20.0,18.9,17.8,16.9],"ld24":[24.0,22.6,21.7,20.8,21.7,23.7,26.5,29.4,29.8,30.0,29.9,30.1,31.3,30.6,31.2,30.2,31.6,32.5,32.5,31.2,30.9,28.7,26.7,25.3]}},{"type":"Feature","geometry":{"type":"LineString","coordinates":[[127.83814,26.44228],[127.83507,26.44312]]},"properties":{"name":"石川東山一丁目変電所~石川東山二丁目変電所線","p_mw":250.7,"loading_pct":91.4,"p24":[517.1,471.8,459.3,426.1,459.8,485.2,413.4,385.7,362.9,360.9,362.3,359.6,374.5,376.9,374.5,358.3,343.1,344.3,342.8,347.6,375.6,392.4,410.8,425.0],"ld24":[188.7,172.3,167.8,155.8,168.0,177.1,150.8,140.6,132.8,132.0,132.6,131.6,136.8,137.5,136.7,131.1,125.5,125.9,125.3,127.1,137.0,143.0,149.8,155.0]}},{"type":"Feature","geometry":{"type":"LineString","coordinates":[[127.83797,26.44061],[127.8387,26.43826],[127.83904,26.43717],[127.83964,26.43515],[127.84063,26.43181],[127.84008,26.43108]]},"properties":{"name":"leadin","p_mw":51.9,"loading_pct":10.0,"p24":[44.3,41.4,39.7,37.8,39.7,43.5,47.7,52.9,52.6,52.9,52.7,53.1,56.9,55.2,56.5,53.3,55.4,57.0,56.9,54.8,55.7,51.5,48.1,45.8],"ld24":[8.2,7.6,7.3,6.9,7.3,8.1,9.0,10.4,9.6,9.6,9.6,9.7,11.8,11.1,11.6,9.7,10.1,10.4,10.4,10.0,11.3,10.0,9.2,8.6]}},{"type":"Feature","geometry":{"type":"LineString","coordinates":[[127.75905,26.23551],[127.75312,26.23861]]},"properties":{"name":"西原幹線;前田線","p_mw":-4.0,"loading_pct":5.8,"p24":[-8.7,-8.2,-7.7,-7.4,-7.7,-8.8,-10.1,-11.6,-12.4,-12.5,-12.5,-12.6,-12.3,-12.1,-12.3,-12.7,-13.4,-13.9,-13.9,-13.2,-12.2,-11.2,-10.3,-9.6],"ld24":[12.9,12.0,11.3,10.8,11.3,13.0,15.0,17.3,26.1,26.4,26.2,26.6,18.5,18.1,18.4,26.8,29.1,30.6,30.6,28.4,18.3,16.7,15.2,14.1]}},{"type":"Feature","geometry":{"type":"LineString","coordinates":[[127.75972,26.23584],[127.76328,26.23592],[127.7667,26.23592],[127.76958,26.2378],[127.77147,26.23968],[127.77283,26.24101],[127.77494,26.24271],[127.77639,26.24399],[127.77782,26.24601],[127.7797,26.24845],[127.7811,26.24971],[127.7826,26.25142],[127.78296,26.25277],[127.78383,26.25483],[127.78452,26.25686],[127.78546,26.25893],[127.78641,26.26179],[127.78711,26.26361],[127.78758,26.26493],[127.78813,26.26725],[127.78944,26.26889],[127.79156,26.27191],[127.79262,26.27312],[127.79456,26.27428],[127.7958,26.27504]]},"properties":{"name":"西原変電所~渡口変電所線","p_mw":-8.3,"loading_pct":12.2,"p24":[-20.6,-19.5,-18.9,-18.1,-19.0,-20.0,-20.9,-21.9,-21.6,-21.6,-21.6,-21.7,-22.5,-22.3,-22.4,-21.7,-22.2,-22.6,-22.6,-22.0,-22.4,-21.6,-20.9,-20.4],"ld24":[30.4,28.7,27.9,26.8,28.0,29.5,30.7,32.3,33.7,33.8,33.7,33.8,33.2,32.9,33.1,33.9,34.8,35.6,35.5,34.5,33.0,31.9,30.9,30.1]}},{"type":"Feature","geometry":{"type":"LineString","coordinates":[[127.76175,26.23339],[127.76494,26.23316],[127.76725,26.23304],[127.77018,26.23202]]},"properties":{"name":"西原変電所~小那覇変電所線","p_mw":2.1,"loading_pct":1.6,"p24":[16.1,15.2,14.7,14.1,14.7,15.9,17.6,19.3,20.2,20.3,20.3,20.4,20.1,19.8,20.1,20.5,21.3,21.9,21.9,21.1,19.9,18.8,17.7,16.9],"ld24":[11.8,11.1,10.7,10.3,10.7,11.7,12.9,14.2,23.8,24.1,23.9,24.3,14.9,14.7,14.9,24.5,26.8,28.4,28.3,26.1,14.8,13.9,13.1,12.4]}},{"type":"Feature","geometry":{"type":"LineString","coordinates":[[127.7958,26.27504],[127.79568,26.27628],[127.79612,26.27866],[127.79569,26.28047],[127.79611,26.28228],[127.79555,26.28439],[127.7946,26.28502],[127.79311,26.2862],[127.79069,26.28794],[127.78865,26.28943],[127.78733,26.29006],[127.78768,26.2915],[127.79266,26.29758],[127.78166,26.30724]]},"properties":{"name":"渡口変電所~瑞慶覧変電所線","p_mw":-2.3,"loading_pct":3.7,"p24":[-12.4,-11.7,-11.4,-10.9,-11.4,-12.0,-10.7,-10.3,-9.6,-9.5,-9.6,-9.5,-10.1,-10.2,-10.1,-9.5,-9.2,-9.2,-9.2,-9.3,-10.1,-10.4,-10.7,-10.9],"ld24":[18.5,17.5,17.0,16.3,17.0,17.9,16.0,15.3,16.3,16.3,16.3,16.3,15.0,15.1,15.1,16.3,16.2,16.5,16.4,16.2,15.1,15.5,15.9,16.3]}},{"type":"Feature","geometry":{"type":"LineString","coordinates":[[127.75905,26.23551],[127.75312,26.23861]]},"properties":{"name":"西原幹線;前田線","p_mw":-10.8,"loading_pct":6.0,"p24":[-97.6,-91.0,-83.5,-79.1,-83.6,-101.8,-6.5,39.3,63.5,66.6,64.3,68.5,62.8,55.8,61.7,70.5,94.0,104.3,104.5,87.0,58.6,27.9,-2.3,-24.9],"ld24":[12.2,11.3,10.3,9.7,10.3,12.6,5.3,8.8,9.4,9.8,9.5,10.0,10.6,10.0,10.5,10.2,13.1,14.4,14.4,12.2,10.3,7.6,5.5,5.4]}},{"type":"Feature","geometry":{"type":"LineString","coordinates":[[127.72074,26.26697],[127.72258,26.26649],[127.72363,26.26643],[127.72441,26.26647],[127.72534,26.26667],[127.7297,26.26805],[127.73307,26.26887],[127.73629,26.26961],[127.73684,26.26979],[127.73744,26.27007],[127.73789,26.27035],[127.73865,26.27102],[127.73906,26.27176],[127.73978,26.27321],[127.74045,26.27403],[127.74351,26.27675],[127.74522,26.27789],[127.75099,26.28173],[127.75245,26.2827],[127.75329,26.28326]]},"properties":{"name":"伊佐一丁目変電所_2~牧港五丁目変電所線","p_mw":-1.0,"loading_pct":3.8,"p24":[-252.2,-237.7,-239.3,-228.9,-239.5,-231.8,-194.2,-166.4,-152.3,-150.5,-151.8,-149.3,-152.2,-156.4,-152.9,-148.1,-134.0,-130.1,-129.6,-138.2,-154.7,-173.3,-191.6,-205.3],"ld24":[23.8,22.3,22.4,21.4,22.4,21.9,18.6,16.4,14.5,14.3,14.4,14.2,15.1,15.5,15.2,14.1,12.9,12.6,12.5,13.3,15.3,17.0,18.4,19.5]}},{"type":"Feature","geometry":{"type":"LineString","coordinates":[[127.71665,26.26839],[127.71462,26.2689],[127.71376,26.26789],[127.71257,26.26733],[127.71167,26.2661],[127.7097,26.26469],[127.70895,26.26347],[127.70883,26.26249]]},"properties":{"name":"牧港五丁目変電所~港川変電所線","p_mw":160.4,"loading_pct":120.7,"p24":[135.9,128.5,123.7,118.8,123.8,134.5,146.7,159.7,165.4,166.2,165.6,166.7,166.4,164.4,166.1,167.3,173.9,178.4,178.2,171.9,165.2,156.5,147.9,141.5],"ld24":[100.7,95.0,91.2,87.5,91.3,99.6,109.4,120.1,123.0,123.7,123.2,124.1,125.8,124.1,125.6,124.6,129.7,133.4,133.2,128.2,124.8,117.4,110.4,105.2]}},{"type":"Feature","geometry":{"type":"LineString","coordinates":[[127.72074,26.26697],[127.72258,26.26649],[127.72363,26.26643],[127.72441,26.26647],[127.72534,26.26667],[127.7297,26.26805],[127.73307,26.26887],[127.73629,26.26961],[127.73684,26.26979],[127.73744,26.27007],[127.73789,26.27035],[127.73865,26.27102],[127.73906,26.27176],[127.73978,26.27321],[127.74045,26.27403],[127.74351,26.27675],[127.74522,26.27789],[127.75099,26.28173],[127.75245,26.2827],[127.75329,26.28326]]},"properties":{"name":"伊佐一丁目変電所_2~牧港五丁目変電所線","p_mw":-102.7,"loading_pct":153.8,"p24":[-87.9,-83.0,-80.0,-76.8,-80.1,-86.7,-94.6,-102.8,-106.1,-106.6,-106.2,-107.0,-107.1,-105.8,-106.9,-107.3,-111.5,-114.4,-114.2,-110.2,-106.3,-100.8,-95.3,-91.3],"ld24":[130.2,122.8,118.2,113.4,118.4,128.4,140.8,154.0,157.9,158.7,158.1,159.2,161.0,158.9,160.7,159.8,166.2,170.8,170.6,164.3,159.8,150.6,142.0,135.6]}},{"type":"Feature","geometry":{"type":"LineString","coordinates":[[127.70964,26.25783],[127.70753,26.25579],[127.70678,26.25507],[127.70654,26.25487],[127.70398,26.25237],[127.70344,26.25187],[127.70289,26.25145],[127.70218,26.25096],[127.70108,26.25028],[127.69893,26.24885],[127.6982,26.24823],[127.69689,26.24672],[127.6966,26.24654],[127.69593,26.24613],[127.69484,26.24562],[127.69516,26.24539],[127.69343,26.24448]]},"properties":{"name":"港川変電所~曙変電所線","p_mw":139.0,"loading_pct":69.9,"p24":[119.5,113.0,108.8,104.5,108.9,118.3,128.7,140.0,144.7,145.4,144.9,145.9,145.8,144.1,145.5,146.4,152.0,156.0,155.8,150.4,144.8,137.2,129.8,124.2],"ld24":[59.2,55.8,53.6,51.4,53.7,58.5,64.2,70.4,72.0,72.3,72.1,72.6,73.7,72.7,73.6,72.8,75.8,77.9,77.8,74.9,73.1,68.9,64.8,61.7]}},{"type":"Feature","geometry":{"type":"LineString","coordinates":[[127.77966,26.30702],[127.77705,26.30677],[127.77479,26.30552],[127.76998,26.30475],[127.76787,26.30336],[127.76375,26.30219],[127.76297,26.29979],[127.76287,26.29734],[127.76332,26.29513],[127.76548,26.29334],[127.76452,26.29166],[127.7625,26.29062],[127.7605,26.2895],[127.75962,26.2873]]},"properties":{"name":"瑞慶覧変電所~伊佐一丁目変電所_2線","p_mw":49.9,"loading_pct":73.2,"p24":[37.2,35.2,34.1,32.7,34.1,36.4,41.6,46.0,48.0,48.3,48.1,48.5,48.3,47.6,48.2,48.7,50.9,52.4,52.4,50.3,47.9,44.9,42.0,39.9],"ld24":[54.5,51.4,49.9,47.9,49.9,53.3,61.0,67.5,70.2,70.6,70.3,70.9,71.0,70.0,70.9,71.2,74.6,76.8,76.7,73.6,70.4,65.9,61.6,58.4]}},{"type":"Feature","geometry":{"type":"LineString","coordinates":[[127.75702,26.28634],[127.75447,26.28414]]},"properties":{"name":"伊佐一丁目変電所_2~牧港五丁目変電所線","p_mw":76.5,"loading_pct":37.7,"p24":[62.9,59.4,57.3,55.0,57.4,61.8,68.4,74.7,77.4,77.8,77.5,78.1,78.0,77.1,77.9,78.4,81.6,83.8,83.7,80.6,77.4,73.2,69.0,65.9],"ld24":[30.8,29.0,28.0,26.8,28.0,30.2,33.6,36.8,37.9,38.1,38.0,38.3,38.6,38.0,38.5,38.4,40.0,41.2,41.1,39.5,38.2,36.0,33.9,32.3]}},{"type":"Feature","geometry":{"type":"LineString","coordinates":[[127.77966,26.30702],[127.77705,26.30677],[127.77479,26.30552],[127.76998,26.30475],[127.76787,26.30336],[127.76375,26.30219],[127.76297,26.29979],[127.76287,26.29734],[127.76332,26.29513],[127.76548,26.29334],[127.76452,26.29166],[127.7625,26.29062],[127.7605,26.2895],[127.75962,26.2873]]},"properties":{"name":"瑞慶覧変電所~伊佐一丁目変電所_2線","p_mw":126.9,"loading_pct":11.8,"p24":[359.2,338.8,336.5,322.2,336.9,337.8,308.6,290.7,281.2,280.0,280.8,279.2,281.4,284.2,281.9,278.4,269.3,268.9,268.2,272.0,283.1,295.1,307.0,315.9],"ld24":[33.2,31.2,31.0,29.7,31.0,31.2,28.5,26.9,25.8,25.7,25.8,25.6,26.0,26.3,26.0,25.5,24.7,24.6,24.6,24.9,26.1,27.3,28.4,29.2]}},{"type":"Feature","geometry":{"type":"LineString","coordinates":[[127.75702,26.28634],[127.75447,26.28414]]},"properties":{"name":"伊佐一丁目変電所_2~牧港五丁目変電所線","p_mw":64.2,"loading_pct":6.6,"p24":[305.7,288.2,287.9,275.5,288.2,284.8,251.5,228.6,216.9,215.4,216.4,214.4,216.9,220.4,217.5,213.4,201.8,199.6,199.0,205.3,219.0,234.3,249.3,260.6],"ld24":[28.4,26.7,26.7,25.5,26.7,26.5,23.5,21.5,20.1,19.9,20.0,19.8,20.4,20.7,20.5,19.8,18.7,18.5,18.5,19.0,20.6,22.0,23.3,24.3]}},{"type":"Feature","geometry":{"type":"LineString","coordinates":[[127.7546,26.28234],[127.75317,26.28119],[127.75154,26.27985],[127.75014,26.27884],[127.74895,26.27756]]},"properties":{"name":"namebind","p_mw":0.0,"loading_pct":0.0,"p24":[0.0,0.0,0.0,0.0,0.0,0.0,0.0,0.0,-0.0,-0.0,-0.0,-0.0,0.0,0.0,0.0,-0.0,-0.0,-0.0,-0.0,-0.0,0.0,0.0,0.0,0.0],"ld24":[0.0,0.0,0.0,0.0,0.0,0.0,0.0,0.0,0.0,0.0,0.0,0.0,0.0,0.0,0.0,0.0,0.0,0.0,0.0,0.0,0.0,0.0,0.0,0.0]}},{"type":"Feature","geometry":{"type":"LineString","coordinates":[[127.73789,26.16374],[127.73969,26.16546],[127.74188,26.16619],[127.74435,26.16575],[127.74741,26.1667],[127.75053,26.16682],[127.7533,26.16736],[127.75451,26.16742],[127.75702,26.16766],[127.76044,26.16793],[127.76359,26.16703],[127.76476,26.16568],[127.76621,26.16427],[127.76824,26.16397],[127.77104,26.16366],[127.77356,26.16331],[127.777,26.16371],[127.77756,26.16337],[127.77969,26.16204],[127.78207,26.16145],[127.78418,26.1603]]},"properties":{"name":"友寄変電所~佐敷変電所線","p_mw":4.0,"loading_pct":6.0,"p24":[16.1,15.3,14.7,14.1,14.7,16.0,17.6,19.3,20.3,20.4,20.4,20.5,20.2,19.9,20.1,20.6,21.5,22.1,22.0,21.2,20.0,18.9,17.8,17.0],"ld24":[24.0,22.6,21.7,20.8,21.8,23.8,26.4,29.2,43.2,43.6,43.3,43.8,30.7,30.2,30.6,44.1,46.8,48.7,48.7,46.0,30.4,28.5,26.7,25.4]}},{"type":"Feature","geometry":{"type":"LineString","coordinates":[[127.73789,26.16374],[127.73807,26.16173],[127.73887,26.15874],[127.73977,26.15707],[127.73955,26.15436],[127.73935,26.15193],[127.74062,26.15018],[127.74149,26.14859],[127.74234,26.14603],[127.74376,26.14412],[127.74427,26.142],[127.7449,26.14],[127.74616,26.13821],[127.74702,26.13574],[127.74799,26.13398],[127.74901,26.1321],[127.75025,26.13015]]},"properties":{"name":"友寄変電所~長毛変電所線","p_mw":20.9,"loading_pct":31.5,"p24":[16.1,15.2,14.7,14.1,14.7,16.0,17.6,19.3,20.3,20.4,20.4,20.5,20.1,19.9,20.1,20.6,21.5,22.1,22.0,21.2,20.0,18.9,17.8,17.0],"ld24":[24.0,22.6,21.7,20.8,21.7,23.7,26.4,29.2,47.4,47.9,47.6,48.1,30.6,30.2,30.6,48.4,51.7,53.9,53.8,50.7,30.4,28.5,26.7,25.3]}},{"type":"Feature","geometry":{"type":"LineString","coordinates":[[127.93166,26.67648],[127.92953,26.67414],[127.92949,26.67275],[127.92836,26.67131],[127.92862,26.67041],[127.92855,26.66831],[127.9275,26.66679],[127.92512,26.66637],[127.92317,26.66672],[127.92081,26.66701],[127.9185,26.66742],[127.91493,26.66571],[127.91437,26.66269],[127.91159,26.66116],[127.91092,26.65984],[127.91077,26.65778],[127.90938,26.65759]]},"properties":{"name":"沖縄電力 66.0kV線","p_mw":20.8,"loading_pct":40.1,"p24":[16.1,15.3,14.7,14.1,14.7,16.0,17.6,19.3,20.3,20.4,20.3,20.5,20.2,19.9,20.2,20.6,21.4,22.0,22.0,21.2,20.1,18.9,17.8,17.0],"ld24":[27.9,25.5,24.1,22.8,24.2,27.4,32.6,40.4,42.6,43.0,42.7,43.2,51.0,45.5,49.2,43.4,45.9,47.6,47.5,45.1,46.8,38.0,33.2,30.4]}},{"type":"Feature","geometry":{"type":"LineString","coordinates":[[127.93166,26.67648],[127.93291,26.67799],[127.93126,26.68084],[127.92989,26.68246],[127.92701,26.68546],[127.92453,26.68604],[127.91987,26.68746],[127.9172,26.68903],[127.9133,26.69029],[127.91089,26.69099],[127.90884,26.69273],[127.90612,26.69504],[127.90353,26.69719],[127.90076,26.69755],[127.89796,26.69787],[127.89494,26.6974],[127.89476,26.69665],[127.89368,26.69611],[127.89347,26.69437],[127.89119,26.69372],[127.88936,26.69391],[127.88629,26.69373],[127.88418,26.694]]},"properties":{"name":"東変電所~海洋博変電所線","p_mw":24.4,"loading_pct":47.1,"p24":[32.4,30.7,29.5,28.3,29.5,32.1,35.5,39.0,40.8,41.0,40.8,41.1,41.1,40.4,40.9,41.3,43.1,44.3,44.2,42.5,40.6,38.1,35.8,34.1],"ld24":[56.0,51.3,48.5,45.8,48.5,55.1,65.8,81.9,66.6,67.0,66.7,67.2,104.6,92.6,100.5,67.5,70.6,72.7,72.6,69.7,95.5,76.9,67.0,61.2]}},{"type":"Feature","geometry":{"type":"LineString","coordinates":[[127.93166,26.67648],[127.93368,26.67527],[127.93558,26.67393],[127.93656,26.67289],[127.93928,26.67234],[127.94258,26.67127],[127.94509,26.67052],[127.94701,26.66861],[127.9489,26.66652],[127.9506,26.6642],[127.95247,26.66215],[127.95486,26.66001]]},"properties":{"name":"仲宗根変電所~東変電所線","p_mw":-45.2,"loading_pct":87.2,"p24":[-48.5,-45.9,-44.2,-42.4,-44.2,-48.1,-53.1,-58.4,-61.1,-61.4,-61.2,-61.6,-61.3,-60.3,-61.1,-61.9,-64.5,-66.3,-66.2,-63.7,-60.7,-57.0,-53.6,-51.1],"ld24":[83.9,76.9,72.6,68.6,72.7,82.6,98.4,122.3,107.7,108.4,107.9,108.8,155.6,138.0,149.6,109.3,114.8,118.5,118.3,113.2,142.3,114.9,100.2,91.5]}},{"type":"Feature","geometry":{"type":"LineString","coordinates":[[127.69343,26.24448],[127.69248,26.24384],[127.68351,26.21987]]},"properties":{"name":"namebind","p_mw":42.4,"loading_pct":64.2,"p24":[37.9,35.9,34.5,33.2,34.6,37.5,40.6,44.1,45.3,45.6,45.4,45.7,45.9,45.3,45.8,45.8,47.6,48.8,48.7,47.0,45.5,43.2,41.0,39.3],"ld24":[56.5,53.2,51.1,49.0,51.2,55.8,61.0,66.7,67.9,68.2,68.0,68.5,69.8,68.9,69.7,68.7,71.4,73.4,73.3,70.6,69.3,65.3,61.5,58.7]}},{"type":"Feature","geometry":{"type":"LineString","coordinates":[[127.68884,26.23963],[127.68757,26.23784],[127.68579,26.2341],[127.6856,26.23254],[127.6862,26.23007]]},"properties":{"name":"曙変電所~久茂地変電所線","p_mw":75.2,"loading_pct":113.8,"p24":[65.2,61.7,59.4,57.0,59.4,64.5,70.1,76.2,78.7,79.1,78.8,79.3,79.4,78.4,79.2,79.6,82.6,84.8,84.7,81.7,78.8,74.7,70.7,67.7],"ld24":[97.1,91.5,87.9,84.3,88.0,96.0,105.2,115.4,117.8,118.4,118.0,118.8,120.8,119.2,120.6,119.2,124.1,127.5,127.3,122.6,119.8,112.9,106.2,101.2]}},{"type":"Feature","geometry":{"type":"LineString","coordinates":[[127.68617,26.22853],[127.68533,26.22572]]},"properties":{"name":"曙変電所~久茂地変電所線","p_mw":54.0,"loading_pct":81.9,"p24":[49.0,46.3,44.6,42.8,44.7,48.5,52.4,56.8,58.3,58.6,58.4,58.7,59.1,58.4,58.9,58.9,61.1,62.6,62.5,60.4,58.6,55.7,52.8,50.6],"ld24":[73.1,68.9,66.2,63.5,66.3,72.3,78.8,86.2,87.6,88.0,87.7,88.3,90.1,88.9,89.9,88.6,92.1,94.5,94.4,91.0,89.4,84.3,79.4,75.9]}},{"type":"Feature","geometry":{"type":"LineString","coordinates":[[127.68533,26.22572],[127.68264,26.22063]]},"properties":{"name":"曙変電所~久茂地変電所線","p_mw":33.0,"loading_pct":50.1,"p24":[32.9,31.1,29.9,28.7,30.0,32.5,34.8,37.5,38.0,38.2,38.1,38.3,38.9,38.5,38.9,38.4,39.7,40.7,40.6,39.3,38.7,36.8,35.0,33.7],"ld24":[49.1,46.3,44.5,42.6,44.5,48.5,52.3,56.9,57.6,57.9,57.7,58.1,59.4,58.7,59.3,58.2,60.3,61.9,61.8,59.7,59.0,55.8,52.7,50.5]}},{"type":"Feature","geometry":{"type":"LineString","coordinates":[[127.68264,26.22063],[127.68076,26.22157]]},"properties":{"name":"久茂地変電所~西那覇変電所線","p_mw":21.0,"loading_pct":31.9,"p24":[16.1,15.2,14.7,14.1,14.7,15.9,17.6,19.2,20.2,20.3,20.2,20.4,20.1,19.8,20.1,20.5,21.3,21.9,21.9,21.1,19.9,18.8,17.7,16.9],"ld24":[24.1,22.7,21.8,20.9,21.8,23.8,26.5,29.3,30.5,30.7,30.5,30.8,30.8,30.3,30.7,30.9,32.3,33.3,33.3,31.9,30.5,28.6,26.8,25.4]}},{"type":"Feature","geometry":{"type":"LineString","coordinates":[[127.68264,26.22063],[127.68063,26.21792]]},"properties":{"name":"壷川変電所~久茂地変電所線","p_mw":33.2,"loading_pct":50.4,"p24":[38.5,36.4,35.0,33.6,35.1,38.0,40.1,42.9,42.8,42.9,42.8,43.0,44.4,43.9,44.3,43.1,44.4,45.4,45.3,44.0,44.1,42.2,40.3,39.0],"ld24":[57.5,54.2,52.1,50.0,52.2,56.8,60.3,65.1,66.3,66.6,66.4,66.8,67.7,66.9,67.6,67.0,69.2,70.9,70.8,68.5,67.2,63.9,60.7,58.4]}},{"type":"Feature","geometry":{"type":"LineString","coordinates":[[127.96456,26.63672],[127.96269,26.63887],[127.96247,26.64127],[127.96151,26.64287],[127.96226,26.64581],[127.96272,26.6485],[127.96091,26.65066],[127.95778,26.65159],[127.95508,26.65324],[127.95488,26.6549],[127.955,26.65737],[127.95486,26.66001]]},"properties":{"name":"名護電力所~仲宗根変電所線","p_mw":67.2,"loading_pct":127.4,"p24":[65.4,61.8,59.4,57.1,59.5,64.8,71.8,79.3,82.5,82.9,82.6,83.2,84.1,82.3,83.7,83.5,87.2,89.6,89.5,86.1,82.9,77.4,72.5,69.0],"ld24":[111.5,102.2,96.6,91.3,96.7,109.8,130.7,162.0,132.7,133.5,132.9,134.0,205.1,182.4,197.4,134.5,140.8,145.1,144.9,138.9,188.0,152.4,133.0,121.6]}},{"type":"Feature","geometry":{"type":"LineString","coordinates":[[127.96456,26.63672],[127.96391,26.63437],[127.96212,26.63278],[127.96203,26.63175],[127.96311,26.63087],[127.96237,26.62885],[127.96106,26.62688],[127.96022,26.62464],[127.96081,26.62271],[127.95924,26.62128],[127.95677,26.61933],[127.95546,26.6174],[127.95234,26.61692],[127.95128,26.61595],[127.94857,26.614],[127.94563,26.61255],[127.94433,26.61019],[127.94113,26.61035],[127.93922,26.61112]]},"properties":{"name":"名護電力所~山入端変電所線","p_mw":21.1,"loading_pct":39.7,"p24":[16.1,15.3,14.7,14.1,14.7,16.0,17.6,19.3,20.3,20.4,20.3,20.4,20.2,20.0,20.2,20.5,21.4,22.0,21.9,21.1,20.1,18.9,17.8,17.0],"ld24":[27.4,25.2,23.8,22.6,23.9,27.0,31.9,38.9,30.1,30.3,30.2,30.4,47.8,43.2,46.3,30.5,31.9,32.8,32.8,31.5,44.4,36.8,32.4,29.8]}},{"type":"Feature","geometry":{"type":"LineString","coordinates":[[127.8826,26.6934],[127.88078,26.69205]]},"properties":{"name":"leadin","p_mw":19.6,"loading_pct":38.0,"p24":[16.1,15.2,14.7,14.1,14.7,15.9,17.6,19.3,20.2,20.3,20.2,20.4,20.1,19.8,20.1,20.5,21.3,21.9,21.9,21.1,20.0,18.8,17.7,16.9],"ld24":[28.0,25.6,24.2,22.9,24.3,27.5,32.8,40.8,44.4,44.7,44.5,44.9,52.0,46.1,50.0,45.2,47.7,49.5,49.4,47.0,47.5,38.3,33.4,30.5]}},{"type":"Feature","geometry":{"type":"LineString","coordinates":[[128.12953,26.65744],[128.13809,26.64458],[128.1401,26.64312],[128.14255,26.64177],[128.14421,26.64074],[128.14698,26.64015],[128.14961,26.64041],[128.15217,26.64068],[128.15456,26.64092],[128.15685,26.64155],[128.15916,26.64177],[128.16172,26.64141],[128.16401,26.64039],[128.16538,26.6399],[128.16888,26.63863],[128.17119,26.63839],[128.17279,26.63782],[128.17607,26.63649],[128.17782,26.63554],[128.18042,26.63631],[128.18331,26.63579],[128.18533,26.63474],[128.1884,26.63482],[128.19053,26.63493],[128.1932,26.63383],[128.19549,26.63361],[128.19721,26.63478],[128.20065,26.63688],[128.2023,26.6378],[128.20507,26.63916],[128.20691,26.63927],[128.20975,26.63761],[128.21225,26.6367],[128.21402,26.63583],[128.21627,26.63473],[128.2177,26.63439],[128.21993,26.6346],[128.22267,26.63465],[128.22459,26.63355],[128.2271,26.63336],[128.22885,26.63561],[128.23083,26.63594],[128.23176,26.63692],[128.23387,26.63671],[128.23517,26.63705],[128.2378,26.63878],[128.24037,26.64038],[128.24092,26.64232],[128.24117,26.64488],[128.24331,26.6471],[128.2448,26.64951],[128.24721,26.6504],[128.24941,26.65307],[128.25034,26.65549],[128.2511,26.65731],[128.252,26.65927],[128.25445,26.66138],[128.25591,26.66473],[128.25696,26.66839],[128.2586,26.66977],[128.25949,26.6716],[128.25967,26.67346],[128.26284,26.67417],[128.26467,26.67188],[128.26696,26.67147]]},"properties":{"name":"奥間変電所~田港変電所線","p_mw":0.0,"loading_pct":0.3,"p24":[0.0,0.0,0.0,0.0,0.0,0.0,0.0,0.0,0.0,0.0,0.0,0.0,0.0,0.0,0.0,0.0,0.0,0.0,0.0,0.0,0.0,0.0,0.0,0.0],"ld24":[0.3,0.3,0.3,0.3,0.3,0.3,0.3,0.3,0.4,0.4,0.4,0.4,0.2,0.3,0.3,0.4,0.4,0.4,0.4,0.4,0.3,0.3,0.3,0.3]}},{"type":"Feature","geometry":{"type":"LineString","coordinates":[[127.85189,26.35377],[127.85411,26.35418],[127.8554,26.35426],[127.85698,26.35432],[127.85803,26.35635],[127.85961,26.35638],[127.86208,26.35609],[127.86365,26.35686],[127.86293,26.35881],[127.86441,26.359],[127.86399,26.3611],[127.86565,26.36335],[127.86548,26.36589],[127.86728,26.36738],[127.86774,26.36849],[127.8683,26.37029],[127.86972,26.37239],[127.86939,26.37431],[127.87056,26.3766],[127.87184,26.3769],[127.8731,26.3788]]},"properties":{"name":"沖縄電力 132.0kV線","p_mw":-52.5,"loading_pct":9.6,"p24":[-175.4,-171.9,-170.2,-168.7,-170.4,-172.3,-139.1,-119.8,-108.9,-107.6,-108.6,-106.8,-110.0,-112.9,-110.5,-106.0,-96.1,-91.9,-91.8,-99.0,-111.8,-124.6,-137.3,-146.8],"ld24":[32.1,31.5,31.2,30.9,31.2,31.5,25.4,21.9,20.0,19.8,19.9,19.6,20.1,20.6,20.2,19.4,17.6,16.9,16.8,18.2,20.4,22.8,25.1,26.9]}},{"type":"Feature","geometry":{"type":"LineString","coordinates":[[127.95486,26.66001],[127.95882,26.6603],[127.96158,26.66101],[127.96428,26.66253],[127.96575,26.66384],[127.96818,26.66524],[127.97165,26.66869],[127.97458,26.67085],[127.97663,26.6722]]},"properties":{"name":"沖縄電力 66.0kV線","p_mw":21.0,"loading_pct":40.3,"p24":[16.1,15.2,14.7,14.1,14.7,16.0,17.6,19.3,20.2,20.4,20.3,20.4,20.2,19.9,20.1,20.5,21.4,21.9,21.9,21.1,20.0,18.9,17.8,16.9],"ld24":[27.7,25.4,24.0,22.7,24.0,27.2,32.3,39.7,30.0,30.1,30.0,30.3,49.5,44.4,47.8,30.4,31.7,32.6,32.6,31.3,45.7,37.5,32.8,30.1]}},{"type":"Feature","geometry":{"type":"LineString","coordinates":[[127.67372,26.20613],[127.67993,26.20848]]},"properties":{"name":"leadin","p_mw":21.0,"loading_pct":32.0,"p24":[16.1,15.2,14.7,14.1,14.7,15.9,17.6,19.3,20.2,20.3,20.2,20.4,20.1,19.9,20.1,20.5,21.3,21.9,21.9,21.1,20.0,18.8,17.7,16.9],"ld24":[24.1,22.7,21.8,20.9,21.8,23.8,26.5,29.3,30.5,30.7,30.5,30.8,30.8,30.4,30.8,30.9,32.3,33.3,33.2,31.9,30.6,28.6,26.8,25.4]}},{"type":"Feature","geometry":{"type":"LineString","coordinates":[[127.67372,26.20613],[127.67421,26.20715],[127.67547,26.21279],[127.67632,26.21404],[127.67982,26.21691]]},"properties":{"name":"那覇変電所~壷川変電所線","p_mw":-12.2,"loading_pct":18.5,"p24":[-22.3,-21.1,-20.4,-19.5,-20.4,-22.1,-22.5,-23.6,-22.5,-22.6,-22.5,-22.6,-24.2,-24.1,-24.2,-22.6,-23.0,-23.4,-23.4,-22.9,-24.1,-23.3,-22.6,-22.0],"ld24":[33.5,31.6,30.4,29.2,30.4,33.0,33.8,35.9,39.1,39.3,39.2,39.4,37.0,36.6,36.9,39.5,40.7,41.8,41.7,40.4,36.8,35.3,34.0,33.1]}},{"type":"Feature","geometry":{"type":"LineString","coordinates":[[127.99683,26.51683],[128.00026,26.51966],[128.0041,26.52094],[128.0076,26.5218],[128.01123,26.52209],[128.01341,26.52223],[128.01611,26.52275],[128.0186,26.52322],[128.02039,26.52324],[128.02288,26.52336],[128.0263,26.52358],[128.02967,26.52394],[128.03201,26.5247]]},"properties":{"name":"松田変電所~Henoko Substation線","p_mw":80.3,"loading_pct":71.7,"p24":[76.5,72.7,70.2,67.7,70.2,75.8,82.9,90.7,98.6,99.2,98.8,99.5,96.1,94.0,95.6,99.9,104.1,107.0,106.9,102.8,94.7,88.7,83.6,80.0],"ld24":[62.2,57.7,55.0,52.5,55.1,61.3,70.9,84.9,79.5,80.0,79.6,80.3,102.8,93.6,99.8,80.7,84.6,87.4,87.2,83.4,95.9,80.7,72.0,66.7]}}]}