{"type":"FeatureCollection","features":[{"type":"Feature","geometry":{"type":"LineString","coordinates":[[127.67485,26.1906],[127.68986,26.20175]]},"properties":{"name":"leadin","p_mw":22,"loading_pct":33}},{"type":"Feature","geometry":{"type":"LineString","coordinates":[[127.67244,26.19257],[127.66925,26.19607],[127.66982,26.19777],[127.66986,26.19928]]},"properties":{"name":"那覇高安線; 那覇小禄線","p_mw":42,"loading_pct":32}},{"type":"Feature","geometry":{"type":"LineString","coordinates":[[127.67782,26.18925],[127.68659,26.1858],[127.69588,26.18379],[127.69915,26.18341]]},"properties":{"name":"那覇高安線; 小禄線","p_mw":-85,"loading_pct":65}},{"type":"Feature","geometry":{"type":"LineString","coordinates":[[127.66986,26.19928],[127.65854,26.19442]]},"properties":{"name":"leadin","p_mw":22,"loading_pct":33}},{"type":"Feature","geometry":{"type":"LineString","coordinates":[[127.66986,26.19928],[127.66969,26.20122],[127.66603,26.20439]]},"properties":{"name":"那覇高安線; 那覇小禄線","p_mw":20,"loading_pct":15}},{"type":"Feature","geometry":{"type":"LineString","coordinates":[[127.66679,26.20527],[127.66947,26.20424],[127.67095,26.20422],[127.67288,26.20515],[127.67372,26.20613]]},"properties":{"name":"那覇変電所~壷川変電所線","p_mw":9,"loading_pct":14}},{"type":"Feature","geometry":{"type":"LineString","coordinates":[[127.69915,26.18341],[127.70053,26.18131],[127.70175,26.18055],[127.70283,26.17495]]},"properties":{"name":"那覇高安線; 小禄線","p_mw":-107,"loading_pct":81}},{"type":"Feature","geometry":{"type":"LineString","coordinates":[[127.69915,26.18341],[127.70249,26.18434],[127.70815,26.18692],[127.71264,26.1935],[127.71273,26.19562]]},"properties":{"name":"繁多川線","p_mw":22,"loading_pct":16}},{"type":"Feature","geometry":{"type":"LineString","coordinates":[[127.70283,26.17495],[127.70717,26.17149],[127.71209,26.16844],[127.71347,26.16771],[127.71667,26.16702]]},"properties":{"name":"那覇高安線; 小禄線","p_mw":-129,"loading_pct":98}},{"type":"Feature","geometry":{"type":"LineString","coordinates":[[127.70283,26.17495],[127.70222,26.17457],[127.69973,26.17487],[127.69736,26.174],[127.69522,26.17428],[127.68987,26.17655]]},"properties":{"name":"沖縄電力 66.0kV線","p_mw":22,"loading_pct":16}},{"type":"Feature","geometry":{"type":"LineString","coordinates":[[127.74192,26.24341],[127.72366,26.23229]]},"properties":{"name":"leadin","p_mw":22,"loading_pct":32}},{"type":"Feature","geometry":{"type":"LineString","coordinates":[[127.74493,26.24163],[127.74626,26.24107],[127.74805,26.24107],[127.75133,26.2393]]},"properties":{"name":"西原幹線;前田線","p_mw":-11,"loading_pct":16}},{"type":"Feature","geometry":{"type":"LineString","coordinates":[[127.7393,26.24494],[127.72946,26.25156],[127.72505,26.25563],[127.71671,26.24905],[127.71216,26.24625],[127.71098,26.24432],[127.70725,26.23533],[127.70362,26.2316]]},"properties":{"name":"浦添大名線","p_mw":5,"loading_pct":8}},{"type":"Feature","geometry":{"type":"LineString","coordinates":[[127.7393,26.24494],[127.72946,26.25156],[127.72505,26.25563],[127.72233,26.25771],[127.72174,26.25955],[127.71993,26.26293],[127.71974,26.26443],[127.72022,26.26661]]},"properties":{"name":"西原幹線","p_mw":-116,"loading_pct":16}},{"type":"Feature","geometry":{"type":"LineString","coordinates":[[127.74493,26.24163],[127.74626,26.24107],[127.74805,26.24107],[127.75133,26.2393]]},"properties":{"name":"西原幹線;前田線","p_mw":63,"loading_pct":10}},{"type":"Feature","geometry":{"type":"LineString","coordinates":[[127.71487,26.20086],[127.71857,26.20459],[127.71943,26.20855],[127.71829,26.21017],[127.71969,26.21105]]},"properties":{"name":"leadin","p_mw":0,"loading_pct":0}},{"type":"Feature","geometry":{"type":"LineString","coordinates":[[127.71888,26.16264],[127.71763,26.16001],[127.71751,26.1579],[127.71618,26.15388],[127.71393,26.15137],[127.71237,26.14901],[127.71041,26.14705],[127.70432,26.14711],[127.70175,26.14583],[127.70005,26.14312],[127.69537,26.14019],[127.69395,26.1382]]},"properties":{"name":"友寄変電所~大里変電所線","p_mw":22,"loading_pct":33}},{"type":"Feature","geometry":{"type":"LineString","coordinates":[[127.7221,26.16734],[127.72563,26.16887],[127.72708,26.17141],[127.72647,26.17341],[127.72857,26.17508],[127.73065,26.17835],[127.73161,26.18095]]},"properties":{"name":"友寄変電所~南風原変電所線","p_mw":-122,"loading_pct":184}},{"type":"Feature","geometry":{"type":"LineString","coordinates":[[127.72144,26.16519],[127.72729,26.16404],[127.72934,26.16247],[127.7371,26.1634],[127.73789,26.16374]]},"properties":{"name":"沖縄電力 66.0kV線","p_mw":26,"loading_pct":39}},{"type":"Feature","geometry":{"type":"LineString","coordinates":[[127.68882,26.13725],[127.68615,26.1387],[127.68451,26.1391],[127.68381,26.14202],[127.68286,26.14399],[127.67998,26.14494],[127.67914,26.14631],[127.67841,26.14982],[127.67642,26.15153],[127.67566,26.15338],[127.67336,26.15394]]},"properties":{"name":"namebind","p_mw":0,"loading_pct":0}},{"type":"Feature","geometry":{"type":"LineString","coordinates":[[127.73283,26.18447],[127.73556,26.18808],[127.73821,26.19343],[127.73904,26.19433],[127.73938,26.1968],[127.74178,26.20135],[127.74312,26.20223],[127.74529,26.20304]]},"properties":{"name":"南風原変電所~与那原変電所線","p_mw":-86,"loading_pct":129}},{"type":"Feature","geometry":{"type":"LineString","coordinates":[[127.7221,26.16734],[127.72563,26.16887],[127.72708,26.17141],[127.72647,26.17341],[127.72857,26.17508],[127.73065,26.17835],[127.73161,26.18095]]},"properties":{"name":"友寄変電所~南風原変電所線","p_mw":-91,"loading_pct":11}},{"type":"Feature","geometry":{"type":"LineString","coordinates":[[127.73283,26.18447],[127.73556,26.18808],[127.73821,26.19343],[127.73904,26.19433],[127.73938,26.1968],[127.74178,26.20135],[127.74312,26.20223],[127.74529,26.20304]]},"properties":{"name":"南風原変電所~与那原変電所線","p_mw":-165,"loading_pct":21}},{"type":"Feature","geometry":{"type":"LineString","coordinates":[[127.74823,26.20432],[127.75174,26.20718],[127.75502,26.21297],[127.75294,26.21706],[127.75811,26.22408],[127.75832,26.22704],[127.75808,26.22851],[127.75827,26.23015],[127.75791,26.23203],[127.75807,26.2337]]},"properties":{"name":"与那原変電所~西原変電所線","p_mw":-46,"loading_pct":68}},{"type":"Feature","geometry":{"type":"LineString","coordinates":[[127.74823,26.20432],[127.75174,26.20718],[127.75502,26.21297],[127.75294,26.21706],[127.75811,26.22408],[127.75832,26.22704],[127.75808,26.22851],[127.75827,26.23015],[127.75791,26.23203],[127.75807,26.2337]]},"properties":{"name":"与那原変電所~西原変電所線","p_mw":-225,"loading_pct":28}},{"type":"Feature","geometry":{"type":"LineString","coordinates":[[127.99056,26.5091],[127.98865,26.5076],[127.98535,26.50579],[127.98331,26.50314],[127.96576,26.49365],[127.95947,26.49191],[127.95491,26.48871],[127.94313,26.48138],[127.93519,26.4777],[127.93395,26.47568],[127.93289,26.46927],[127.93177,26.46691],[127.93044,26.46504],[127.92945,26.45992],[127.9271,26.45907],[127.92454,26.45871],[127.92123,26.45627],[127.91877,26.45533],[127.91912,26.45348],[127.91884,26.45156],[127.91918,26.44958],[127.91898,26.44838],[127.91822,26.44694],[127.87224,26.45974]]},"properties":{"name":"namebind","p_mw":-126,"loading_pct":114}},{"type":"Feature","geometry":{"type":"LineString","coordinates":[[127.99271,26.51176],[127.99491,26.51527],[127.99683,26.51683]]},"properties":{"name":"松田変電所~Henoko Substation線","p_mw":105,"loading_pct":95}},{"type":"Feature","geometry":{"type":"LineString","coordinates":[[127.94273,26.5258],[127.94595,26.52724],[127.95063,26.53028],[127.95429,26.53193],[127.95624,26.53178],[127.95865,26.53279],[127.96178,26.5334],[127.96585,26.53342],[127.96792,26.53224],[127.9711,26.53278],[127.97282,26.53378],[127.97222,26.53698],[127.97866,26.54497],[127.97969,26.54678],[127.9848,26.55171],[127.98597,26.55372],[127.98866,26.55678],[127.98874,26.55931],[127.99167,26.56341],[127.9944,26.56592],[127.99552,26.56838],[127.99764,26.57095],[127.99757,26.57345],[127.9959,26.57481],[127.99472,26.57684],[127.99371,26.57753],[127.99319,26.57857],[127.99368,26.58095]]},"properties":{"name":"喜瀬変電所~名護市変電所線","p_mw":90,"loading_pct":82}},{"type":"Feature","geometry":{"type":"LineString","coordinates":[[127.94273,26.5258],[127.94495,26.52151],[127.94503,26.51936],[127.9426,26.51536],[127.93815,26.51552],[127.93564,26.51514],[127.93114,26.51347],[127.92739,26.51144],[127.92476,26.50874],[127.91812,26.50542],[127.91794,26.50331],[127.91713,26.50225],[127.91701,26.50053],[127.91308,26.49908],[127.91154,26.49647],[127.90691,26.49543],[127.90425,26.49616],[127.90106,26.49511],[127.89903,26.49339],[127.89729,26.49274],[127.89421,26.49249],[127.8914,26.49437],[127.89028,26.49593],[127.88653,26.4949],[127.88129,26.49837],[127.87833,26.50135],[127.87574,26.50148],[127.87356,26.50235],[127.8718,26.50433],[127.86956,26.50419],[127.8667,26.50186],[127.86397,26.50105],[127.86249,26.4992],[127.85947,26.49743],[127.85704,26.49467],[127.85281,26.49303],[127.85229,26.49188],[127.8528,26.48746],[127.85242,26.48216],[127.85132,26.47891],[127.85097,26.47613],[127.84993,26.47414],[127.84956,26.47231],[127.8483,26.46927],[127.84938,26.46714],[127.84881,26.46472],[127.84641,26.46124],[127.84266,26.45393]]},"properties":{"name":"恩納村変電所~喜瀬変電所線","p_mw":-112,"loading_pct":202}},{"type":"Feature","geometry":{"type":"LineString","coordinates":[[127.94273,26.5258],[127.9421,26.5317],[127.94032,26.53408]]},"properties":{"name":"沖縄電力 66.0kV線","p_mw":22,"loading_pct":38}},{"type":"Feature","geometry":{"type":"LineString","coordinates":[[127.99368,26.58095],[127.99607,26.58218],[127.99873,26.58436],[128.00127,26.59021],[128.00008,26.59259],[127.99974,26.59432],[128.0002,26.59693],[128.00007,26.59906]]},"properties":{"name":"沖縄電力 66.0kV線","p_mw":67,"loading_pct":124}},{"type":"Feature","geometry":{"type":"LineString","coordinates":[[127.99368,26.58095],[127.99351,26.58241],[127.99424,26.58334],[127.99277,26.58422]]},"properties":{"name":"沖縄電力 66.0kV線","p_mw":22,"loading_pct":40}},{"type":"Feature","geometry":{"type":"LineString","coordinates":[[128.00007,26.59906],[127.99941,26.60032],[127.9988,26.60131]]},"properties":{"name":"名護市変電所~名護電力所線","p_mw":131,"loading_pct":246}},{"type":"Feature","geometry":{"type":"LineString","coordinates":[[128.00007,26.59906],[128.0021,26.59724],[128.00358,26.59479],[128.01273,26.58839],[128.01098,26.57907],[128.01174,26.5765],[128.01171,26.5742],[128.00974,26.57129],[128.01004,26.56288],[128.01059,26.55993],[128.01056,26.55665],[128.01191,26.55466],[128.01432,26.55299],[128.01782,26.55153],[128.02235,26.547],[128.02472,26.54596],[128.03087,26.54089],[128.0346,26.5373],[128.03711,26.5355],[128.03757,26.53248],[128.03558,26.52904],[128.03475,26.52824]]},"properties":{"name":"Henoko Substation~名護市変電所線","p_mw":-64,"loading_pct":62}},{"type":"Feature","geometry":{"type":"LineString","coordinates":[[127.87889,26.46217],[127.87175,26.46196]]},"properties":{"name":"伊芸変電所~石川東山二丁目変電所線","p_mw":0,"loading_pct":0}},{"type":"Feature","geometry":{"type":"LineString","coordinates":[[127.869,26.46186],[127.86324,26.46066],[127.85868,26.46027],[127.85235,26.45829],[127.84472,26.4506],[127.84136,26.44633],[127.83988,26.44492]]},"properties":{"name":"伊芸変電所~石川東山二丁目変電所線","p_mw":109,"loading_pct":40}},{"type":"Feature","geometry":{"type":"LineString","coordinates":[[127.9988,26.60131],[127.99836,26.60234],[127.99516,26.60648],[127.9946,26.60778],[127.99319,26.60934],[127.98929,26.60919]]},"properties":{"name":"沖縄電力 66.0kV線","p_mw":115,"loading_pct":219}},{"type":"Feature","geometry":{"type":"LineString","coordinates":[[127.99882,26.60132],[128.00196,26.6026],[128.00377,26.60525],[128.00534,26.60616],[128.01299,26.6091],[128.01819,26.61231],[128.02243,26.61402],[128.0282,26.61777],[128.03093,26.62042],[128.03567,26.62329],[128.03907,26.62607],[128.04428,26.62848],[128.04608,26.62883],[128.04928,26.63071],[128.05211,26.63193],[128.0535,26.63344],[128.05555,26.6345],[128.06277,26.63599],[128.06849,26.63884],[128.07254,26.63729],[128.08161,26.63623],[128.0912,26.63975],[128.09649,26.63955],[128.09857,26.64184],[128.10221,26.64352],[128.10933,26.64509],[128.11824,26.64807],[128.12392,26.65313],[128.12795,26.65551]]},"properties":{"name":"名護電力所~田港変電所線","p_mw":15,"loading_pct":28}},{"type":"Feature","geometry":{"type":"LineString","coordinates":[[127.98696,26.61363],[127.98596,26.61612],[127.98658,26.61802],[127.98552,26.61962],[127.98235,26.62215],[127.97952,26.62712],[127.97444,26.63001],[127.97206,26.63312],[127.96456,26.63672]]},"properties":{"name":"沖縄電力 66.0kV線","p_mw":92,"loading_pct":179}},{"type":"Feature","geometry":{"type":"LineString","coordinates":[[127.82954,26.39074],[127.83227,26.38979],[127.83465,26.39026],[127.8403,26.39053],[127.84396,26.39113],[127.85037,26.39333]]},"properties":{"name":"うるま市変電所~石川東恩納変電所線","p_mw":-6,"loading_pct":9}},{"type":"Feature","geometry":{"type":"LineString","coordinates":[[127.82674,26.38915],[127.82659,26.38591],[127.82582,26.38365],[127.82441,26.38178],[127.82021,26.37863],[127.81664,26.37446],[127.815,26.37172],[127.81379,26.36632],[127.81133,26.36553],[127.81159,26.36313],[127.80831,26.35633]]},"properties":{"name":"美里六丁目変電所~うるま市変電所線","p_mw":10,"loading_pct":14}},{"type":"Feature","geometry":{"type":"LineString","coordinates":[[127.82954,26.39074],[127.83227,26.38979],[127.83465,26.39026],[127.8403,26.39053],[127.84396,26.39113],[127.85037,26.39333]]},"properties":{"name":"うるま市変電所~石川東恩納変電所線","p_mw":-86,"loading_pct":31}},{"type":"Feature","geometry":{"type":"LineString","coordinates":[[127.82674,26.38915],[127.82659,26.38591],[127.82582,26.38365],[127.82441,26.38178],[127.82021,26.37863],[127.81664,26.37446],[127.815,26.37172],[127.81379,26.36632],[127.81133,26.36553],[127.81159,26.36313],[127.80831,26.35633]]},"properties":{"name":"美里六丁目変電所~うるま市変電所線","p_mw":223,"loading_pct":16}},{"type":"Feature","geometry":{"type":"LineString","coordinates":[[127.82467,26.39462],[127.82317,26.39566],[127.82128,26.3963],[127.82117,26.40397],[127.81318,26.40898],[127.8112,26.41198],[127.81045,26.41524],[127.81003,26.4206],[127.81041,26.42372],[127.81449,26.42976]]},"properties":{"name":"うるま市変電所~仲泊変電所線","p_mw":-148,"loading_pct":54}},{"type":"Feature","geometry":{"type":"LineString","coordinates":[[127.82702,26.3891],[127.82732,26.38647],[127.82929,26.38487],[127.83145,26.38488],[127.83192,26.38248],[127.83845,26.37733],[127.83721,26.37566],[127.8392,26.37357],[127.84087,26.37078],[127.84262,26.36259],[127.84464,26.36047],[127.84857,26.35785],[127.85096,26.35569],[127.85189,26.35377]]},"properties":{"name":"宇堅変電所~うるま市変電所線","p_mw":-44,"loading_pct":16}},{"type":"Feature","geometry":{"type":"LineString","coordinates":[[127.828,26.39442],[127.82729,26.39664],[127.82407,26.39687],[127.82286,26.3987],[127.82247,26.4015],[127.82253,26.40443],[127.82313,26.40542],[127.82325,26.40681],[127.8238,26.40751],[127.82196,26.4107]]},"properties":{"name":"うるま市変電所~石川曙三丁目変電所線","p_mw":15,"loading_pct":6}},{"type":"Feature","geometry":{"type":"LineString","coordinates":[[127.85557,26.39144],[127.85776,26.38986],[127.85938,26.38617],[127.86607,26.38718],[127.8674,26.38836],[127.87008,26.38734],[127.87046,26.38554],[127.872,26.38281]]},"properties":{"name":"宇堅変電所~石川東恩納変電所線","p_mw":-129,"loading_pct":24}},{"type":"Feature","geometry":{"type":"LineString","coordinates":[[127.80516,26.35258],[127.7964,26.33969],[127.79397,26.33774],[127.79114,26.33727],[127.78866,26.33756],[127.78634,26.33518],[127.78144,26.33288],[127.78308,26.32833],[127.78508,26.32421],[127.78629,26.32292],[127.78788,26.32202],[127.78794,26.32096],[127.78674,26.31829],[127.78735,26.31689],[127.78831,26.31593],[127.78862,26.31386],[127.78766,26.31212],[127.78389,26.30998]]},"properties":{"name":"美里六丁目変電所~瑞慶覧変電所線","p_mw":33,"loading_pct":49}},{"type":"Feature","geometry":{"type":"LineString","coordinates":[[127.80516,26.35258],[127.7964,26.33969],[127.79397,26.33774],[127.79114,26.33727],[127.78866,26.33756],[127.78634,26.33518],[127.78144,26.33288],[127.78308,26.32833],[127.78508,26.32421],[127.78629,26.32292],[127.78788,26.32202],[127.78794,26.32096],[127.78674,26.31829],[127.78735,26.31689],[127.78831,26.31593],[127.78862,26.31386],[127.78766,26.31212],[127.78389,26.30998]]},"properties":{"name":"美里六丁目変電所~瑞慶覧変電所線","p_mw":183,"loading_pct":17}},{"type":"Feature","geometry":{"type":"LineString","coordinates":[[127.81097,26.30245],[127.80934,26.29808],[127.81057,26.29278],[127.81286,26.29028],[127.8104,26.28353],[127.81125,26.28298],[127.81008,26.28315],[127.80593,26.2809],[127.80408,26.28044],[127.7958,26.27504]]},"properties":{"name":"西原変電所~渡口変電所線","p_mw":6,"loading_pct":9}},{"type":"Feature","geometry":{"type":"LineString","coordinates":[[127.81045,26.307],[127.80939,26.30836],[127.79756,26.30714],[127.79381,26.30762],[127.79214,26.30749],[127.78887,26.30875],[127.78517,26.30852]]},"properties":{"name":"瑞慶覧変電所~渡口変電所線","p_mw":6,"loading_pct":10}},{"type":"Feature","geometry":{"type":"LineString","coordinates":[[127.81269,26.30564],[127.80939,26.31062],[127.80943,26.31626],[127.81061,26.31871],[127.81473,26.3225],[127.81565,26.32378],[127.82207,26.32841],[127.8249,26.33302],[127.82575,26.33529],[127.82783,26.33676],[127.82945,26.33876],[127.83305,26.34017],[127.83829,26.34306],[127.84189,26.33505],[127.84349,26.33423],[127.85035,26.32726],[127.85386,26.33],[127.88066,26.33176]]},"properties":{"name":"渡口変電所~美里六丁目変電所線","p_mw":14,"loading_pct":7}},{"type":"Feature","geometry":{"type":"LineString","coordinates":[[127.81097,26.30245],[127.80934,26.29808],[127.81057,26.29278],[127.81286,26.29028],[127.8104,26.28353],[127.81125,26.28298],[127.81008,26.28315],[127.80593,26.2809],[127.80408,26.28044],[127.79262,26.27312],[127.78813,26.26725],[127.78758,26.26493],[127.7826,26.25142],[127.7797,26.24845],[127.77639,26.24399],[127.76958,26.2378],[127.7667,26.23592],[127.75972,26.23584]]},"properties":{"name":"西原変電所~渡口変電所線","p_mw":267,"loading_pct":32}},{"type":"Feature","geometry":{"type":"LineString","coordinates":[[127.81269,26.30564],[127.80939,26.31062],[127.80943,26.31626],[127.81061,26.31871],[127.81473,26.3225],[127.81565,26.32378],[127.82207,26.32841],[127.8249,26.33302],[127.82575,26.33529],[127.82783,26.33676],[127.82945,26.33876],[127.83305,26.34017],[127.83829,26.34306],[127.83869,26.34666],[127.84006,26.34944],[127.84269,26.35096],[127.85104,26.35138],[127.85172,26.35224],[127.85189,26.35377]]},"properties":{"name":"渡口変電所~美里六丁目変電所線","p_mw":-10,"loading_pct":4}},{"type":"Feature","geometry":{"type":"LineString","coordinates":[[127.81737,26.43486],[127.81952,26.43734],[127.8254,26.44183],[127.83153,26.44435],[127.83413,26.44389]]},"properties":{"name":"仲泊変電所~石川東山一丁目変電所線","p_mw":-189,"loading_pct":69}},{"type":"Feature","geometry":{"type":"LineString","coordinates":[[127.83507,26.44312],[127.83814,26.44228]]},"properties":{"name":"石川東山一丁目変電所~石川東山二丁目変電所線","p_mw":55,"loading_pct":46}},{"type":"Feature","geometry":{"type":"LineString","coordinates":[[127.83413,26.44389],[127.83153,26.44435],[127.8254,26.44183],[127.81952,26.43734],[127.81737,26.43486]]},"properties":{"name":"仲泊変電所~石川東山一丁目変電所線","p_mw":-23,"loading_pct":39}},{"type":"Feature","geometry":{"type":"LineString","coordinates":[[127.83797,26.44061],[127.84063,26.43181],[127.84008,26.43108]]},"properties":{"name":"leadin","p_mw":-54,"loading_pct":42}},{"type":"Feature","geometry":{"type":"LineString","coordinates":[[127.83587,26.4451],[127.83594,26.44734],[127.83897,26.44815],[127.8396,26.45049],[127.84086,26.45271],[127.84266,26.45393]]},"properties":{"name":"石川東山二丁目変電所~石川東山一丁目変電所線","p_mw":144,"loading_pct":233}},{"type":"Feature","geometry":{"type":"LineString","coordinates":[[127.84266,26.45393],[127.84051,26.45407],[127.83521,26.45757],[127.83209,26.45801],[127.82952,26.45899],[127.82784,26.45827]]},"properties":{"name":"恩納村変電所~喜瀬変電所線","p_mw":22,"loading_pct":33}},{"type":"Feature","geometry":{"type":"LineString","coordinates":[[127.83814,26.44228],[127.83507,26.44312]]},"properties":{"name":"石川東山一丁目変電所~石川東山二丁目変電所線","p_mw":259,"loading_pct":94}},{"type":"Feature","geometry":{"type":"LineString","coordinates":[[127.83797,26.44061],[127.84063,26.43181],[127.84008,26.43108]]},"properties":{"name":"leadin","p_mw":54,"loading_pct":10}},{"type":"Feature","geometry":{"type":"LineString","coordinates":[[127.75905,26.23551],[127.75312,26.23861]]},"properties":{"name":"西原幹線;前田線","p_mw":-4,"loading_pct":6}},{"type":"Feature","geometry":{"type":"LineString","coordinates":[[127.75972,26.23584],[127.7667,26.23592],[127.76958,26.2378],[127.77639,26.24399],[127.7797,26.24845],[127.7826,26.25142],[127.78758,26.26493],[127.78813,26.26725],[127.79262,26.27312],[127.7958,26.27504]]},"properties":{"name":"西原変電所~渡口変電所線","p_mw":-8,"loading_pct":12}},{"type":"Feature","geometry":{"type":"LineString","coordinates":[[127.76175,26.23339],[127.76725,26.23304],[127.77018,26.23202]]},"properties":{"name":"西原変電所~小那覇変電所線","p_mw":2,"loading_pct":2}},{"type":"Feature","geometry":{"type":"LineString","coordinates":[[127.7958,26.27504],[127.79568,26.27628],[127.79612,26.27866],[127.79569,26.28047],[127.79611,26.28228],[127.79555,26.28439],[127.78865,26.28943],[127.78733,26.29006],[127.78768,26.2915],[127.79266,26.29758],[127.78166,26.30724]]},"properties":{"name":"渡口変電所~瑞慶覧変電所線","p_mw":-2,"loading_pct":4}},{"type":"Feature","geometry":{"type":"LineString","coordinates":[[127.75905,26.23551],[127.75312,26.23861]]},"properties":{"name":"西原幹線;前田線","p_mw":-11,"loading_pct":6}},{"type":"Feature","geometry":{"type":"LineString","coordinates":[[127.72074,26.26697],[127.72258,26.26649],[127.72441,26.26647],[127.73744,26.27007],[127.73865,26.27102],[127.74045,26.27403],[127.74351,26.27675],[127.75329,26.28326]]},"properties":{"name":"伊佐一丁目変電所_2~牧港五丁目変電所線","p_mw":-1,"loading_pct":4}},{"type":"Feature","geometry":{"type":"LineString","coordinates":[[127.71665,26.26839],[127.71462,26.2689],[127.71376,26.26789],[127.71257,26.26733],[127.71167,26.2661],[127.7097,26.26469],[127.70895,26.26347],[127.70883,26.26249]]},"properties":{"name":"牧港五丁目変電所~港川変電所線","p_mw":165,"loading_pct":125}},{"type":"Feature","geometry":{"type":"LineString","coordinates":[[127.72074,26.26697],[127.72258,26.26649],[127.72441,26.26647],[127.73744,26.27007],[127.73865,26.27102],[127.74045,26.27403],[127.74351,26.27675],[127.75329,26.28326]]},"properties":{"name":"伊佐一丁目変電所_2~牧港五丁目変電所線","p_mw":-106,"loading_pct":159}},{"type":"Feature","geometry":{"type":"LineString","coordinates":[[127.70964,26.25783],[127.70344,26.25187],[127.69893,26.24885],[127.69689,26.24672],[127.69484,26.24562],[127.69516,26.24539],[127.69343,26.24448]]},"properties":{"name":"港川変電所~曙変電所線","p_mw":143,"loading_pct":72}},{"type":"Feature","geometry":{"type":"LineString","coordinates":[[127.77966,26.30702],[127.77705,26.30677],[127.77479,26.30552],[127.76998,26.30475],[127.76787,26.30336],[127.76375,26.30219],[127.76297,26.29979],[127.76287,26.29734],[127.76332,26.29513],[127.76548,26.29334],[127.76452,26.29166],[127.7605,26.2895],[127.75962,26.2873]]},"properties":{"name":"瑞慶覧変電所~伊佐一丁目変電所_2線","p_mw":52,"loading_pct":76}},{"type":"Feature","geometry":{"type":"LineString","coordinates":[[127.75702,26.28634],[127.75447,26.28414]]},"properties":{"name":"伊佐一丁目変電所_2~牧港五丁目変電所線","p_mw":79,"loading_pct":39}},{"type":"Feature","geometry":{"type":"LineString","coordinates":[[127.77966,26.30702],[127.77705,26.30677],[127.77479,26.30552],[127.76998,26.30475],[127.76787,26.30336],[127.76375,26.30219],[127.76297,26.29979],[127.76287,26.29734],[127.76332,26.29513],[127.76548,26.29334],[127.76452,26.29166],[127.7605,26.2895],[127.75962,26.2873]]},"properties":{"name":"瑞慶覧変電所~伊佐一丁目変電所_2線","p_mw":131,"loading_pct":12}},{"type":"Feature","geometry":{"type":"LineString","coordinates":[[127.75702,26.28634],[127.75447,26.28414]]},"properties":{"name":"伊佐一丁目変電所_2~牧港五丁目変電所線","p_mw":66,"loading_pct":7}},{"type":"Feature","geometry":{"type":"LineString","coordinates":[[127.7546,26.28234],[127.75014,26.27884],[127.74895,26.27756]]},"properties":{"name":"namebind","p_mw":0,"loading_pct":0}},{"type":"Feature","geometry":{"type":"LineString","coordinates":[[127.73789,26.16374],[127.73969,26.16546],[127.74188,26.16619],[127.74435,26.16575],[127.74741,26.1667],[127.76044,26.16793],[127.76359,26.16703],[127.76621,26.16427],[127.77356,26.16331],[127.777,26.16371],[127.77969,26.16204],[127.78207,26.16145],[127.78418,26.1603]]},"properties":{"name":"友寄変電所~佐敷変電所線","p_mw":4,"loading_pct":6}},{"type":"Feature","geometry":{"type":"LineString","coordinates":[[127.73789,26.16374],[127.73807,26.16173],[127.73887,26.15874],[127.73977,26.15707],[127.73935,26.15193],[127.74149,26.14859],[127.74234,26.14603],[127.74376,26.14412],[127.7449,26.14],[127.74616,26.13821],[127.74702,26.13574],[127.75025,26.13015]]},"properties":{"name":"友寄変電所~長毛変電所線","p_mw":22,"loading_pct":33}},{"type":"Feature","geometry":{"type":"LineString","coordinates":[[127.93166,26.67648],[127.92953,26.67414],[127.92949,26.67275],[127.92836,26.67131],[127.92862,26.67041],[127.92855,26.66831],[127.9275,26.66679],[127.92512,26.66637],[127.9185,26.66742],[127.91493,26.66571],[127.91437,26.66269],[127.91159,26.66116],[127.91092,26.65984],[127.91077,26.65778],[127.90938,26.65759]]},"properties":{"name":"沖縄電力 66.0kV線","p_mw":21,"loading_pct":43}},{"type":"Feature","geometry":{"type":"LineString","coordinates":[[127.93166,26.67648],[127.93291,26.67799],[127.93126,26.68084],[127.92701,26.68546],[127.91987,26.68746],[127.9172,26.68903],[127.91089,26.69099],[127.90353,26.69719],[127.89796,26.69787],[127.89494,26.6974],[127.89476,26.69665],[127.89368,26.69611],[127.89347,26.69437],[127.89119,26.69372],[127.88418,26.694]]},"properties":{"name":"東変電所~海洋博変電所線","p_mw":25,"loading_pct":50}},{"type":"Feature","geometry":{"type":"LineString","coordinates":[[127.93166,26.67648],[127.93558,26.67393],[127.93656,26.67289],[127.94509,26.67052],[127.9489,26.66652],[127.95247,26.66215],[127.95486,26.66001]]},"properties":{"name":"仲宗根変電所~東変電所線","p_mw":-47,"loading_pct":93}},{"type":"Feature","geometry":{"type":"LineString","coordinates":[[127.69343,26.24448],[127.69248,26.24384],[127.68351,26.21987]]},"properties":{"name":"namebind","p_mw":44,"loading_pct":66}},{"type":"Feature","geometry":{"type":"LineString","coordinates":[[127.68884,26.23963],[127.68757,26.23784],[127.68579,26.2341],[127.6856,26.23254],[127.6862,26.23007]]},"properties":{"name":"曙変電所~久茂地変電所線","p_mw":77,"loading_pct":118}},{"type":"Feature","geometry":{"type":"LineString","coordinates":[[127.68617,26.22853],[127.68533,26.22572]]},"properties":{"name":"曙変電所~久茂地変電所線","p_mw":56,"loading_pct":85}},{"type":"Feature","geometry":{"type":"LineString","coordinates":[[127.68533,26.22572],[127.68264,26.22063]]},"properties":{"name":"曙変電所~久茂地変電所線","p_mw":34,"loading_pct":52}},{"type":"Feature","geometry":{"type":"LineString","coordinates":[[127.68264,26.22063],[127.68076,26.22157]]},"properties":{"name":"久茂地変電所~西那覇変電所線","p_mw":22,"loading_pct":33}},{"type":"Feature","geometry":{"type":"LineString","coordinates":[[127.68264,26.22063],[127.68063,26.21792]]},"properties":{"name":"壷川変電所~久茂地変電所線","p_mw":34,"loading_pct":52}},{"type":"Feature","geometry":{"type":"LineString","coordinates":[[127.96456,26.63672],[127.96269,26.63887],[127.96247,26.64127],[127.96151,26.64287],[127.96272,26.6485],[127.96091,26.65066],[127.95778,26.65159],[127.95508,26.65324],[127.95486,26.66001]]},"properties":{"name":"名護電力所~仲宗根変電所線","p_mw":69,"loading_pct":136}},{"type":"Feature","geometry":{"type":"LineString","coordinates":[[127.96456,26.63672],[127.96391,26.63437],[127.96212,26.63278],[127.96203,26.63175],[127.96311,26.63087],[127.96022,26.62464],[127.96081,26.62271],[127.95677,26.61933],[127.95546,26.6174],[127.95234,26.61692],[127.94857,26.614],[127.94563,26.61255],[127.94433,26.61019],[127.94113,26.61035],[127.93922,26.61112]]},"properties":{"name":"名護電力所~山入端変電所線","p_mw":22,"loading_pct":42}},{"type":"Feature","geometry":{"type":"LineString","coordinates":[[127.8826,26.6934],[127.88078,26.69205]]},"properties":{"name":"leadin","p_mw":20,"loading_pct":41}},{"type":"Feature","geometry":{"type":"LineString","coordinates":[[128.12953,26.65744],[128.13809,26.64458],[128.14421,26.64074],[128.14698,26.64015],[128.15456,26.64092],[128.15685,26.64155],[128.15916,26.64177],[128.16172,26.64141],[128.16888,26.63863],[128.17119,26.63839],[128.17782,26.63554],[128.18042,26.63631],[128.18331,26.63579],[128.18533,26.63474],[128.19053,26.63493],[128.1932,26.63383],[128.19549,26.63361],[128.2023,26.6378],[128.20507,26.63916],[128.20691,26.63927],[128.20975,26.63761],[128.21627,26.63473],[128.2177,26.63439],[128.22267,26.63465],[128.22459,26.63355],[128.2271,26.63336],[128.22885,26.63561],[128.23083,26.63594],[128.23176,26.63692],[128.23387,26.63671],[128.23517,26.63705],[128.24037,26.64038],[128.24092,26.64232],[128.24117,26.64488],[128.24331,26.6471],[128.2448,26.64951],[128.24721,26.6504],[128.24941,26.65307],[128.252,26.65927],[128.25445,26.66138],[128.25591,26.66473],[128.25696,26.66839],[128.2586,26.66977],[128.25949,26.6716],[128.25967,26.67346],[128.26284,26.67417],[128.26467,26.67188],[128.26696,26.67147]]},"properties":{"name":"奥間変電所~田港変電所線","p_mw":0,"loading_pct":0}},{"type":"Feature","geometry":{"type":"LineString","coordinates":[[127.85189,26.35377],[127.85698,26.35432],[127.85803,26.35635],[127.86208,26.35609],[127.86365,26.35686],[127.86293,26.35881],[127.86441,26.359],[127.86399,26.3611],[127.86565,26.36335],[127.86548,26.36589],[127.86728,26.36738],[127.8683,26.37029],[127.86972,26.37239],[127.86939,26.37431],[127.87056,26.3766],[127.87184,26.3769],[127.8731,26.3788]]},"properties":{"name":"沖縄電力 132.0kV線","p_mw":-54,"loading_pct":10}},{"type":"Feature","geometry":{"type":"LineString","coordinates":[[127.95486,26.66001],[127.95882,26.6603],[127.96158,26.66101],[127.96818,26.66524],[127.97165,26.66869],[127.97663,26.6722]]},"properties":{"name":"沖縄電力 66.0kV線","p_mw":22,"loading_pct":43}},{"type":"Feature","geometry":{"type":"LineString","coordinates":[[127.67372,26.20613],[127.67993,26.20848]]},"properties":{"name":"leadin","p_mw":22,"loading_pct":33}},{"type":"Feature","geometry":{"type":"LineString","coordinates":[[127.67372,26.20613],[127.67421,26.20715],[127.67547,26.21279],[127.67632,26.21404],[127.67982,26.21691]]},"properties":{"name":"那覇変電所~壷川変電所線","p_mw":-12,"loading_pct":19}},{"type":"Feature","geometry":{"type":"LineString","coordinates":[[127.99683,26.51683],[128.00026,26.51966],[128.0076,26.5218],[128.01341,26.52223],[128.0186,26.52322],[128.02967,26.52394],[128.03201,26.5247]]},"properties":{"name":"松田変電所~Henoko Substation線","p_mw":83,"loading_pct":76}}]}