{"type":"FeatureCollection","features":[{"type":"Feature","geometry":{"type":"Point","coordinates":[144.35197,43.01529]},"properties":{"name":"鳥取変電所","pmax_mw":300.1,"pg_mw":91.2,"cf":0.304,"fuel":"coal"}},{"type":"Feature","geometry":{"type":"Point","coordinates":[140.51623,43.03964]},"properties":{"name":"泊変電所 275kV","pmax_mw":2070.0,"pg_mw":629.0,"cf":0.304,"fuel":"nuclear"}},{"type":"Feature","geometry":{"type":"Point","coordinates":[141.2574,42.96544]},"properties":{"name":"南区変電所_3","pmax_mw":50.0,"pg_mw":15.2,"cf":0.304,"fuel":"hydro"}},{"type":"Feature","geometry":{"type":"Point","coordinates":[143.34831,44.34644]},"properties":{"name":"紋別変電所","pmax_mw":50.8,"pg_mw":15.4,"cf":0.304,"fuel":"biomass"}},{"type":"Feature","geometry":{"type":"Point","coordinates":[142.5772,42.47673]},"properties":{"name":"新ひだか町変電所_3","pmax_mw":249.5,"pg_mw":75.8,"cf":0.304,"fuel":"hydro"}},{"type":"Feature","geometry":{"type":"Point","coordinates":[141.93101,42.58157]},"properties":{"name":"鵡川変電所","pmax_mw":1.6,"pg_mw":0.5,"cf":0.304,"fuel":"solar"}},{"type":"Feature","geometry":{"type":"Point","coordinates":[144.20296,43.00011]},"properties":{"name":"顧客変電所","pmax_mw":30.1,"pg_mw":9.1,"cf":0.304,"fuel":"solar"}},{"type":"Feature","geometry":{"type":"Point","coordinates":[143.93856,42.89928]},"properties":{"name":"音別町あけぼの一丁目変電所","pmax_mw":296.1,"pg_mw":90.0,"cf":0.304,"fuel":"solar"}},{"type":"Feature","geometry":{"type":"Point","coordinates":[143.54461,43.12022]},"properties":{"name":"本別町変電所 187kV","pmax_mw":25.0,"pg_mw":7.6,"cf":0.304,"fuel":"hydro"}},{"type":"Feature","geometry":{"type":"Point","coordinates":[143.39323,43.34362]},"properties":{"name":"足寄町変電所_2","pmax_mw":27.4,"pg_mw":8.3,"cf":0.304,"fuel":"hydro"}},{"type":"Feature","geometry":{"type":"Point","coordinates":[141.66867,42.6554]},"properties":{"name":"明野元町一丁目変電所_3 187kV","pmax_mw":23.0,"pg_mw":7.0,"cf":0.304,"fuel":"solar"}},{"type":"Feature","geometry":{"type":"Point","coordinates":[141.68962,42.6325]},"properties":{"name":"苫小牧市変電所_9","pmax_mw":13.0,"pg_mw":3.9,"cf":0.304,"fuel":"solar"}},{"type":"Feature","geometry":{"type":"Point","coordinates":[141.34436,42.55457]},"properties":{"name":"白老変電所","pmax_mw":22.8,"pg_mw":6.9,"cf":0.304,"fuel":"solar"}},{"type":"Feature","geometry":{"type":"Point","coordinates":[143.4085,44.00433]},"properties":{"name":"遠軽町変電所","pmax_mw":30.0,"pg_mw":9.1,"cf":0.304,"fuel":"bing"}},{"type":"Feature","geometry":{"type":"Point","coordinates":[142.1743,43.53428]},"properties":{"name":"北七条西四丁目変電所","pmax_mw":30.0,"pg_mw":9.1,"cf":0.304,"fuel":"unknown"}},{"type":"Feature","geometry":{"type":"Point","coordinates":[144.04622,43.69563]},"properties":{"name":"下津別発電所","pmax_mw":50.3,"pg_mw":15.3,"cf":0.304,"fuel":"hydro"}},{"type":"Feature","geometry":{"type":"Point","coordinates":[141.80371,42.61229]},"properties":{"name":"苫小牧市変電所_3","pmax_mw":2000.1,"pg_mw":607.7,"cf":0.304,"fuel":"coal"}},{"type":"Feature","geometry":{"type":"Point","coordinates":[141.89804,43.45684]},"properties":{"name":"豊沼変電所","pmax_mw":250.0,"pg_mw":76.0,"cf":0.304,"fuel":"coal"}},{"type":"Feature","geometry":{"type":"Point","coordinates":[140.42388,41.58279]},"properties":{"name":"元町変電所","pmax_mw":700.4,"pg_mw":212.8,"cf":0.304,"fuel":"oil"}},{"type":"Feature","geometry":{"type":"Point","coordinates":[142.3718,42.76074]},"properties":{"name":"岩知志変電所","pmax_mw":13.5,"pg_mw":4.1,"cf":0.304,"fuel":"hydro"}},{"type":"Feature","geometry":{"type":"Point","coordinates":[141.84289,43.42047]},"properties":{"name":"奈井江町変電所","pmax_mw":175.0,"pg_mw":53.2,"cf":0.304,"fuel":"coal"}},{"type":"Feature","geometry":{"type":"Point","coordinates":[142.41855,44.34477]},"properties":{"name":"西名寄変電所 187kV","pmax_mw":51.0,"pg_mw":15.5,"cf":0.304,"fuel":"hydro"}},{"type":"Feature","geometry":{"type":"Point","coordinates":[142.58021,43.65218]},"properties":{"name":"東十二号南変電所","pmax_mw":200.0,"pg_mw":60.8,"cf":0.304,"fuel":"hydro"}},{"type":"Feature","geometry":{"type":"Point","coordinates":[142.20057,43.51307]},"properties":{"name":"南三条東三丁目変電所","pmax_mw":87.0,"pg_mw":26.4,"cf":0.304,"fuel":"hydro"}},{"type":"Feature","geometry":{"type":"Point","coordinates":[142.9252,43.18197]},"properties":{"name":"新岩松変電所 187kV","pmax_mw":148.6,"pg_mw":45.2,"cf":0.304,"fuel":"hydro"}},{"type":"Feature","geometry":{"type":"Point","coordinates":[142.99296,43.09942]},"properties":{"name":"鹿追変電所","pmax_mw":15.4,"pg_mw":4.7,"cf":0.304,"fuel":"hydro"}},{"type":"Feature","geometry":{"type":"Point","coordinates":[142.54614,42.41904]},"properties":{"name":"新ひだか町変電所_4","pmax_mw":7.3,"pg_mw":2.2,"cf":0.304,"fuel":"hydro"}},{"type":"Feature","geometry":{"type":"Point","coordinates":[142.51799,42.5104]},"properties":{"name":"岩清水開閉所","pmax_mw":15.0,"pg_mw":4.6,"cf":0.304,"fuel":"hydro"}},{"type":"Feature","geometry":{"type":"Point","coordinates":[142.56463,42.41213]},"properties":{"name":"新ひだか町変電所_2 187kV","pmax_mw":46.7,"pg_mw":14.2,"cf":0.304,"fuel":"hydro"}},{"type":"Feature","geometry":{"type":"Point","coordinates":[142.53544,42.56519]},"properties":{"name":"岩清水変電所","pmax_mw":20.0,"pg_mw":6.1,"cf":0.304,"fuel":"hydro"}},{"type":"Feature","geometry":{"type":"Point","coordinates":[142.54761,42.59994]},"properties":{"name":"新冠開閉所","pmax_mw":200.0,"pg_mw":60.8,"cf":0.304,"fuel":"hydro"}},{"type":"Feature","geometry":{"type":"Point","coordinates":[142.59122,42.67823]},"properties":{"name":"新冠町変電所","pmax_mw":44.0,"pg_mw":13.4,"cf":0.304,"fuel":"hydro"}},{"type":"Feature","geometry":{"type":"Point","coordinates":[142.93177,43.7521]},"properties":{"name":"上川町変電所_2","pmax_mw":80.0,"pg_mw":24.3,"cf":0.304,"fuel":"hydro"}},{"type":"Feature","geometry":{"type":"Point","coordinates":[142.87094,43.80995]},"properties":{"name":"上川町変電所 110kV","pmax_mw":50.0,"pg_mw":15.2,"cf":0.304,"fuel":"hydro"}},{"type":"Feature","geometry":{"type":"Point","coordinates":[142.79205,43.84102]},"properties":{"name":"日東変電所","pmax_mw":50.1,"pg_mw":15.2,"cf":0.304,"fuel":"hydro"}},{"type":"Feature","geometry":{"type":"Point","coordinates":[142.7092,43.84086]},"properties":{"name":"安足間変電所 110kV","pmax_mw":100.0,"pg_mw":30.4,"cf":0.304,"fuel":"hydro"}},{"type":"Feature","geometry":{"type":"Point","coordinates":[142.65911,43.88243]},"properties":{"name":"愛別変電所","pmax_mw":100.0,"pg_mw":30.4,"cf":0.304,"fuel":"hydro"}},{"type":"Feature","geometry":{"type":"Point","coordinates":[142.44052,43.13142]},"properties":{"name":"南富良野町変電所","pmax_mw":25.0,"pg_mw":7.6,"cf":0.304,"fuel":"hydro"}},{"type":"Feature","geometry":{"type":"Point","coordinates":[141.17051,42.97256]},"properties":{"name":"定山渓温泉西1変電所","pmax_mw":50.0,"pg_mw":15.2,"cf":0.304,"fuel":"hydro"}},{"type":"Feature","geometry":{"type":"Point","coordinates":[141.19485,42.96768]},"properties":{"name":"南区変電所_2","pmax_mw":450.0,"pg_mw":136.7,"cf":0.304,"fuel":"hydro"}},{"type":"Feature","geometry":{"type":"Point","coordinates":[141.3677,43.01926]},"properties":{"name":"平岸3条18変電所_2","pmax_mw":50.0,"pg_mw":15.2,"cf":0.304,"fuel":"hydro"}},{"type":"Feature","geometry":{"type":"Point","coordinates":[142.4669,42.89259]},"properties":{"name":"右左府変電所","pmax_mw":25.6,"pg_mw":7.8,"cf":0.304,"fuel":"hydro"}},{"type":"Feature","geometry":{"type":"Point","coordinates":[140.12594,42.09099]},"properties":{"name":"熊石泉岱町変電所","pmax_mw":2.0,"pg_mw":0.6,"cf":0.304,"fuel":"hydro"}},{"type":"Feature","geometry":{"type":"Point","coordinates":[140.81641,42.03305]},"properties":{"name":"鹿部変電所","pmax_mw":3.6,"pg_mw":1.1,"cf":0.304,"fuel":"hydro"}},{"type":"Feature","geometry":{"type":"Point","coordinates":[140.19549,42.47071]},"properties":{"name":"ピリカ発電所","pmax_mw":4.2,"pg_mw":1.3,"cf":0.304,"fuel":"hydro"}},{"type":"Feature","geometry":{"type":"Point","coordinates":[145.03699,43.7116]},"properties":{"name":"伊茶仁変電所","pmax_mw":30.0,"pg_mw":9.1,"cf":0.304,"fuel":"unknown"}},{"type":"Feature","geometry":{"type":"Point","coordinates":[141.74012,42.6711]},"properties":{"name":"苫小牧市変電所_5","pmax_mw":33.2,"pg_mw":10.1,"cf":0.304,"fuel":"solar"}},{"type":"Feature","geometry":{"type":"Point","coordinates":[142.61068,42.94577]},"properties":{"name":"日高町変電所","pmax_mw":15.8,"pg_mw":4.8,"cf":0.304,"fuel":"hydro"}},{"type":"Feature","geometry":{"type":"Point","coordinates":[143.03767,42.08014]},"properties":{"name":"幌満変電所","pmax_mw":10.6,"pg_mw":3.2,"cf":0.304,"fuel":"hydro"}},{"type":"Feature","geometry":{"type":"Point","coordinates":[141.66242,42.63884]},"properties":{"name":"苫小牧市変電所","pmax_mw":250.0,"pg_mw":76.0,"cf":0.304,"fuel":"gas"}},{"type":"Feature","geometry":{"type":"Point","coordinates":[140.85132,42.87878]},"properties":{"name":"寒別変電所","pmax_mw":1.9,"pg_mw":0.6,"cf":0.304,"fuel":"hydro"}},{"type":"Feature","geometry":{"type":"Point","coordinates":[140.58665,42.80709]},"properties":{"name":"昆布変電所","pmax_mw":9.0,"pg_mw":2.7,"cf":0.304,"fuel":"hydro"}},{"type":"Feature","geometry":{"type":"Point","coordinates":[141.79879,42.88194]},"properties":{"name":"安平町変電所","pmax_mw":50.0,"pg_mw":15.2,"cf":0.304,"fuel":"hydro"}},{"type":"Feature","geometry":{"type":"Point","coordinates":[144.95761,43.54299]},"properties":{"name":"西十四条北八丁目変電所","pmax_mw":1.4,"pg_mw":0.4,"cf":0.304,"fuel":"solar"}},{"type":"Feature","geometry":{"type":"Point","coordinates":[141.92788,43.25851]},"properties":{"name":"弥生藤枝町変電所","pmax_mw":50.0,"pg_mw":15.2,"cf":0.304,"fuel":"hydro"}},{"type":"Feature","geometry":{"type":"Point","coordinates":[142.00941,42.97846]},"properties":{"name":"南清水沢四丁目変電所","pmax_mw":150.0,"pg_mw":45.6,"cf":0.304,"fuel":"hydro"}},{"type":"Feature","geometry":{"type":"Point","coordinates":[141.27694,43.19122]},"properties":{"name":"石狩湾新港発電所","pmax_mw":569.4,"pg_mw":173.0,"cf":0.304,"fuel":"gas"}},{"type":"Feature","geometry":{"type":"Point","coordinates":[141.78071,42.71472]},"properties":{"name":"南早来変電所 275kV","pmax_mw":65.3,"pg_mw":19.8,"cf":0.304,"fuel":"solar"}},{"type":"Feature","geometry":{"type":"Point","coordinates":[141.60487,42.86667]},"properties":{"name":"恵南変電所","pmax_mw":2.2,"pg_mw":0.7,"cf":0.304,"fuel":"hydro"}},{"type":"Feature","geometry":{"type":"Point","coordinates":[140.83051,42.48381]},"properties":{"name":"伊達市変電所 187kV","pmax_mw":351.6,"pg_mw":106.8,"cf":0.304,"fuel":"solar"}},{"type":"Feature","geometry":{"type":"Point","coordinates":[141.64339,42.68129]},"properties":{"name":"あけぼの町五丁目変電所","pmax_mw":3.2,"pg_mw":1.0,"cf":0.304,"fuel":"solar"}},{"type":"Feature","geometry":{"type":"Point","coordinates":[141.00801,42.35062]},"properties":{"name":"室蘭市変電所","pmax_mw":100.0,"pg_mw":30.4,"cf":0.304,"fuel":"coal"}},{"type":"Feature","geometry":{"type":"Point","coordinates":[139.88464,42.40569]},"properties":{"name":"北桧山変電所","pmax_mw":10.0,"pg_mw":3.0,"cf":0.304,"fuel":"wind"}},{"type":"Feature","geometry":{"type":"Point","coordinates":[141.58689,42.63608]},"properties":{"name":"白金町一丁目変電所","pmax_mw":25.0,"pg_mw":7.6,"cf":0.304,"fuel":"coal"}},{"type":"Feature","geometry":{"type":"Point","coordinates":[145.5774,43.32084]},"properties":{"name":"西浜町一丁目変電所","pmax_mw":1.1,"pg_mw":0.3,"cf":0.304,"fuel":"solar"}},{"type":"Feature","geometry":{"type":"Point","coordinates":[143.25426,43.36131]},"properties":{"name":"黒石平変電所","pmax_mw":10.0,"pg_mw":3.0,"cf":0.304,"fuel":"hydro"}},{"type":"Feature","geometry":{"type":"Point","coordinates":[143.25506,43.35979]},"properties":{"name":"糠平発電所","pmax_mw":44.2,"pg_mw":13.4,"cf":0.304,"fuel":"hydro"}},{"type":"Feature","geometry":{"type":"Point","coordinates":[143.85823,43.78387]},"properties":{"name":"北光変電所_2","pmax_mw":1.1,"pg_mw":0.3,"cf":0.304,"fuel":"solar"}},{"type":"Feature","geometry":{"type":"Point","coordinates":[144.6859,43.9015]},"properties":{"name":"以久科北変電所","pmax_mw":1.1,"pg_mw":0.3,"cf":0.304,"fuel":"solar"}},{"type":"Feature","geometry":{"type":"Point","coordinates":[144.40938,42.96126]},"properties":{"name":"太平洋興発変電所","pmax_mw":112.0,"pg_mw":34.0,"cf":0.304,"fuel":"coal"}},{"type":"Feature","geometry":{"type":"Point","coordinates":[141.28116,42.51236]},"properties":{"name":"白老町変電所","pmax_mw":30.0,"pg_mw":9.1,"cf":0.304,"fuel":"unknown"}},{"type":"Feature","geometry":{"type":"Point","coordinates":[141.69897,43.32789]},"properties":{"name":"美唄市変電所","pmax_mw":90.1,"pg_mw":27.4,"cf":0.304,"fuel":"unknown"}},{"type":"Feature","geometry":{"type":"Point","coordinates":[144.18286,43.90585]},"properties":{"name":"女満別西一条六丁目変電所","pmax_mw":2.5,"pg_mw":0.8,"cf":0.304,"fuel":"solar"}},{"type":"Feature","geometry":{"type":"Point","coordinates":[142.55228,42.25369]},"properties":{"name":"三石変電所","pmax_mw":21.0,"pg_mw":6.4,"cf":0.304,"fuel":"solar"}},{"type":"Feature","geometry":{"type":"Point","coordinates":[144.80678,43.3967]},"properties":{"name":"西春別変電所 187kV","pmax_mw":1.2,"pg_mw":0.4,"cf":0.304,"fuel":"solar"}},{"type":"Feature","geometry":{"type":"Point","coordinates":[141.43845,42.78943]},"properties":{"name":"千歳市変電所","pmax_mw":2.3,"pg_mw":0.7,"cf":0.304,"fuel":"hydro"}},{"type":"Feature","geometry":{"type":"Point","coordinates":[142.62371,44.30092]},"properties":{"name":"西町変電所 110kV","pmax_mw":50.0,"pg_mw":15.2,"cf":0.304,"fuel":"hydro"}},{"type":"Feature","geometry":{"type":"Point","coordinates":[142.06351,43.01848]},"properties":{"name":"夕張市変電所","pmax_mw":28.5,"pg_mw":8.7,"cf":0.304,"fuel":"hydro"}},{"type":"Feature","geometry":{"type":"Point","coordinates":[140.68252,42.82267]},"properties":{"name":"ニセコ変電所","pmax_mw":8.3,"pg_mw":2.5,"cf":0.304,"fuel":"hydro"}},{"type":"Feature","geometry":{"type":"Point","coordinates":[140.72138,42.82544]},"properties":{"name":"羊蹄変電所","pmax_mw":12.0,"pg_mw":3.6,"cf":0.304,"fuel":"hydro"}},{"type":"Feature","geometry":{"type":"Point","coordinates":[141.69849,42.64383]},"properties":{"name":"苫小牧市変電所_7 187kV","pmax_mw":75.0,"pg_mw":22.8,"cf":0.304,"fuel":"biomass"}},{"type":"Feature","geometry":{"type":"Point","coordinates":[140.27335,42.26015]},"properties":{"name":"八雲変電所","pmax_mw":102.3,"pg_mw":31.1,"cf":0.304,"fuel":"solar"}}]}