{"type":"FeatureCollection","features":[{"type":"Feature","geometry":{"type":"Point","coordinates":[127.87175,26.46196]},"properties":{"name":"伊芸変電所 132kV","pmax_mw":440.0,"pg_mw":193.5,"cf":0.44,"fuel":"coal"}},{"type":"Feature","geometry":{"type":"Point","coordinates":[128.12969,26.65619]},"properties":{"name":"田港変電所 66kV","pmax_mw":10.0,"pg_mw":4.4,"cf":0.44,"fuel":"wind"}},{"type":"Feature","geometry":{"type":"Point","coordinates":[128.03367,26.52565]},"properties":{"name":"Henoko Substation","pmax_mw":6.6,"pg_mw":2.9,"cf":0.44,"fuel":"solar"}},{"type":"Feature","geometry":{"type":"Point","coordinates":[127.83814,26.44228]},"properties":{"name":"石川東山二丁目変電所 132kV","pmax_mw":665.0,"pg_mw":292.4,"cf":0.44,"fuel":"oil"}},{"type":"Feature","geometry":{"type":"Point","coordinates":[127.87334,26.38108]},"properties":{"name":"宇堅変電所","pmax_mw":312.0,"pg_mw":137.2,"cf":0.44,"fuel":"coal"}},{"type":"Feature","geometry":{"type":"Point","coordinates":[127.88054,26.33242]},"properties":{"name":"川田変電所","pmax_mw":12.0,"pg_mw":5.3,"cf":0.44,"fuel":"solar"}},{"type":"Feature","geometry":{"type":"Point","coordinates":[127.81164,26.30445]},"properties":{"name":"渡口変電所 132kV","pmax_mw":504.0,"pg_mw":221.6,"cf":0.44,"fuel":"gas"}},{"type":"Feature","geometry":{"type":"Point","coordinates":[127.71983,26.26795]},"properties":{"name":"牧港五丁目変電所 132kV","pmax_mw":333.0,"pg_mw":146.4,"cf":0.44,"fuel":"oil"}},{"type":"Feature","geometry":{"type":"Point","coordinates":[127.88078,26.69205]},"properties":{"name":"海洋博変電所","pmax_mw":2.3,"pg_mw":1.0,"cf":0.44,"fuel":"solar"}},{"type":"Feature","geometry":{"type":"Point","coordinates":[127.81568,26.43265]},"properties":{"name":"仲泊変電所 132kV","pmax_mw":30.0,"pg_mw":13.2,"cf":0.44,"fuel":"unknown"}}]}