{"type":"FeatureCollection","features":[{"type":"Feature","geometry":{"type":"Point","coordinates":[139.68661,37.60634]},"properties":{"name":"喜多方市変電所_2 154kV","pmax_mw":113.8,"pg_mw":29.9,"cf":0.263,"fuel":"hydro"}},{"type":"Feature","geometry":{"type":"Point","coordinates":[141.00997,37.23729]},"properties":{"name":"広野町変電所 500kV","pmax_mw":4943.6,"pg_mw":1673.5,"cf":0.339,"fuel":"oil"}},{"type":"Feature","geometry":{"type":"Point","coordinates":[141.01563,37.6644]},"properties":{"name":"南相馬市変電所","pmax_mw":2000.2,"pg_mw":525.2,"cf":0.263,"fuel":"coal"}},{"type":"Feature","geometry":{"type":"Point","coordinates":[141.01961,37.31602]},"properties":{"name":"楢葉町変電所 500kV","pmax_mw":30.2,"pg_mw":8.0,"cf":0.263,"fuel":"unknown"}},{"type":"Feature","geometry":{"type":"Point","coordinates":[141.88843,39.25804]},"properties":{"name":"大平変電所","pmax_mw":20.0,"pg_mw":5.3,"cf":0.263,"fuel":"biomass"}},{"type":"Feature","geometry":{"type":"Point","coordinates":[140.1624,39.22066]},"properties":{"name":"由利本荘市変電所_3","pmax_mw":30.0,"pg_mw":7.9,"cf":0.263,"fuel":"image"}},{"type":"Feature","geometry":{"type":"Point","coordinates":[139.95489,37.51196]},"properties":{"name":"北滝沢一丁目変電所","pmax_mw":4.3,"pg_mw":1.5,"cf":0.339,"fuel":"hydro"}},{"type":"Feature","geometry":{"type":"Point","coordinates":[139.98333,37.55269]},"properties":{"name":"磐梯町変電所","pmax_mw":37.5,"pg_mw":12.7,"cf":0.339,"fuel":"hydro"}},{"type":"Feature","geometry":{"type":"Point","coordinates":[140.00344,37.54354]},"properties":{"name":"会津若松市変電所_2","pmax_mw":63.4,"pg_mw":21.5,"cf":0.339,"fuel":"hydro"}},{"type":"Feature","geometry":{"type":"Point","coordinates":[139.90859,37.34492]},"properties":{"name":"下郷町変電所_2 500kV","pmax_mw":1030.0,"pg_mw":270.5,"cf":0.263,"fuel":"hydro"}},{"type":"Feature","geometry":{"type":"Point","coordinates":[139.54029,37.48452]},"properties":{"name":"上田変電所","pmax_mw":115.0,"pg_mw":30.2,"cf":0.263,"fuel":"geothermal"}},{"type":"Feature","geometry":{"type":"Point","coordinates":[140.65997,39.63843]},"properties":{"name":"JR東日本 田沢湖変電所","pmax_mw":31.5,"pg_mw":8.3,"cf":0.263,"fuel":"hydro"}},{"type":"Feature","geometry":{"type":"Point","coordinates":[139.46204,37.3974]},"properties":{"name":"越川変電所","pmax_mw":30.0,"pg_mw":7.9,"cf":0.263,"fuel":"unknown"}},{"type":"Feature","geometry":{"type":"Point","coordinates":[141.12011,38.53803]},"properties":{"name":"涌谷変電所","pmax_mw":30.0,"pg_mw":7.9,"cf":0.263,"fuel":"unknown"}},{"type":"Feature","geometry":{"type":"Point","coordinates":[139.96534,37.27339]},"properties":{"name":"下郷町変電所","pmax_mw":33.5,"pg_mw":8.8,"cf":0.263,"fuel":"unknown"}},{"type":"Feature","geometry":{"type":"Point","coordinates":[140.91823,38.29693]},"properties":{"name":"鶴ヶ谷北二丁目変電所 154kV","pmax_mw":30.0,"pg_mw":7.9,"cf":0.263,"fuel":"unknown"}},{"type":"Feature","geometry":{"type":"Point","coordinates":[139.08051,37.93176]},"properties":{"name":"大山一丁目変電所 154kV","pmax_mw":109.2,"pg_mw":28.7,"cf":0.263,"fuel":"gas"}},{"type":"Feature","geometry":{"type":"Point","coordinates":[139.05115,37.34853]},"properties":{"name":"渋川変電所","pmax_mw":101.5,"pg_mw":26.7,"cf":0.263,"fuel":"hydro"}},{"type":"Feature","geometry":{"type":"Point","coordinates":[140.84552,37.0819]},"properties":{"name":"いわき市変電所_3","pmax_mw":20.1,"pg_mw":5.3,"cf":0.263,"fuel":"biomass"}},{"type":"Feature","geometry":{"type":"Point","coordinates":[141.30901,40.20218]},"properties":{"name":"北岩手変電所 154kV","pmax_mw":30.0,"pg_mw":7.9,"cf":0.263,"fuel":"unknown"}},{"type":"Feature","geometry":{"type":"Point","coordinates":[139.71197,36.82955]},"properties":{"name":"鬼怒川変電所 154kV","pmax_mw":135.6,"pg_mw":45.9,"cf":0.339,"fuel":"hydro"}},{"type":"Feature","geometry":{"type":"Point","coordinates":[140.42341,37.67595]},"properties":{"name":"福島変電所 275kV","pmax_mw":30.4,"pg_mw":8.0,"cf":0.263,"fuel":"unknown"}},{"type":"Feature","geometry":{"type":"Point","coordinates":[140.37557,40.37027]},"properties":{"name":"大館市変電所_2","pmax_mw":6.3,"pg_mw":1.7,"cf":0.263,"fuel":"hydro"}},{"type":"Feature","geometry":{"type":"Point","coordinates":[140.09539,36.8179]},"properties":{"name":"湯津上変電所","pmax_mw":2.7,"pg_mw":0.9,"cf":0.339,"fuel":"solar"}},{"type":"Feature","geometry":{"type":"Point","coordinates":[140.65023,39.60905]},"properties":{"name":"仙北市変電所_3","pmax_mw":29.7,"pg_mw":7.8,"cf":0.263,"fuel":"hydro"}},{"type":"Feature","geometry":{"type":"Point","coordinates":[139.24373,37.16041]},"properties":{"name":"魚沼市変電所","pmax_mw":50.0,"pg_mw":13.1,"cf":0.263,"fuel":"hydro"}},{"type":"Feature","geometry":{"type":"Point","coordinates":[140.9557,39.12198]},"properties":{"name":"奥州市変電所","pmax_mw":21.0,"pg_mw":5.5,"cf":0.263,"fuel":"hydro"}},{"type":"Feature","geometry":{"type":"Point","coordinates":[139.70215,36.89431]},"properties":{"name":"川治変電所","pmax_mw":2.7,"pg_mw":0.9,"cf":0.339,"fuel":"hydro"}},{"type":"Feature","geometry":{"type":"Point","coordinates":[141.50505,40.53538]},"properties":{"name":"豊洲変電所","pmax_mw":417.5,"pg_mw":109.6,"cf":0.263,"fuel":"gas"}},{"type":"Feature","geometry":{"type":"Point","coordinates":[141.04947,40.59489]},"properties":{"name":"立石発電所","pmax_mw":50.7,"pg_mw":13.3,"cf":0.263,"fuel":"hydro"}},{"type":"Feature","geometry":{"type":"Point","coordinates":[141.48646,40.55443]},"properties":{"name":"長苗代四丁目変電所","pmax_mw":44.1,"pg_mw":11.6,"cf":0.263,"fuel":"solar"}},{"type":"Feature","geometry":{"type":"Point","coordinates":[140.12528,36.91661]},"properties":{"name":"稲沢変電所","pmax_mw":52.5,"pg_mw":17.8,"cf":0.339,"fuel":"solar"}},{"type":"Feature","geometry":{"type":"Point","coordinates":[141.28888,38.4234]},"properties":{"name":"大街道東二丁目変電所 154kV","pmax_mw":600.0,"pg_mw":157.6,"cf":0.263,"fuel":"coal"}},{"type":"Feature","geometry":{"type":"Point","coordinates":[140.65168,39.02284]},"properties":{"name":"湯沢市変電所_3","pmax_mw":28.8,"pg_mw":7.6,"cf":0.263,"fuel":"geothermal"}},{"type":"Feature","geometry":{"type":"Point","coordinates":[140.65698,38.79364]},"properties":{"name":"大崎市変電所_4","pmax_mw":15.0,"pg_mw":3.9,"cf":0.263,"fuel":"geothermal"}},{"type":"Feature","geometry":{"type":"Point","coordinates":[139.86798,38.91034]},"properties":{"name":"JR東日本 酒田変電所","pmax_mw":700.0,"pg_mw":183.8,"cf":0.263,"fuel":"coal"}},{"type":"Feature","geometry":{"type":"Point","coordinates":[139.99481,40.19012]},"properties":{"name":"能代市変電所","pmax_mw":3600.3,"pg_mw":945.4,"cf":0.263,"fuel":"coal"}},{"type":"Feature","geometry":{"type":"Point","coordinates":[141.38591,41.1869]},"properties":{"name":"東通村変電所_3 500kV","pmax_mw":1100.0,"pg_mw":288.8,"cf":0.263,"fuel":"nuclear"}},{"type":"Feature","geometry":{"type":"Point","coordinates":[140.4956,37.69842]},"properties":{"name":"福島市変電所_2","pmax_mw":38.5,"pg_mw":10.1,"cf":0.263,"fuel":"hydro"}},{"type":"Feature","geometry":{"type":"Point","coordinates":[140.37778,37.79549]},"properties":{"name":"福島市変電所_3","pmax_mw":110.0,"pg_mw":28.9,"cf":0.263,"fuel":"unknown"}},{"type":"Feature","geometry":{"type":"Point","coordinates":[139.90536,37.09858]},"properties":{"name":"沼原電力所 275kV","pmax_mw":697.1,"pg_mw":236.0,"cf":0.339,"fuel":"hydro"}},{"type":"Feature","geometry":{"type":"Point","coordinates":[140.43697,40.03759]},"properties":{"name":"小又川変電所","pmax_mw":150.0,"pg_mw":39.4,"cf":0.263,"fuel":"hydro"}},{"type":"Feature","geometry":{"type":"Point","coordinates":[140.87453,37.11406]},"properties":{"name":"北平変電所 154kV","pmax_mw":50.0,"pg_mw":13.1,"cf":0.263,"fuel":"hydro"}},{"type":"Feature","geometry":{"type":"Point","coordinates":[140.63388,37.28053]},"properties":{"name":"小野新町変電所","pmax_mw":30.1,"pg_mw":7.9,"cf":0.263,"fuel":"unknown"}},{"type":"Feature","geometry":{"type":"Point","coordinates":[140.86339,37.27746]},"properties":{"name":"川内村変電所","pmax_mw":30.0,"pg_mw":7.9,"cf":0.263,"fuel":"unknown"}},{"type":"Feature","geometry":{"type":"Point","coordinates":[139.88079,38.5893]},"properties":{"name":"鶴岡市変電所_2","pmax_mw":30.0,"pg_mw":7.9,"cf":0.263,"fuel":"unknown"}},{"type":"Feature","geometry":{"type":"Point","coordinates":[140.93915,37.83305]},"properties":{"name":"光陽二丁目変電所_2","pmax_mw":600.2,"pg_mw":157.6,"cf":0.263,"fuel":"coal"}},{"type":"Feature","geometry":{"type":"Point","coordinates":[140.90844,37.7899]},"properties":{"name":"中村変電所","pmax_mw":2.5,"pg_mw":0.7,"cf":0.263,"fuel":"solar"}},{"type":"Feature","geometry":{"type":"Point","coordinates":[139.98399,36.90667]},"properties":{"name":"西富山変電所","pmax_mw":28.0,"pg_mw":9.5,"cf":0.339,"fuel":"solar"}},{"type":"Feature","geometry":{"type":"Point","coordinates":[141.94827,39.46996]},"properties":{"name":"山田変電所","pmax_mw":30.1,"pg_mw":7.9,"cf":0.263,"fuel":"unknown"}},{"type":"Feature","geometry":{"type":"Point","coordinates":[140.91839,38.117]},"properties":{"name":"空港南四丁目変電所","pmax_mw":1.6,"pg_mw":0.4,"cf":0.263,"fuel":"solar"}},{"type":"Feature","geometry":{"type":"Point","coordinates":[141.25854,39.34989]},"properties":{"name":"東花巻変電所 275kV","pmax_mw":30.0,"pg_mw":7.9,"cf":0.263,"fuel":"unknown"}},{"type":"Feature","geometry":{"type":"Point","coordinates":[141.28931,40.36708]},"properties":{"name":"小中島発電所","pmax_mw":2.2,"pg_mw":0.6,"cf":0.263,"fuel":"hydro"}},{"type":"Feature","geometry":{"type":"Point","coordinates":[140.2867,40.56103]},"properties":{"name":"岩木川変電所","pmax_mw":8.5,"pg_mw":2.2,"cf":0.263,"fuel":"hydro"}},{"type":"Feature","geometry":{"type":"Point","coordinates":[141.00689,39.92459]},"properties":{"name":"柏台変電所","pmax_mw":107.5,"pg_mw":28.2,"cf":0.263,"fuel":"hydro"}},{"type":"Feature","geometry":{"type":"Point","coordinates":[140.86462,39.82993]},"properties":{"name":"雫石町変電所_2","pmax_mw":203.6,"pg_mw":53.4,"cf":0.263,"fuel":"geothermal"}},{"type":"Feature","geometry":{"type":"Point","coordinates":[141.32435,40.95012]},"properties":{"name":"中央受電所","pmax_mw":60.0,"pg_mw":15.8,"cf":0.263,"fuel":"solar"}},{"type":"Feature","geometry":{"type":"Point","coordinates":[141.13124,40.73925]},"properties":{"name":"哘崎変電所","pmax_mw":18.5,"pg_mw":4.9,"cf":0.263,"fuel":"solar"}},{"type":"Feature","geometry":{"type":"Point","coordinates":[140.82594,37.16212]},"properties":{"name":"小川町塩田変電所","pmax_mw":50.0,"pg_mw":13.1,"cf":0.263,"fuel":"hydro"}},{"type":"Feature","geometry":{"type":"Point","coordinates":[140.08274,39.72734]},"properties":{"name":"寺内蛭根変電所","pmax_mw":50.0,"pg_mw":13.1,"cf":0.263,"fuel":"biomass"}},{"type":"Feature","geometry":{"type":"Point","coordinates":[140.79954,40.06911]},"properties":{"name":"蛇沢変電所","pmax_mw":114.9,"pg_mw":30.2,"cf":0.263,"fuel":"geothermal"}},{"type":"Feature","geometry":{"type":"Point","coordinates":[140.8787,40.3733]},"properties":{"name":"鹿角市変電所_2","pmax_mw":34.0,"pg_mw":8.9,"cf":0.263,"fuel":"wind"}},{"type":"Feature","geometry":{"type":"Point","coordinates":[140.76873,40.26503]},"properties":{"name":"毛馬内変電所","pmax_mw":53.4,"pg_mw":14.0,"cf":0.263,"fuel":"hydro"}},{"type":"Feature","geometry":{"type":"Point","coordinates":[140.80159,40.20572]},"properties":{"name":"花輪変電所","pmax_mw":2.8,"pg_mw":0.7,"cf":0.263,"fuel":"hydro"}},{"type":"Feature","geometry":{"type":"Point","coordinates":[140.83192,40.12417]},"properties":{"name":"鹿角市変電所","pmax_mw":51.9,"pg_mw":13.6,"cf":0.263,"fuel":"hydro"}},{"type":"Feature","geometry":{"type":"Point","coordinates":[140.68886,40.59952]},"properties":{"name":"大字板留変電所","pmax_mw":19.8,"pg_mw":5.2,"cf":0.263,"fuel":"hydro"}},{"type":"Feature","geometry":{"type":"Point","coordinates":[140.77757,40.69508]},"properties":{"name":"荒川変電所","pmax_mw":3.3,"pg_mw":0.9,"cf":0.263,"fuel":"hydro"}},{"type":"Feature","geometry":{"type":"Point","coordinates":[140.75418,40.7136]},"properties":{"name":"野沢変電所","pmax_mw":1.5,"pg_mw":0.4,"cf":0.263,"fuel":"hydro"}},{"type":"Feature","geometry":{"type":"Point","coordinates":[140.86422,40.72842]},"properties":{"name":"深沢変電所","pmax_mw":5.4,"pg_mw":1.4,"cf":0.263,"fuel":"hydro"}},{"type":"Feature","geometry":{"type":"Point","coordinates":[140.83242,40.75]},"properties":{"name":"深沢変電所_2","pmax_mw":6.9,"pg_mw":1.8,"cf":0.263,"fuel":"hydro"}},{"type":"Feature","geometry":{"type":"Point","coordinates":[140.9462,39.78015]},"properties":{"name":"葛根田第二発電所","pmax_mw":5.2,"pg_mw":1.4,"cf":0.263,"fuel":"hydro"}},{"type":"Feature","geometry":{"type":"Point","coordinates":[140.93497,39.79791]},"properties":{"name":"雫石町変電所","pmax_mw":10.5,"pg_mw":2.8,"cf":0.263,"fuel":"hydro"}},{"type":"Feature","geometry":{"type":"Point","coordinates":[140.86454,39.82765]},"properties":{"name":"雫石町変電所_3","pmax_mw":120.0,"pg_mw":31.5,"cf":0.263,"fuel":"geothermal"}},{"type":"Feature","geometry":{"type":"Point","coordinates":[141.16741,39.79929]},"properties":{"name":"門前寺変電所","pmax_mw":8.3,"pg_mw":2.2,"cf":0.263,"fuel":"hydro"}},{"type":"Feature","geometry":{"type":"Point","coordinates":[141.24179,39.80148]},"properties":{"name":"日戸変電所","pmax_mw":41.0,"pg_mw":10.8,"cf":0.263,"fuel":"hydro"}},{"type":"Feature","geometry":{"type":"Point","coordinates":[141.28432,40.24974]},"properties":{"name":"福岡発電所","pmax_mw":1.3,"pg_mw":0.4,"cf":0.263,"fuel":"hydro"}},{"type":"Feature","geometry":{"type":"Point","coordinates":[141.29066,40.35146]},"properties":{"name":"三戸町変電所","pmax_mw":2.6,"pg_mw":0.7,"cf":0.263,"fuel":"hydro"}},{"type":"Feature","geometry":{"type":"Point","coordinates":[140.70615,38.31761]},"properties":{"name":"青葉区変電所 66kV","pmax_mw":1.4,"pg_mw":0.4,"cf":0.263,"fuel":"solar"}},{"type":"Feature","geometry":{"type":"Point","coordinates":[140.96077,37.35927]},"properties":{"name":"新福島変電所 500kV","pmax_mw":1.8,"pg_mw":0.5,"cf":0.263,"fuel":"solar"}},{"type":"Feature","geometry":{"type":"Point","coordinates":[140.99236,37.36574]},"properties":{"name":"夜の森南一丁目変電所","pmax_mw":1.1,"pg_mw":0.3,"cf":0.263,"fuel":"solar"}},{"type":"Feature","geometry":{"type":"Point","coordinates":[140.23835,39.65941]},"properties":{"name":"南河辺変電所","pmax_mw":1.9,"pg_mw":0.5,"cf":0.263,"fuel":"solar"}},{"type":"Feature","geometry":{"type":"Point","coordinates":[140.3424,39.74253]},"properties":{"name":"秋田市変電所","pmax_mw":5.4,"pg_mw":1.4,"cf":0.263,"fuel":"hydro"}},{"type":"Feature","geometry":{"type":"Point","coordinates":[140.59593,39.06846]},"properties":{"name":"湯沢市変電所","pmax_mw":2.0,"pg_mw":0.5,"cf":0.263,"fuel":"hydro"}},{"type":"Feature","geometry":{"type":"Point","coordinates":[140.62611,39.05799]},"properties":{"name":"湯沢市変電所_2","pmax_mw":5.3,"pg_mw":1.4,"cf":0.263,"fuel":"hydro"}},{"type":"Feature","geometry":{"type":"Point","coordinates":[140.72687,37.00487]},"properties":{"name":"上遠野変電所","pmax_mw":50.4,"pg_mw":13.2,"cf":0.263,"fuel":"hydro"}},{"type":"Feature","geometry":{"type":"Point","coordinates":[141.79003,39.84267]},"properties":{"name":"岩泉発電所","pmax_mw":5.8,"pg_mw":1.5,"cf":0.263,"fuel":"hydro"}},{"type":"Feature","geometry":{"type":"Point","coordinates":[141.72694,39.82769]},"properties":{"name":"岩泉町変電所","pmax_mw":6.0,"pg_mw":1.6,"cf":0.263,"fuel":"hydro"}},{"type":"Feature","geometry":{"type":"Point","coordinates":[140.08585,39.94379]},"properties":{"name":"八郎潟変電所","pmax_mw":50.3,"pg_mw":13.2,"cf":0.263,"fuel":"hydro"}},{"type":"Feature","geometry":{"type":"Point","coordinates":[140.40651,39.99628]},"properties":{"name":"阿仁変電所","pmax_mw":50.2,"pg_mw":13.2,"cf":0.263,"fuel":"hydro"}},{"type":"Feature","geometry":{"type":"Point","coordinates":[140.7048,39.8621]},"properties":{"name":"仙北市変電所_2","pmax_mw":8.8,"pg_mw":2.3,"cf":0.263,"fuel":"hydro"}},{"type":"Feature","geometry":{"type":"Point","coordinates":[141.49626,40.54322]},"properties":{"name":"長苗代四丁目変電所_2 154kV","pmax_mw":12.4,"pg_mw":3.3,"cf":0.263,"fuel":"biomass"}},{"type":"Feature","geometry":{"type":"Point","coordinates":[140.36454,40.12525]},"properties":{"name":"米内沢変電所","pmax_mw":1.4,"pg_mw":0.4,"cf":0.263,"fuel":"solar"}},{"type":"Feature","geometry":{"type":"Point","coordinates":[140.6411,39.82966]},"properties":{"name":"仙北市変電所","pmax_mw":50.0,"pg_mw":13.1,"cf":0.263,"fuel":"hydro"}},{"type":"Feature","geometry":{"type":"Point","coordinates":[140.66838,39.77485]},"properties":{"name":"鎧畑開閉所","pmax_mw":50.0,"pg_mw":13.1,"cf":0.263,"fuel":"hydro"}},{"type":"Feature","geometry":{"type":"Point","coordinates":[140.67587,39.74975]},"properties":{"name":"仙北市変電所_4","pmax_mw":50.0,"pg_mw":13.1,"cf":0.263,"fuel":"hydro"}},{"type":"Feature","geometry":{"type":"Point","coordinates":[140.71864,39.75375]},"properties":{"name":"仙北市変電所_5","pmax_mw":100.0,"pg_mw":26.3,"cf":0.263,"fuel":"hydro"}},{"type":"Feature","geometry":{"type":"Point","coordinates":[141.50562,38.78708]},"properties":{"name":"津谷変電所","pmax_mw":1.6,"pg_mw":0.4,"cf":0.263,"fuel":"solar"}},{"type":"Feature","geometry":{"type":"Point","coordinates":[140.80966,38.21449]},"properties":{"name":"太白区変電所_2","pmax_mw":50.0,"pg_mw":13.1,"cf":0.263,"fuel":"hydro"}},{"type":"Feature","geometry":{"type":"Point","coordinates":[139.97005,39.21641]},"properties":{"name":"由利変電所 154kV","pmax_mw":50.0,"pg_mw":13.1,"cf":0.263,"fuel":"hydro"}},{"type":"Feature","geometry":{"type":"Point","coordinates":[139.9419,39.17812]},"properties":{"name":"にかほ市変電所_2 66kV","pmax_mw":50.2,"pg_mw":13.2,"cf":0.263,"fuel":"hydro"}},{"type":"Feature","geometry":{"type":"Point","coordinates":[140.33677,40.86311]},"properties":{"name":"菰槌変電所","pmax_mw":121.7,"pg_mw":32.0,"cf":0.263,"fuel":"wind"}},{"type":"Feature","geometry":{"type":"Point","coordinates":[141.20822,40.64612]},"properties":{"name":"一本木沢二丁目変電所","pmax_mw":18.4,"pg_mw":4.8,"cf":0.263,"fuel":"solar"}},{"type":"Feature","geometry":{"type":"Point","coordinates":[139.59712,37.10061]},"properties":{"name":"大久保変電所_2","pmax_mw":50.0,"pg_mw":13.1,"cf":0.263,"fuel":"hydro"}},{"type":"Feature","geometry":{"type":"Point","coordinates":[140.07974,40.10623]},"properties":{"name":"森岳変電所","pmax_mw":27.0,"pg_mw":7.1,"cf":0.263,"fuel":"wind"}},{"type":"Feature","geometry":{"type":"Point","coordinates":[140.08035,39.60684]},"properties":{"name":"羽川変電所","pmax_mw":1.1,"pg_mw":0.3,"cf":0.263,"fuel":"solar"}},{"type":"Feature","geometry":{"type":"Point","coordinates":[141.45361,40.31997]},"properties":{"name":"軽米変電所","pmax_mw":40.3,"pg_mw":10.6,"cf":0.263,"fuel":"solar"}},{"type":"Feature","geometry":{"type":"Point","coordinates":[141.01767,38.2783]},"properties":{"name":"宮内二丁目変電所 275kV","pmax_mw":601.0,"pg_mw":157.8,"cf":0.263,"fuel":"coal"}},{"type":"Feature","geometry":{"type":"Point","coordinates":[140.32835,37.45683]},"properties":{"name":"喜久田変電所","pmax_mw":1.3,"pg_mw":0.3,"cf":0.263,"fuel":"solar"}},{"type":"Feature","geometry":{"type":"Point","coordinates":[140.94826,37.85097]},"properties":{"name":"今泉変電所","pmax_mw":1.1,"pg_mw":0.3,"cf":0.263,"fuel":"gas"}},{"type":"Feature","geometry":{"type":"Point","coordinates":[140.99556,37.4835]},"properties":{"name":"牛渡変電所","pmax_mw":1.1,"pg_mw":0.3,"cf":0.263,"fuel":"solar"}},{"type":"Feature","geometry":{"type":"Point","coordinates":[141.04068,38.27882]},"properties":{"name":"東仙台変電所 275kV","pmax_mw":2028.0,"pg_mw":532.5,"cf":0.263,"fuel":"gas"}},{"type":"Feature","geometry":{"type":"Point","coordinates":[139.09221,37.92005]},"properties":{"name":"中新潟変電所 154kV","pmax_mw":400.0,"pg_mw":105.0,"cf":0.263,"fuel":"gas"}},{"type":"Feature","geometry":{"type":"Point","coordinates":[140.85525,38.0963]},"properties":{"name":"tohoku_sub_547","pmax_mw":30.2,"pg_mw":7.9,"cf":0.263,"fuel":"unknown"}},{"type":"Feature","geometry":{"type":"Point","coordinates":[141.77395,40.1974]},"properties":{"name":"久慈変電所","pmax_mw":25.5,"pg_mw":6.7,"cf":0.263,"fuel":"solar"}},{"type":"Feature","geometry":{"type":"Point","coordinates":[140.10356,37.02957]},"properties":{"name":"新那須変電所","pmax_mw":1.1,"pg_mw":0.4,"cf":0.339,"fuel":"solar"}},{"type":"Feature","geometry":{"type":"Point","coordinates":[140.4721,40.27619]},"properties":{"name":"岩瀬変電所","pmax_mw":51.1,"pg_mw":13.4,"cf":0.263,"fuel":"hydro"}},{"type":"Feature","geometry":{"type":"Point","coordinates":[140.83619,38.79749]},"properties":{"name":"栗原市変電所_2","pmax_mw":6.9,"pg_mw":1.8,"cf":0.263,"fuel":"solar"}},{"type":"Feature","geometry":{"type":"Point","coordinates":[141.42893,40.33301]},"properties":{"name":"軽米町変電所_3","pmax_mw":6.2,"pg_mw":1.6,"cf":0.263,"fuel":"biofuel"}},{"type":"Feature","geometry":{"type":"Point","coordinates":[139.88887,36.95329]},"properties":{"name":"関谷変電所 275kV","pmax_mw":934.2,"pg_mw":316.2,"cf":0.339,"fuel":"hydro"}},{"type":"Feature","geometry":{"type":"Point","coordinates":[139.83219,36.71272]},"properties":{"name":"新今市開閉所","pmax_mw":1050.0,"pg_mw":355.4,"cf":0.339,"fuel":"hydro"}},{"type":"Feature","geometry":{"type":"Point","coordinates":[139.60546,36.86754]},"properties":{"name":"栗山変電所","pmax_mw":4.2,"pg_mw":1.4,"cf":0.339,"fuel":"hydro"}},{"type":"Feature","geometry":{"type":"Point","coordinates":[141.17073,40.77987]},"properties":{"name":"卒古沢変電所 500kV","pmax_mw":27.4,"pg_mw":7.2,"cf":0.263,"fuel":"solar"}},{"type":"Feature","geometry":{"type":"Point","coordinates":[141.17891,40.71058]},"properties":{"name":"JR東日本 新七戸変電所 275kV","pmax_mw":11.4,"pg_mw":3.0,"cf":0.263,"fuel":"solar"}},{"type":"Feature","geometry":{"type":"Point","coordinates":[141.17285,40.78362]},"properties":{"name":"上北変電所 500kV","pmax_mw":19.6,"pg_mw":5.1,"cf":0.263,"fuel":"solar"}},{"type":"Feature","geometry":{"type":"Point","coordinates":[138.89892,37.10475]},"properties":{"name":"tokyo_sub_1801","pmax_mw":30.0,"pg_mw":7.9,"cf":0.263,"fuel":"unknown"}},{"type":"Feature","geometry":{"type":"Point","coordinates":[141.21443,40.63248]},"properties":{"name":"稲生変電所","pmax_mw":7.4,"pg_mw":1.9,"cf":0.263,"fuel":"solar"}},{"type":"Feature","geometry":{"type":"Point","coordinates":[140.94922,38.974]},"properties":{"name":"一関市変電所","pmax_mw":80.0,"pg_mw":21.0,"cf":0.263,"fuel":"hydro"}},{"type":"Feature","geometry":{"type":"Point","coordinates":[139.70182,36.8948]},"properties":{"name":"川治変電所","pmax_mw":15.3,"pg_mw":5.2,"cf":0.339,"fuel":"hydro"}},{"type":"Feature","geometry":{"type":"Point","coordinates":[139.92845,36.81503]},"properties":{"name":"矢板変電所","pmax_mw":1.3,"pg_mw":0.4,"cf":0.339,"fuel":"solar"}},{"type":"Feature","geometry":{"type":"Point","coordinates":[139.23232,36.78193]},"properties":{"name":"片品変電所 154kV","pmax_mw":36.9,"pg_mw":12.5,"cf":0.339,"fuel":"hydro"}},{"type":"Feature","geometry":{"type":"Point","coordinates":[140.99836,38.6585]},"properties":{"name":"高清水変電所","pmax_mw":1.6,"pg_mw":0.4,"cf":0.263,"fuel":"solar"}},{"type":"Feature","geometry":{"type":"Point","coordinates":[139.0471,36.80037]},"properties":{"name":"みなかみ町変電所","pmax_mw":23.0,"pg_mw":7.8,"cf":0.339,"fuel":"hydro"}},{"type":"Feature","geometry":{"type":"Point","coordinates":[139.04712,36.80026]},"properties":{"name":"みなかみ町変電所_2","pmax_mw":1200.0,"pg_mw":406.2,"cf":0.339,"fuel":"hydro"}},{"type":"Feature","geometry":{"type":"Point","coordinates":[139.06128,36.86566]},"properties":{"name":"みなかみ町変電所_2","pmax_mw":59.0,"pg_mw":20.0,"cf":0.339,"fuel":"hydro"}},{"type":"Feature","geometry":{"type":"Point","coordinates":[140.64467,38.25533]},"properties":{"name":"西仙台変電所 500kV","pmax_mw":40.1,"pg_mw":10.5,"cf":0.263,"fuel":"battery"}},{"type":"Feature","geometry":{"type":"Point","coordinates":[140.80564,37.38109]},"properties":{"name":"南いわき開閉所","pmax_mw":50.0,"pg_mw":13.1,"cf":0.263,"fuel":"hydro"}},{"type":"Feature","geometry":{"type":"Point","coordinates":[139.56972,37.69715]},"properties":{"name":"阿賀町変電所","pmax_mw":118.9,"pg_mw":31.2,"cf":0.263,"fuel":"hydro"}},{"type":"Feature","geometry":{"type":"Point","coordinates":[140.82091,36.91459]},"properties":{"name":"佐糠町変電所 154kV","pmax_mw":525.0,"pg_mw":137.9,"cf":0.263,"fuel":"coal"}},{"type":"Feature","geometry":{"type":"Point","coordinates":[140.78128,38.05922]},"properties":{"name":"船岡変電所","pmax_mw":400.1,"pg_mw":105.1,"cf":0.263,"fuel":"gas"}},{"type":"Feature","geometry":{"type":"Point","coordinates":[139.52129,36.87276]},"properties":{"name":"川俣変電所","pmax_mw":27.0,"pg_mw":9.1,"cf":0.339,"fuel":"hydro"}},{"type":"Feature","geometry":{"type":"Point","coordinates":[140.45937,37.8149]},"properties":{"name":"飯坂変電所 154kV","pmax_mw":50.1,"pg_mw":17.0,"cf":0.338,"fuel":"hydro"}},{"type":"Feature","geometry":{"type":"Point","coordinates":[140.12107,37.55426]},"properties":{"name":"字下園変電所","pmax_mw":107.5,"pg_mw":36.4,"cf":0.339,"fuel":"solar"}},{"type":"Feature","geometry":{"type":"Point","coordinates":[140.74838,36.98903]},"properties":{"name":"いわき変電所 275kV","pmax_mw":1975.5,"pg_mw":518.7,"cf":0.263,"fuel":"coal"}},{"type":"Feature","geometry":{"type":"Point","coordinates":[140.01303,36.92486]},"properties":{"name":"方京三丁目変電所","pmax_mw":1.4,"pg_mw":0.5,"cf":0.339,"fuel":"solar"}},{"type":"Feature","geometry":{"type":"Point","coordinates":[140.03825,36.93822]},"properties":{"name":"那須野変電所 154kV","pmax_mw":4.5,"pg_mw":1.5,"cf":0.339,"fuel":"solar"}},{"type":"Feature","geometry":{"type":"Point","coordinates":[139.95438,36.85472]},"properties":{"name":"下石上変電所","pmax_mw":1.2,"pg_mw":0.4,"cf":0.339,"fuel":"solar"}},{"type":"Feature","geometry":{"type":"Point","coordinates":[141.71346,39.07539]},"properties":{"name":"大船渡変電所 154kV","pmax_mw":20.0,"pg_mw":5.3,"cf":0.263,"fuel":"biomass"}},{"type":"Feature","geometry":{"type":"Point","coordinates":[140.04111,36.96559]},"properties":{"name":"黒磯変電所","pmax_mw":1.1,"pg_mw":0.4,"cf":0.339,"fuel":"solar"}},{"type":"Feature","geometry":{"type":"Point","coordinates":[140.99367,38.27716]},"properties":{"name":"仙台港変電所 275kV","pmax_mw":75.0,"pg_mw":19.7,"cf":0.263,"fuel":"biomass"}},{"type":"Feature","geometry":{"type":"Point","coordinates":[140.94736,37.53703]},"properties":{"name":"小高区大田和変電所","pmax_mw":1.4,"pg_mw":0.4,"cf":0.263,"fuel":"hydro"}},{"type":"Feature","geometry":{"type":"Point","coordinates":[141.27656,41.20044]},"properties":{"name":"近川変電所","pmax_mw":40.5,"pg_mw":10.6,"cf":0.263,"fuel":"waste"}},{"type":"Feature","geometry":{"type":"Point","coordinates":[141.49838,38.39986]},"properties":{"name":"塚浜変電所_3","pmax_mw":1650.0,"pg_mw":433.3,"cf":0.263,"fuel":"nuclear"}},{"type":"Feature","geometry":{"type":"Point","coordinates":[139.41186,37.88911]},"properties":{"name":"越後開閉所 500kV","pmax_mw":30.0,"pg_mw":7.9,"cf":0.263,"fuel":"unknown"}},{"type":"Feature","geometry":{"type":"Point","coordinates":[141.80836,39.25253]},"properties":{"name":"大橋変電所","pmax_mw":50.0,"pg_mw":13.1,"cf":0.263,"fuel":"hydro"}},{"type":"Feature","geometry":{"type":"Point","coordinates":[141.23239,40.0753]},"properties":{"name":"奥中山き電区分所","pmax_mw":30.0,"pg_mw":7.9,"cf":0.263,"fuel":"unknown"}},{"type":"Feature","geometry":{"type":"Point","coordinates":[139.24646,37.99915]},"properties":{"name":"東港一丁目変電所_2 275kV","pmax_mw":4160.1,"pg_mw":1092.4,"cf":0.263,"fuel":"gas"}},{"type":"Feature","geometry":{"type":"Point","coordinates":[141.26443,38.42092]},"properties":{"name":"重吉変電所 154kV","pmax_mw":20.0,"pg_mw":5.3,"cf":0.263,"fuel":"biomass"}},{"type":"Feature","geometry":{"type":"Point","coordinates":[139.95948,39.28161]},"properties":{"name":"平沢変電所","pmax_mw":1.5,"pg_mw":0.4,"cf":0.263,"fuel":"solar"}},{"type":"Feature","geometry":{"type":"Point","coordinates":[138.96677,37.22661]},"properties":{"name":"小出","pmax_mw":50.0,"pg_mw":13.1,"cf":0.263,"fuel":"hydro"}},{"type":"Feature","geometry":{"type":"Point","coordinates":[140.99613,41.20389]},"properties":{"name":"仲崎変電所","pmax_mw":50.0,"pg_mw":13.1,"cf":0.263,"fuel":"hydro"}},{"type":"Feature","geometry":{"type":"Point","coordinates":[140.91683,39.3064]},"properties":{"name":"仙人変電所","pmax_mw":100.0,"pg_mw":26.3,"cf":0.263,"fuel":"hydro"}},{"type":"Feature","geometry":{"type":"Point","coordinates":[141.30625,40.95972]},"properties":{"name":"六ヶ所村変電所_5","pmax_mw":31.5,"pg_mw":8.3,"cf":0.263,"fuel":"wind"}},{"type":"Feature","geometry":{"type":"Point","coordinates":[141.25089,40.96245]},"properties":{"name":"野辺地町変電所","pmax_mw":82.2,"pg_mw":21.6,"cf":0.263,"fuel":"wind"}},{"type":"Feature","geometry":{"type":"Point","coordinates":[140.94101,37.84456]},"properties":{"name":"今泉変電所_3","pmax_mw":2000.0,"pg_mw":525.2,"cf":0.263,"fuel":"coal"}},{"type":"Feature","geometry":{"type":"Point","coordinates":[141.29832,40.95211]},"properties":{"name":"尾駮変電所_2","pmax_mw":51.0,"pg_mw":13.4,"cf":0.263,"fuel":"solar"}},{"type":"Feature","geometry":{"type":"Point","coordinates":[141.28664,40.95172]},"properties":{"name":"六ヶ所村変電所_3 154kV","pmax_mw":65.0,"pg_mw":17.1,"cf":0.263,"fuel":"solar"}},{"type":"Feature","geometry":{"type":"Point","coordinates":[141.41953,40.30263]},"properties":{"name":"軽米町変電所_2","pmax_mw":128.8,"pg_mw":33.8,"cf":0.263,"fuel":"solar"}},{"type":"Feature","geometry":{"type":"Point","coordinates":[141.40299,41.37949]},"properties":{"name":"岩屋変電所 154kV","pmax_mw":63.8,"pg_mw":16.7,"cf":0.263,"fuel":"wind"}},{"type":"Feature","geometry":{"type":"Point","coordinates":[141.38011,41.18922]},"properties":{"name":"白糠変電所 154kV","pmax_mw":13.0,"pg_mw":3.4,"cf":0.263,"fuel":"wind"}},{"type":"Feature","geometry":{"type":"Point","coordinates":[141.3193,40.9648]},"properties":{"name":"尾駮変電所_3 154kV","pmax_mw":51.0,"pg_mw":13.4,"cf":0.263,"fuel":"wind"}},{"type":"Feature","geometry":{"type":"Point","coordinates":[141.27143,40.98803]},"properties":{"name":"六ヶ所村変電所_7","pmax_mw":52.9,"pg_mw":13.9,"cf":0.263,"fuel":"wind"}},{"type":"Feature","geometry":{"type":"Point","coordinates":[138.80178,36.62266]},"properties":{"name":"西群馬開閉所 500kV","pmax_mw":50.0,"pg_mw":16.9,"cf":0.339,"fuel":"hydro"}},{"type":"Feature","geometry":{"type":"Point","coordinates":[139.88345,36.71897]},"properties":{"name":"ロイヤルカントリーメガソーラー発電所変電設備","pmax_mw":14.5,"pg_mw":4.9,"cf":0.339,"fuel":"solar"}},{"type":"Feature","geometry":{"type":"Point","coordinates":[138.62654,36.55034]},"properties":{"name":"大津変電所","pmax_mw":72.0,"pg_mw":24.4,"cf":0.339,"fuel":"unknown"}},{"type":"Feature","geometry":{"type":"Point","coordinates":[140.2737,35.99814]},"properties":{"name":"君島変電所","pmax_mw":7.5,"pg_mw":2.5,"cf":0.339,"fuel":"solar"}},{"type":"Feature","geometry":{"type":"Point","coordinates":[139.68671,35.52896]},"properties":{"name":"川崎変電所 154kV","pmax_mw":6840.0,"pg_mw":2315.5,"cf":0.339,"fuel":"gas"}},{"type":"Feature","geometry":{"type":"Point","coordinates":[140.0721,36.46678]},"properties":{"name":"益子町変電所","pmax_mw":8.7,"pg_mw":2.9,"cf":0.339,"fuel":"solar"}},{"type":"Feature","geometry":{"type":"Point","coordinates":[140.59919,36.44506]},"properties":{"name":"東海村変電所_2 275kV","pmax_mw":2650.0,"pg_mw":897.1,"cf":0.339,"fuel":"coal"}},{"type":"Feature","geometry":{"type":"Point","coordinates":[138.48091,36.18581]},"properties":{"name":"勝間変電所","pmax_mw":50.0,"pg_mw":16.9,"cf":0.339,"fuel":"hydro"}},{"type":"Feature","geometry":{"type":"Point","coordinates":[139.76375,35.60393]},"properties":{"name":"大井ふ頭変電所","pmax_mw":15.0,"pg_mw":5.1,"cf":0.339,"fuel":"waste"}},{"type":"Feature","geometry":{"type":"Point","coordinates":[138.8085,36.55006]},"properties":{"name":"郷原変電所","pmax_mw":132.8,"pg_mw":45.0,"cf":0.339,"fuel":"hydro"}},{"type":"Feature","geometry":{"type":"Point","coordinates":[139.7172,35.73227]},"properties":{"name":"東池袋変電所","pmax_mw":30.0,"pg_mw":10.2,"cf":0.339,"fuel":"waste"}},{"type":"Feature","geometry":{"type":"Point","coordinates":[139.23044,35.59262]},"properties":{"name":"津久井変電所","pmax_mw":31.0,"pg_mw":10.5,"cf":0.339,"fuel":"hydro"}},{"type":"Feature","geometry":{"type":"Point","coordinates":[138.84378,36.58459]},"properties":{"name":"中之条変電所","pmax_mw":90.2,"pg_mw":30.5,"cf":0.339,"fuel":"unknown"}},{"type":"Feature","geometry":{"type":"Point","coordinates":[139.17707,35.80009]},"properties":{"name":"沢井変電所","pmax_mw":16.4,"pg_mw":5.6,"cf":0.339,"fuel":"hydro"}},{"type":"Feature","geometry":{"type":"Point","coordinates":[139.27704,36.42268]},"properties":{"name":"大間々変電所","pmax_mw":4.4,"pg_mw":1.5,"cf":0.339,"fuel":"solar"}},{"type":"Feature","geometry":{"type":"Point","coordinates":[139.29372,35.58996]},"properties":{"name":"緑区変電所","pmax_mw":300.2,"pg_mw":101.6,"cf":0.339,"fuel":"hydro"}},{"type":"Feature","geometry":{"type":"Point","coordinates":[138.57985,35.67787]},"properties":{"name":"東京電力パワーグリッド株式会社武田変電所","pmax_mw":1.3,"pg_mw":0.4,"cf":0.339,"fuel":"solar"}},{"type":"Feature","geometry":{"type":"Point","coordinates":[138.44373,35.374]},"properties":{"name":"波木井変電所","pmax_mw":100.0,"pg_mw":33.9,"cf":0.339,"fuel":"hydro"}},{"type":"Feature","geometry":{"type":"Point","coordinates":[139.59701,35.8864]},"properties":{"name":"植田谷変電所","pmax_mw":4.0,"pg_mw":1.4,"cf":0.339,"fuel":"solar"}},{"type":"Feature","geometry":{"type":"Point","coordinates":[138.86912,35.53006]},"properties":{"name":"鹿留変電所","pmax_mw":18.4,"pg_mw":6.2,"cf":0.339,"fuel":"hydro"}},{"type":"Feature","geometry":{"type":"Point","coordinates":[138.91335,35.55958]},"properties":{"name":"谷村変電所 154kV","pmax_mw":14.7,"pg_mw":5.0,"cf":0.339,"fuel":"hydro"}},{"type":"Feature","geometry":{"type":"Point","coordinates":[138.92824,35.58005]},"properties":{"name":"中央新幹線 都留変電所","pmax_mw":2.5,"pg_mw":0.8,"cf":0.339,"fuel":"hydro"}},{"type":"Feature","geometry":{"type":"Point","coordinates":[140.48827,35.89542]},"properties":{"name":"北二丁目変電所","pmax_mw":1.1,"pg_mw":0.4,"cf":0.339,"fuel":"solar"}},{"type":"Feature","geometry":{"type":"Point","coordinates":[139.28005,36.42874]},"properties":{"name":"大間々町高津戸変電所","pmax_mw":2.9,"pg_mw":1.0,"cf":0.339,"fuel":"solar"}},{"type":"Feature","geometry":{"type":"Point","coordinates":[140.70136,35.91321]},"properties":{"name":"北浜変電所 275kV","pmax_mw":8025.6,"pg_mw":2716.8,"cf":0.339,"fuel":"oil"}},{"type":"Feature","geometry":{"type":"Point","coordinates":[139.1875,36.46709]},"properties":{"name":"苗ヶ島町変電所","pmax_mw":2.9,"pg_mw":1.0,"cf":0.339,"fuel":"solar"}},{"type":"Feature","geometry":{"type":"Point","coordinates":[139.25134,35.54078]},"properties":{"name":"tokyo_sub_1785 154kV","pmax_mw":25.4,"pg_mw":8.6,"cf":0.339,"fuel":"hydro"}},{"type":"Feature","geometry":{"type":"Point","coordinates":[139.62396,35.37425]},"properties":{"name":"富岡変電所","pmax_mw":30.0,"pg_mw":10.2,"cf":0.339,"fuel":"waste"}},{"type":"Feature","geometry":{"type":"Point","coordinates":[139.01192,36.49111]},"properties":{"name":"南渋川変電所","pmax_mw":7.0,"pg_mw":2.4,"cf":0.339,"fuel":"hydro"}},{"type":"Feature","geometry":{"type":"Point","coordinates":[140.67239,36.68849]},"properties":{"name":"常磐変電所 275kV","pmax_mw":155.9,"pg_mw":52.8,"cf":0.339,"fuel":"hydro"}},{"type":"Feature","geometry":{"type":"Point","coordinates":[140.32262,35.74802]},"properties":{"name":"冨里変電所","pmax_mw":3.6,"pg_mw":1.2,"cf":0.339,"fuel":"solar"}},{"type":"Feature","geometry":{"type":"Point","coordinates":[140.04892,36.03176]},"properties":{"name":"福岡変電所","pmax_mw":4.2,"pg_mw":1.4,"cf":0.339,"fuel":"solar"}},{"type":"Feature","geometry":{"type":"Point","coordinates":[140.08986,35.97623]},"properties":{"name":"伊奈町変電所","pmax_mw":10.2,"pg_mw":3.5,"cf":0.339,"fuel":"solar"}},{"type":"Feature","geometry":{"type":"Point","coordinates":[140.14456,36.01305]},"properties":{"name":"牛久北部変電所","pmax_mw":4.0,"pg_mw":1.4,"cf":0.339,"fuel":"solar"}},{"type":"Feature","geometry":{"type":"Point","coordinates":[140.16312,36.07132]},"properties":{"name":"宍塚変電所","pmax_mw":1.3,"pg_mw":0.4,"cf":0.339,"fuel":"solar"}},{"type":"Feature","geometry":{"type":"Point","coordinates":[140.29046,35.90789]},"properties":{"name":"角崎変電所","pmax_mw":6.4,"pg_mw":2.2,"cf":0.339,"fuel":"solar"}},{"type":"Feature","geometry":{"type":"Point","coordinates":[140.50437,36.70706]},"properties":{"name":"里美変電所","pmax_mw":33.9,"pg_mw":11.5,"cf":0.339,"fuel":"solar"}},{"type":"Feature","geometry":{"type":"Point","coordinates":[139.41113,36.23517]},"properties":{"name":"吉田変電所","pmax_mw":5.6,"pg_mw":1.9,"cf":0.339,"fuel":"solar"}},{"type":"Feature","geometry":{"type":"Point","coordinates":[140.59814,36.45405]},"properties":{"name":"東海村変電所 275kV","pmax_mw":1100.1,"pg_mw":372.4,"cf":0.339,"fuel":"nuclear"}},{"type":"Feature","geometry":{"type":"Point","coordinates":[139.58621,35.37518]},"properties":{"name":"港南台変電所","pmax_mw":1200.0,"pg_mw":406.2,"cf":0.339,"fuel":"coal"}},{"type":"Feature","geometry":{"type":"Point","coordinates":[139.62201,35.37547]},"properties":{"name":"富岡変電所 154kV","pmax_mw":1492.0,"pg_mw":505.1,"cf":0.339,"fuel":"gas"}},{"type":"Feature","geometry":{"type":"Point","coordinates":[139.88296,36.47056]},"properties":{"name":"栃山開閉所 154kV","pmax_mw":90.3,"pg_mw":30.6,"cf":0.339,"fuel":"waste"}},{"type":"Feature","geometry":{"type":"Point","coordinates":[139.88337,36.71974]},"properties":{"name":"小室変電所","pmax_mw":12.6,"pg_mw":4.3,"cf":0.339,"fuel":"hydro"}},{"type":"Feature","geometry":{"type":"Point","coordinates":[139.92278,36.06197]},"properties":{"name":"飯沼川変電所","pmax_mw":4.1,"pg_mw":1.4,"cf":0.339,"fuel":"solar"}},{"type":"Feature","geometry":{"type":"Point","coordinates":[140.15452,36.73986]},"properties":{"name":"馬頭変電所","pmax_mw":19.9,"pg_mw":6.7,"cf":0.339,"fuel":"solar"}},{"type":"Feature","geometry":{"type":"Point","coordinates":[140.14611,36.6737]},"properties":{"name":"烏山変電所","pmax_mw":56.0,"pg_mw":19.0,"cf":0.339,"fuel":"solar"}},{"type":"Feature","geometry":{"type":"Point","coordinates":[139.57718,36.35535]},"properties":{"name":"田沼変電所","pmax_mw":59.9,"pg_mw":20.3,"cf":0.339,"fuel":"solar"}},{"type":"Feature","geometry":{"type":"Point","coordinates":[139.60592,36.39495]},"properties":{"name":"葛生変電所","pmax_mw":16.6,"pg_mw":5.6,"cf":0.339,"fuel":"solar"}},{"type":"Feature","geometry":{"type":"Point","coordinates":[139.28285,36.45105]},"properties":{"name":"浅原変電所","pmax_mw":263.7,"pg_mw":89.3,"cf":0.339,"fuel":"solar"}},{"type":"Feature","geometry":{"type":"Point","coordinates":[140.35996,36.62067]},"properties":{"name":"山方変電所","pmax_mw":62.6,"pg_mw":21.2,"cf":0.339,"fuel":"solar"}},{"type":"Feature","geometry":{"type":"Point","coordinates":[139.11397,35.23232]},"properties":{"name":"箱根町変電所","pmax_mw":100.0,"pg_mw":33.9,"cf":0.339,"fuel":"hydro"}},{"type":"Feature","geometry":{"type":"Point","coordinates":[138.44867,35.71648]},"properties":{"name":"若宮一丁目変電所","pmax_mw":1.7,"pg_mw":0.6,"cf":0.339,"fuel":"solar"}},{"type":"Feature","geometry":{"type":"Point","coordinates":[138.74283,35.67022]},"properties":{"name":"勝沼変電所","pmax_mw":90.1,"pg_mw":30.5,"cf":0.339,"fuel":"unknown"}},{"type":"Feature","geometry":{"type":"Point","coordinates":[139.77836,35.52452]},"properties":{"name":"浮島町変電所_2","pmax_mw":7.1,"pg_mw":2.4,"cf":0.339,"fuel":"solar"}},{"type":"Feature","geometry":{"type":"Point","coordinates":[140.10931,36.04415]},"properties":{"name":"小野川変電所","pmax_mw":3.6,"pg_mw":1.2,"cf":0.339,"fuel":"solar"}},{"type":"Feature","geometry":{"type":"Point","coordinates":[140.72686,35.85315]},"properties":{"name":"波崎変電所","pmax_mw":22.7,"pg_mw":7.7,"cf":0.339,"fuel":"solar"}},{"type":"Feature","geometry":{"type":"Point","coordinates":[139.04299,36.45076]},"properties":{"name":"田口発電所変電設備","pmax_mw":56.0,"pg_mw":19.0,"cf":0.339,"fuel":"hydro"}},{"type":"Feature","geometry":{"type":"Point","coordinates":[139.34566,36.38884]},"properties":{"name":"境野町三丁目変電所","pmax_mw":1.4,"pg_mw":0.5,"cf":0.339,"fuel":"solar"}},{"type":"Feature","geometry":{"type":"Point","coordinates":[139.40492,36.31739]},"properties":{"name":"東太田変電所 154kV","pmax_mw":3.3,"pg_mw":1.1,"cf":0.339,"fuel":"solar"}},{"type":"Feature","geometry":{"type":"Point","coordinates":[139.39776,36.32048]},"properties":{"name":"富若変電所 154kV","pmax_mw":3.2,"pg_mw":1.1,"cf":0.339,"fuel":"solar"}},{"type":"Feature","geometry":{"type":"Point","coordinates":[139.43293,36.34082]},"properties":{"name":"足利変電所","pmax_mw":31.7,"pg_mw":10.7,"cf":0.339,"fuel":"unknown"}},{"type":"Feature","geometry":{"type":"Point","coordinates":[139.94009,36.62399]},"properties":{"name":"河内変電所 154kV","pmax_mw":31.2,"pg_mw":10.6,"cf":0.339,"fuel":"unknown"}},{"type":"Feature","geometry":{"type":"Point","coordinates":[139.92385,36.61455]},"properties":{"name":"上大塚町変電所","pmax_mw":19.1,"pg_mw":6.5,"cf":0.339,"fuel":"solar"}},{"type":"Feature","geometry":{"type":"Point","coordinates":[139.96656,36.68712]},"properties":{"name":"氏家変電所","pmax_mw":30.0,"pg_mw":10.2,"cf":0.339,"fuel":"unknown"}},{"type":"Feature","geometry":{"type":"Point","coordinates":[138.56139,35.58632]},"properties":{"name":"高部変電所","pmax_mw":11.3,"pg_mw":3.8,"cf":0.339,"fuel":"solar"}},{"type":"Feature","geometry":{"type":"Point","coordinates":[139.62579,36.74978]},"properties":{"name":"所野変電所","pmax_mw":11.3,"pg_mw":3.8,"cf":0.339,"fuel":"hydro"}},{"type":"Feature","geometry":{"type":"Point","coordinates":[138.5572,36.53406]},"properties":{"name":"群馬三原変電所","pmax_mw":7.9,"pg_mw":2.7,"cf":0.339,"fuel":"hydro"}},{"type":"Feature","geometry":{"type":"Point","coordinates":[139.11022,35.80279]},"properties":{"name":"奥多摩変電所 66kV","pmax_mw":8.2,"pg_mw":2.8,"cf":0.339,"fuel":"hydro"}},{"type":"Feature","geometry":{"type":"Point","coordinates":[138.92448,36.3802]},"properties":{"name":"高浜変電所","pmax_mw":2.8,"pg_mw":0.9,"cf":0.339,"fuel":"solar"}},{"type":"Feature","geometry":{"type":"Point","coordinates":[140.17497,36.13128]},"properties":{"name":"中都町四丁目変電所 154kV","pmax_mw":5.4,"pg_mw":1.8,"cf":0.339,"fuel":"solar"}},{"type":"Feature","geometry":{"type":"Point","coordinates":[139.86486,36.5453]},"properties":{"name":"鶴田変電所","pmax_mw":1.1,"pg_mw":0.4,"cf":0.339,"fuel":"solar"}},{"type":"Feature","geometry":{"type":"Point","coordinates":[140.13375,35.84767]},"properties":{"name":"布佐変電所","pmax_mw":30.1,"pg_mw":10.2,"cf":0.339,"fuel":"unknown"}},{"type":"Feature","geometry":{"type":"Point","coordinates":[140.45831,35.86498]},"properties":{"name":"新佐原変電所 500kV","pmax_mw":1.8,"pg_mw":0.6,"cf":0.339,"fuel":"solar"}},{"type":"Feature","geometry":{"type":"Point","coordinates":[139.76379,36.7488]},"properties":{"name":"日光市変電所_2","pmax_mw":37.3,"pg_mw":12.6,"cf":0.339,"fuel":"solar"}},{"type":"Feature","geometry":{"type":"Point","coordinates":[139.49067,36.29052]},"properties":{"name":"久保田変電所","pmax_mw":32.4,"pg_mw":11.0,"cf":0.339,"fuel":"unknown"}},{"type":"Feature","geometry":{"type":"Point","coordinates":[139.38958,36.36596]},"properties":{"name":"葉鹿変電所","pmax_mw":31.8,"pg_mw":10.8,"cf":0.339,"fuel":"unknown"}},{"type":"Feature","geometry":{"type":"Point","coordinates":[138.89586,36.37897]},"properties":{"name":"上里見変電所","pmax_mw":33.5,"pg_mw":11.3,"cf":0.339,"fuel":"unknown"}},{"type":"Feature","geometry":{"type":"Point","coordinates":[139.06937,35.21614]},"properties":{"name":"須雲川変電所","pmax_mw":100.0,"pg_mw":33.9,"cf":0.339,"fuel":"hydro"}},{"type":"Feature","geometry":{"type":"Point","coordinates":[139.79692,35.63968]},"properties":{"name":"有明二丁目変電所","pmax_mw":1140.0,"pg_mw":385.9,"cf":0.339,"fuel":"gas"}},{"type":"Feature","geometry":{"type":"Point","coordinates":[139.62326,35.22415]},"properties":{"name":"長坂二丁目変電所","pmax_mw":30.0,"pg_mw":10.2,"cf":0.339,"fuel":"unknown"}},{"type":"Feature","geometry":{"type":"Point","coordinates":[140.28442,35.79796]},"properties":{"name":"松崎変電所","pmax_mw":30.1,"pg_mw":10.2,"cf":0.339,"fuel":"unknown"}},{"type":"Feature","geometry":{"type":"Point","coordinates":[140.14462,36.02523]},"properties":{"name":"東猯穴町変電所","pmax_mw":1.9,"pg_mw":0.6,"cf":0.339,"fuel":"solar"}},{"type":"Feature","geometry":{"type":"Point","coordinates":[138.78387,36.80173]},"properties":{"name":"浅貝変電所 500kV","pmax_mw":1680.0,"pg_mw":441.1,"cf":0.263,"fuel":"hydro"}},{"type":"Feature","geometry":{"type":"Point","coordinates":[139.71186,35.50005]},"properties":{"name":"南川崎変電所 154kV","pmax_mw":2585.5,"pg_mw":875.2,"cf":0.339,"fuel":"gas"}},{"type":"Feature","geometry":{"type":"Point","coordinates":[139.40642,35.51658]},"properties":{"name":"相模台変電所","pmax_mw":2.0,"pg_mw":0.7,"cf":0.339,"fuel":"solar"}},{"type":"Feature","geometry":{"type":"Point","coordinates":[138.54132,36.52369]},"properties":{"name":"嬬恋変電所","pmax_mw":54.7,"pg_mw":18.5,"cf":0.339,"fuel":"unknown"}},{"type":"Feature","geometry":{"type":"Point","coordinates":[139.7081,35.50223]},"properties":{"name":"白石変電所 154kV","pmax_mw":5016.0,"pg_mw":1698.0,"cf":0.339,"fuel":"gas"}},{"type":"Feature","geometry":{"type":"Point","coordinates":[140.128,35.56489]},"properties":{"name":"千葉中央変電所 275kV","pmax_mw":4380.0,"pg_mw":1482.7,"cf":0.339,"fuel":"gas"}},{"type":"Feature","geometry":{"type":"Point","coordinates":[139.83676,35.34381]},"properties":{"name":"新富変電所_2","pmax_mw":6312.0,"pg_mw":2136.7,"cf":0.339,"fuel":"gas"}},{"type":"Feature","geometry":{"type":"Point","coordinates":[139.98153,35.46341]},"properties":{"name":"中袖変電所 500kV","pmax_mw":8802.9,"pg_mw":2980.0,"cf":0.339,"fuel":"gas"}},{"type":"Feature","geometry":{"type":"Point","coordinates":[139.32676,35.45791]},"properties":{"name":"飯山変電所","pmax_mw":1.5,"pg_mw":0.5,"cf":0.339,"fuel":"solar"}},{"type":"Feature","geometry":{"type":"Point","coordinates":[139.39318,36.03763]},"properties":{"name":"ボッシュ東松山変電所","pmax_mw":1.4,"pg_mw":0.5,"cf":0.339,"fuel":"solar"}},{"type":"Feature","geometry":{"type":"Point","coordinates":[140.72047,35.87388]},"properties":{"name":"ウィンド・パワーかみす風力発電所変電設備","pmax_mw":319.9,"pg_mw":108.3,"cf":0.339,"fuel":"gas"}},{"type":"Feature","geometry":{"type":"Point","coordinates":[139.64288,36.21611]},"properties":{"name":"海老瀬変電所","pmax_mw":2.7,"pg_mw":0.9,"cf":0.339,"fuel":"solar"}},{"type":"Feature","geometry":{"type":"Point","coordinates":[139.30518,36.32578]},"properties":{"name":"新新田変電所 500kV","pmax_mw":60.8,"pg_mw":20.6,"cf":0.339,"fuel":"unknown"}},{"type":"Feature","geometry":{"type":"Point","coordinates":[139.17644,36.28988]},"properties":{"name":"堀口町変電所","pmax_mw":30.0,"pg_mw":10.2,"cf":0.339,"fuel":"waste"}},{"type":"Feature","geometry":{"type":"Point","coordinates":[139.84743,36.36459]},"properties":{"name":"国分寺変電所","pmax_mw":30.0,"pg_mw":10.2,"cf":0.339,"fuel":"unknown"}},{"type":"Feature","geometry":{"type":"Point","coordinates":[139.81691,36.32556]},"properties":{"name":"小山変電所 154kV","pmax_mw":30.1,"pg_mw":10.2,"cf":0.339,"fuel":"unknown"}},{"type":"Feature","geometry":{"type":"Point","coordinates":[139.75145,36.43752]},"properties":{"name":"都賀変電所","pmax_mw":31.6,"pg_mw":10.7,"cf":0.339,"fuel":"unknown"}},{"type":"Feature","geometry":{"type":"Point","coordinates":[139.72559,36.48184]},"properties":{"name":"小倉山下変電所","pmax_mw":30.2,"pg_mw":10.2,"cf":0.339,"fuel":"unknown"}},{"type":"Feature","geometry":{"type":"Point","coordinates":[139.70789,36.20026]},"properties":{"name":"古河変電所","pmax_mw":1.1,"pg_mw":0.4,"cf":0.339,"fuel":"solar"}},{"type":"Feature","geometry":{"type":"Point","coordinates":[139.91149,35.93182]},"properties":{"name":"新野田変電所 500kV","pmax_mw":2.8,"pg_mw":0.9,"cf":0.339,"fuel":"solar"}},{"type":"Feature","geometry":{"type":"Point","coordinates":[139.45984,35.92727]},"properties":{"name":"西川越変電所 275kV","pmax_mw":30.1,"pg_mw":10.2,"cf":0.339,"fuel":"waste"}},{"type":"Feature","geometry":{"type":"Point","coordinates":[139.6759,35.48048]},"properties":{"name":"横浜大黒変電所","pmax_mw":30.0,"pg_mw":10.2,"cf":0.339,"fuel":"waste"}},{"type":"Feature","geometry":{"type":"Point","coordinates":[139.21329,36.22004]},"properties":{"name":"新岡部変電所 500kV","pmax_mw":30.3,"pg_mw":10.3,"cf":0.339,"fuel":"waste"}},{"type":"Feature","geometry":{"type":"Point","coordinates":[139.15636,36.41192]},"properties":{"name":"大胡変電所","pmax_mw":3.2,"pg_mw":1.1,"cf":0.339,"fuel":"solar"}},{"type":"Feature","geometry":{"type":"Point","coordinates":[139.20711,36.46629]},"properties":{"name":"前橋市変電所","pmax_mw":34.1,"pg_mw":11.5,"cf":0.339,"fuel":"unknown"}},{"type":"Feature","geometry":{"type":"Point","coordinates":[139.41247,35.95985]},"properties":{"name":"千代田四丁目変電所","pmax_mw":30.0,"pg_mw":10.2,"cf":0.339,"fuel":"waste"}},{"type":"Feature","geometry":{"type":"Point","coordinates":[139.31829,35.41992]},"properties":{"name":"東富岡変電所","pmax_mw":30.2,"pg_mw":10.2,"cf":0.339,"fuel":"unknown"}},{"type":"Feature","geometry":{"type":"Point","coordinates":[139.28062,36.27416]},"properties":{"name":"小角田町変電所","pmax_mw":30.1,"pg_mw":10.2,"cf":0.339,"fuel":"unknown"}},{"type":"Feature","geometry":{"type":"Point","coordinates":[139.88355,36.30327]},"properties":{"name":"結城変電所","pmax_mw":20.2,"pg_mw":6.8,"cf":0.339,"fuel":"biomass"}},{"type":"Feature","geometry":{"type":"Point","coordinates":[139.69211,36.72633]},"properties":{"name":"中央町変電所","pmax_mw":5.5,"pg_mw":1.9,"cf":0.339,"fuel":"hydro"}},{"type":"Feature","geometry":{"type":"Point","coordinates":[139.59362,36.74939]},"properties":{"name":"匠町変電所","pmax_mw":8.6,"pg_mw":2.9,"cf":0.339,"fuel":"hydro"}},{"type":"Feature","geometry":{"type":"Point","coordinates":[139.28199,36.43982]},"properties":{"name":"みどり市変電所","pmax_mw":8.2,"pg_mw":2.8,"cf":0.339,"fuel":"hydro"}},{"type":"Feature","geometry":{"type":"Point","coordinates":[139.20629,36.46354]},"properties":{"name":"粕川町室沢変電所","pmax_mw":63.6,"pg_mw":21.5,"cf":0.339,"fuel":"unknown"}},{"type":"Feature","geometry":{"type":"Point","coordinates":[139.24492,36.39056]},"properties":{"name":"赤堀変電所","pmax_mw":141.8,"pg_mw":48.0,"cf":0.339,"fuel":"unknown"}},{"type":"Feature","geometry":{"type":"Point","coordinates":[140.11321,35.56448]},"properties":{"name":"新浜町変電所","pmax_mw":1443.4,"pg_mw":488.6,"cf":0.339,"fuel":"coal"}},{"type":"Feature","geometry":{"type":"Point","coordinates":[139.96597,36.4549]},"properties":{"name":"鬼怒ヶ丘変電所 66kV","pmax_mw":1248.0,"pg_mw":422.5,"cf":0.339,"fuel":"gas"}},{"type":"Feature","geometry":{"type":"Point","coordinates":[139.54329,36.72694]},"properties":{"name":"清滝新細尾町変電所 66kV","pmax_mw":15.7,"pg_mw":5.3,"cf":0.339,"fuel":"hydro"}},{"type":"Feature","geometry":{"type":"Point","coordinates":[140.56312,35.94797]},"properties":{"name":"潮来変電所","pmax_mw":7.9,"pg_mw":2.7,"cf":0.339,"fuel":"solar"}},{"type":"Feature","geometry":{"type":"Point","coordinates":[139.89437,35.26504]},"properties":{"name":"佐貫変電所","pmax_mw":42.2,"pg_mw":14.3,"cf":0.339,"fuel":"solar"}},{"type":"Feature","geometry":{"type":"Point","coordinates":[139.88531,35.22096]},"properties":{"name":"天羽変電所","pmax_mw":41.2,"pg_mw":13.9,"cf":0.339,"fuel":"solar"}},{"type":"Feature","geometry":{"type":"Point","coordinates":[139.8724,35.11615]},"properties":{"name":"中佐久間変電所","pmax_mw":2.7,"pg_mw":0.9,"cf":0.339,"fuel":"solar"}},{"type":"Feature","geometry":{"type":"Point","coordinates":[139.99848,35.3134]},"properties":{"name":"アカデミアパーク変電所","pmax_mw":1.6,"pg_mw":0.5,"cf":0.339,"fuel":"solar"}},{"type":"Feature","geometry":{"type":"Point","coordinates":[139.87945,34.99243]},"properties":{"name":"館山変電所","pmax_mw":8.1,"pg_mw":2.7,"cf":0.339,"fuel":"solar"}},{"type":"Feature","geometry":{"type":"Point","coordinates":[139.1134,35.61952]},"properties":{"name":"上野原変電所","pmax_mw":94.5,"pg_mw":32.0,"cf":0.339,"fuel":"hydro"}},{"type":"Feature","geometry":{"type":"Point","coordinates":[139.55495,36.28035]},"properties":{"name":"佐野変電所 154kV","pmax_mw":30.2,"pg_mw":10.2,"cf":0.339,"fuel":"gsimaps/seamlessphoto"}},{"type":"Feature","geometry":{"type":"Point","coordinates":[140.09964,35.11099]},"properties":{"name":"鴨川変電所","pmax_mw":1.1,"pg_mw":0.4,"cf":0.339,"fuel":"solar"}},{"type":"Feature","geometry":{"type":"Point","coordinates":[139.50843,36.21202]},"properties":{"name":"入ケ谷変電所","pmax_mw":2.1,"pg_mw":0.7,"cf":0.339,"fuel":"solar"}},{"type":"Feature","geometry":{"type":"Point","coordinates":[139.52918,36.18546]},"properties":{"name":"羽生変電所","pmax_mw":2.7,"pg_mw":0.9,"cf":0.339,"fuel":"solar"}},{"type":"Feature","geometry":{"type":"Point","coordinates":[139.51401,36.22355]},"properties":{"name":"青柳変電所","pmax_mw":1.6,"pg_mw":0.5,"cf":0.339,"fuel":"solar"}},{"type":"Feature","geometry":{"type":"Point","coordinates":[139.57505,36.24089]},"properties":{"name":"楠変電所","pmax_mw":1.5,"pg_mw":0.5,"cf":0.339,"fuel":"solar"}},{"type":"Feature","geometry":{"type":"Point","coordinates":[139.47849,36.20757]},"properties":{"name":"昭和変電所","pmax_mw":1.5,"pg_mw":0.5,"cf":0.339,"fuel":"solar"}},{"type":"Feature","geometry":{"type":"Point","coordinates":[140.04489,36.14956]},"properties":{"name":"大砂変電所","pmax_mw":35.4,"pg_mw":12.0,"cf":0.339,"fuel":"solar"}},{"type":"Feature","geometry":{"type":"Point","coordinates":[140.09373,35.62891]},"properties":{"name":"黒砂変電所","pmax_mw":20.0,"pg_mw":6.8,"cf":0.339,"fuel":"biomass"}},{"type":"Feature","geometry":{"type":"Point","coordinates":[140.04792,35.47494]},"properties":{"name":"椎津変電所","pmax_mw":1.8,"pg_mw":0.6,"cf":0.339,"fuel":"solar"}},{"type":"Feature","geometry":{"type":"Point","coordinates":[140.29056,35.4201]},"properties":{"name":"太陽光発電所変電設備","pmax_mw":2.3,"pg_mw":0.8,"cf":0.339,"fuel":"solar"}},{"type":"Feature","geometry":{"type":"Point","coordinates":[139.35041,35.65084]},"properties":{"name":"北野変電所","pmax_mw":30.0,"pg_mw":10.2,"cf":0.339,"fuel":"waste"}},{"type":"Feature","geometry":{"type":"Point","coordinates":[140.58565,35.67318]},"properties":{"name":"野栄変電所","pmax_mw":1.2,"pg_mw":0.4,"cf":0.339,"fuel":"solar"}},{"type":"Feature","geometry":{"type":"Point","coordinates":[138.43868,35.37281]},"properties":{"name":"身延変電所","pmax_mw":51.2,"pg_mw":17.3,"cf":0.339,"fuel":"hydro"}},{"type":"Feature","geometry":{"type":"Point","coordinates":[138.80122,36.41946]},"properties":{"name":"倉渕変電所","pmax_mw":186.1,"pg_mw":63.0,"cf":0.339,"fuel":"solar"}},{"type":"Feature","geometry":{"type":"Point","coordinates":[138.93007,36.50371]},"properties":{"name":"伊香保変電所","pmax_mw":26.9,"pg_mw":9.1,"cf":0.339,"fuel":"hydro"}},{"type":"Feature","geometry":{"type":"Point","coordinates":[138.96692,36.37711]},"properties":{"name":"東日本旅客鉄道新箕郷変電所 500kV","pmax_mw":13569.0,"pg_mw":4593.4,"cf":0.339,"fuel":"solar"}},{"type":"Feature","geometry":{"type":"Point","coordinates":[138.95409,36.34749]},"properties":{"name":"剣崎変電所","pmax_mw":1.2,"pg_mw":0.4,"cf":0.339,"fuel":"solar"}},{"type":"Feature","geometry":{"type":"Point","coordinates":[139.18821,36.46804]},"properties":{"name":"苗ヶ島町変電所","pmax_mw":8.6,"pg_mw":2.9,"cf":0.339,"fuel":"biomass"}},{"type":"Feature","geometry":{"type":"Point","coordinates":[138.59237,35.22918]},"properties":{"name":"中島町変電所","pmax_mw":50.0,"pg_mw":16.9,"cf":0.339,"fuel":"hydro"}},{"type":"Feature","geometry":{"type":"Point","coordinates":[140.03212,36.27522]},"properties":{"name":"明野変電所","pmax_mw":2.8,"pg_mw":0.9,"cf":0.339,"fuel":"solar"}},{"type":"Feature","geometry":{"type":"Point","coordinates":[138.91997,36.32974]},"properties":{"name":"中宿変電所","pmax_mw":63.3,"pg_mw":21.4,"cf":0.339,"fuel":"solar"}},{"type":"Feature","geometry":{"type":"Point","coordinates":[138.7106,35.14613]},"properties":{"name":"今井四丁目変電所","pmax_mw":100.0,"pg_mw":33.9,"cf":0.339,"fuel":"coal"}},{"type":"Feature","geometry":{"type":"Point","coordinates":[139.50137,36.73583]},"properties":{"name":"中禅寺変電所","pmax_mw":107.7,"pg_mw":36.5,"cf":0.339,"fuel":"hydro"}},{"type":"Feature","geometry":{"type":"Point","coordinates":[140.37553,36.53622]},"properties":{"name":"水戸北部変電所 154kV","pmax_mw":225.9,"pg_mw":76.5,"cf":0.339,"fuel":"gas"}},{"type":"Feature","geometry":{"type":"Point","coordinates":[139.6212,35.29639]},"properties":{"name":"京急田浦変電所","pmax_mw":200.0,"pg_mw":67.7,"cf":0.339,"fuel":"gas"}},{"type":"Feature","geometry":{"type":"Point","coordinates":[140.58617,36.37729]},"properties":{"name":"常陸海浜変電所","pmax_mw":53.6,"pg_mw":18.1,"cf":0.339,"fuel":"unknown"}},{"type":"Feature","geometry":{"type":"Point","coordinates":[139.97727,35.4458]},"properties":{"name":"長浦変電所","pmax_mw":340.0,"pg_mw":115.1,"cf":0.339,"fuel":"gas"}},{"type":"Feature","geometry":{"type":"Point","coordinates":[140.34457,35.77409]},"properties":{"name":"吉倉変電所","pmax_mw":1.2,"pg_mw":0.4,"cf":0.339,"fuel":"solar"}},{"type":"Feature","geometry":{"type":"Point","coordinates":[140.03739,35.3909]},"properties":{"name":"横田変電所","pmax_mw":4.5,"pg_mw":1.5,"cf":0.339,"fuel":"solar"}},{"type":"Feature","geometry":{"type":"Point","coordinates":[139.32726,35.84514]},"properties":{"name":"西武飯能変電所","pmax_mw":30.3,"pg_mw":10.3,"cf":0.339,"fuel":"unknown"}},{"type":"Feature","geometry":{"type":"Point","coordinates":[139.19379,36.39275]},"properties":{"name":"西大室町変電所","pmax_mw":3.4,"pg_mw":1.2,"cf":0.339,"fuel":"solar"}},{"type":"Feature","geometry":{"type":"Point","coordinates":[139.23439,36.40166]},"properties":{"name":"新里町野変電所","pmax_mw":4.2,"pg_mw":1.4,"cf":0.339,"fuel":"solar"}},{"type":"Feature","geometry":{"type":"Point","coordinates":[139.43769,36.63199]},"properties":{"name":"通洞変電所 66kV","pmax_mw":10.2,"pg_mw":3.5,"cf":0.339,"fuel":"hydro"}},{"type":"Feature","geometry":{"type":"Point","coordinates":[139.45963,35.78554]},"properties":{"name":"所沢変電所","pmax_mw":1.1,"pg_mw":0.4,"cf":0.339,"fuel":"solar"}},{"type":"Feature","geometry":{"type":"Point","coordinates":[139.07146,36.28393]},"properties":{"name":"森新田変電所","pmax_mw":1.8,"pg_mw":0.6,"cf":0.339,"fuel":"solar"}},{"type":"Feature","geometry":{"type":"Point","coordinates":[138.79371,36.07844]},"properties":{"name":"新羽変電所_2","pmax_mw":940.0,"pg_mw":318.2,"cf":0.339,"fuel":"hydro"}},{"type":"Feature","geometry":{"type":"Point","coordinates":[138.93041,36.25763]},"properties":{"name":"福島変電所","pmax_mw":2.2,"pg_mw":0.7,"cf":0.339,"fuel":"solar"}},{"type":"Feature","geometry":{"type":"Point","coordinates":[140.56997,35.84159]},"properties":{"name":"小見川変電所","pmax_mw":4.0,"pg_mw":1.4,"cf":0.339,"fuel":"solar"}},{"type":"Feature","geometry":{"type":"Point","coordinates":[140.60951,35.72403]},"properties":{"name":"干潟変電所","pmax_mw":1.9,"pg_mw":0.6,"cf":0.339,"fuel":"solar"}},{"type":"Feature","geometry":{"type":"Point","coordinates":[139.91073,35.93095]},"properties":{"name":"三ヶ尾変電所 500kV","pmax_mw":1.5,"pg_mw":0.5,"cf":0.339,"fuel":"solar"}},{"type":"Feature","geometry":{"type":"Point","coordinates":[140.46768,35.64678]},"properties":{"name":"松尾変電所","pmax_mw":11.6,"pg_mw":3.9,"cf":0.339,"fuel":"solar"}},{"type":"Feature","geometry":{"type":"Point","coordinates":[140.31293,35.66323]},"properties":{"name":"中央変電所","pmax_mw":5.8,"pg_mw":2.0,"cf":0.339,"fuel":"solar"}},{"type":"Feature","geometry":{"type":"Point","coordinates":[140.26555,35.71198]},"properties":{"name":"北総変電所 275kV","pmax_mw":2.9,"pg_mw":1.0,"cf":0.339,"fuel":"solar"}},{"type":"Feature","geometry":{"type":"Point","coordinates":[139.81255,36.53538]},"properties":{"name":"深津変電所","pmax_mw":2.0,"pg_mw":0.7,"cf":0.339,"fuel":"solar"}},{"type":"Feature","geometry":{"type":"Point","coordinates":[138.80805,36.91369]},"properties":{"name":"神立変電所_2","pmax_mw":50.0,"pg_mw":13.1,"cf":0.263,"fuel":"hydro"}},{"type":"Feature","geometry":{"type":"Point","coordinates":[140.5102,35.89144]},"properties":{"name":"佐原変電所","pmax_mw":14.9,"pg_mw":5.0,"cf":0.339,"fuel":"solar"}},{"type":"Feature","geometry":{"type":"Point","coordinates":[139.86285,35.97704]},"properties":{"name":"蕃昌変電所","pmax_mw":2.1,"pg_mw":0.7,"cf":0.339,"fuel":"solar"}},{"type":"Feature","geometry":{"type":"Point","coordinates":[139.93809,35.90854]},"properties":{"name":"運河変電所","pmax_mw":1.1,"pg_mw":0.4,"cf":0.339,"fuel":"solar"}},{"type":"Feature","geometry":{"type":"Point","coordinates":[140.44427,36.15582]},"properties":{"name":"上山変電所","pmax_mw":17.4,"pg_mw":5.9,"cf":0.339,"fuel":"solar"}},{"type":"Feature","geometry":{"type":"Point","coordinates":[140.16416,35.93192]},"properties":{"name":"北竜台変電所","pmax_mw":2.0,"pg_mw":0.7,"cf":0.339,"fuel":"solar"}},{"type":"Feature","geometry":{"type":"Point","coordinates":[139.30136,36.40491]},"properties":{"name":"相生変電所","pmax_mw":1.1,"pg_mw":0.4,"cf":0.339,"fuel":"solar"}},{"type":"Feature","geometry":{"type":"Point","coordinates":[139.06054,36.61375]},"properties":{"name":"橡久保変電所 154kV","pmax_mw":41.5,"pg_mw":14.0,"cf":0.339,"fuel":"hydro"}},{"type":"Feature","geometry":{"type":"Point","coordinates":[140.35777,35.29833]},"properties":{"name":"岬町変電所","pmax_mw":7.3,"pg_mw":2.5,"cf":0.339,"fuel":"solar"}},{"type":"Feature","geometry":{"type":"Point","coordinates":[138.81634,36.99174]},"properties":{"name":"南魚沼変電所","pmax_mw":60.0,"pg_mw":18.0,"cf":0.301,"fuel":"unknown"}},{"type":"Feature","geometry":{"type":"Point","coordinates":[140.5487,36.31032]},"properties":{"name":"大洗変電所","pmax_mw":4.9,"pg_mw":1.7,"cf":0.339,"fuel":"solar"}},{"type":"Feature","geometry":{"type":"Point","coordinates":[140.65663,35.91824]},"properties":{"name":"神栖変電所 275kV","pmax_mw":20.1,"pg_mw":6.8,"cf":0.339,"fuel":"biomass"}},{"type":"Feature","geometry":{"type":"Point","coordinates":[139.81113,36.43553]},"properties":{"name":"壬生変電所","pmax_mw":16.8,"pg_mw":5.7,"cf":0.339,"fuel":"solar"}},{"type":"Feature","geometry":{"type":"Point","coordinates":[139.79071,36.40538]},"properties":{"name":"総社町変電所","pmax_mw":20.9,"pg_mw":7.1,"cf":0.339,"fuel":"biomass"}},{"type":"Feature","geometry":{"type":"Point","coordinates":[139.70879,36.81086]},"properties":{"name":"立石変電所 154kV","pmax_mw":9.2,"pg_mw":3.1,"cf":0.339,"fuel":"hydro"}},{"type":"Feature","geometry":{"type":"Point","coordinates":[138.86355,35.25139]},"properties":{"name":"須山変電所","pmax_mw":1.4,"pg_mw":0.5,"cf":0.339,"fuel":"solar"}},{"type":"Feature","geometry":{"type":"Point","coordinates":[140.014,36.55855]},"properties":{"name":"下高根沢変電所","pmax_mw":13.0,"pg_mw":4.4,"cf":0.339,"fuel":"solar"}},{"type":"Feature","geometry":{"type":"Point","coordinates":[139.35288,36.54218]},"properties":{"name":"神戸変電所","pmax_mw":21.6,"pg_mw":7.3,"cf":0.339,"fuel":"hydro"}},{"type":"Feature","geometry":{"type":"Point","coordinates":[140.69495,35.90907]},"properties":{"name":"東和田変電所 275kV","pmax_mw":651.7,"pg_mw":220.6,"cf":0.339,"fuel":"oil"}},{"type":"Feature","geometry":{"type":"Point","coordinates":[140.44341,36.54742]},"properties":{"name":"宮の郷町変電所","pmax_mw":5.9,"pg_mw":2.0,"cf":0.339,"fuel":"biomass"}},{"type":"Feature","geometry":{"type":"Point","coordinates":[140.51878,36.46319]},"properties":{"name":"茨城変電所 275kV","pmax_mw":110.3,"pg_mw":37.3,"cf":0.339,"fuel":"gas"}},{"type":"Feature","geometry":{"type":"Point","coordinates":[140.55236,36.10334]},"properties":{"name":"大洋変電所","pmax_mw":34.1,"pg_mw":11.5,"cf":0.339,"fuel":"solar"}},{"type":"Feature","geometry":{"type":"Point","coordinates":[140.71674,36.79138]},"properties":{"name":"木皿変電所","pmax_mw":8.0,"pg_mw":2.7,"cf":0.339,"fuel":"hydro"}},{"type":"Feature","geometry":{"type":"Point","coordinates":[138.95922,35.61394]},"properties":{"name":"駒橋変電所","pmax_mw":22.1,"pg_mw":7.5,"cf":0.339,"fuel":"hydro"}},{"type":"Feature","geometry":{"type":"Point","coordinates":[139.10133,35.6191]},"properties":{"name":"八ツ沢変電所 77kV","pmax_mw":42.0,"pg_mw":14.2,"cf":0.339,"fuel":"hydro"}},{"type":"Feature","geometry":{"type":"Point","coordinates":[139.43346,36.00908]},"properties":{"name":"和志山変電所","pmax_mw":7.9,"pg_mw":2.7,"cf":0.339,"fuel":"solar"}},{"type":"Feature","geometry":{"type":"Point","coordinates":[139.06965,36.41582]},"properties":{"name":"南橘変電所","pmax_mw":10.0,"pg_mw":3.4,"cf":0.339,"fuel":"hydro"}},{"type":"Feature","geometry":{"type":"Point","coordinates":[139.0429,36.45022]},"properties":{"name":"田口発電所変電設備 66kV","pmax_mw":7.8,"pg_mw":2.6,"cf":0.339,"fuel":"hydro"}},{"type":"Feature","geometry":{"type":"Point","coordinates":[139.02988,36.47845]},"properties":{"name":"北橘町分郷八崎変電所 154kV","pmax_mw":76.8,"pg_mw":26.0,"cf":0.339,"fuel":"hydro"}},{"type":"Feature","geometry":{"type":"Point","coordinates":[138.98833,36.52326]},"properties":{"name":"金井変電所 154kV","pmax_mw":14.4,"pg_mw":4.9,"cf":0.339,"fuel":"hydro"}},{"type":"Feature","geometry":{"type":"Point","coordinates":[139.09059,36.65775]},"properties":{"name":"上久屋開閉所","pmax_mw":19.1,"pg_mw":6.5,"cf":0.339,"fuel":"hydro"}},{"type":"Feature","geometry":{"type":"Point","coordinates":[138.97919,36.71645]},"properties":{"name":"小松変電所 154kV","pmax_mw":13.3,"pg_mw":4.5,"cf":0.339,"fuel":"hydro"}},{"type":"Feature","geometry":{"type":"Point","coordinates":[139.22343,36.72853]},"properties":{"name":"摺淵変電所","pmax_mw":9.0,"pg_mw":3.0,"cf":0.339,"fuel":"hydro"}},{"type":"Feature","geometry":{"type":"Point","coordinates":[138.97219,36.52524]},"properties":{"name":"新渋川変電所 275kV","pmax_mw":13.6,"pg_mw":4.6,"cf":0.339,"fuel":"biomass"}},{"type":"Feature","geometry":{"type":"Point","coordinates":[138.59142,36.61347]},"properties":{"name":"草津変電所","pmax_mw":18.9,"pg_mw":6.4,"cf":0.339,"fuel":"hydro"}},{"type":"Feature","geometry":{"type":"Point","coordinates":[138.46627,36.05629]},"properties":{"name":"小海町変電所_2","pmax_mw":100.0,"pg_mw":0.0,"cf":0.0,"fuel":"hydro"}},{"type":"Feature","geometry":{"type":"Point","coordinates":[139.11243,36.12109]},"properties":{"name":"樋口変電所","pmax_mw":15.3,"pg_mw":5.2,"cf":0.339,"fuel":"hydro"}},{"type":"Feature","geometry":{"type":"Point","coordinates":[138.90717,35.70793]},"properties":{"name":"葛野川発電所屋外開閉設備","pmax_mw":1200.0,"pg_mw":406.2,"cf":0.339,"fuel":"hydro"}},{"type":"Feature","geometry":{"type":"Point","coordinates":[139.75577,35.52096]},"properties":{"name":"千鳥町変電所","pmax_mw":276.0,"pg_mw":93.4,"cf":0.339,"fuel":"gas"}},{"type":"Feature","geometry":{"type":"Point","coordinates":[140.783,35.74328]},"properties":{"name":"松岸変電所","pmax_mw":2.7,"pg_mw":0.9,"cf":0.339,"fuel":"solar"}},{"type":"Feature","geometry":{"type":"Point","coordinates":[140.66045,35.89492]},"properties":{"name":"神之池変電所 275kV","pmax_mw":12.8,"pg_mw":4.3,"cf":0.339,"fuel":"solar"}},{"type":"Feature","geometry":{"type":"Point","coordinates":[138.90593,35.9563]},"properties":{"name":"滝沢発電所変電設備","pmax_mw":16.3,"pg_mw":5.5,"cf":0.339,"fuel":"hydro"}},{"type":"Feature","geometry":{"type":"Point","coordinates":[138.92925,35.95247]},"properties":{"name":"楢平変電所","pmax_mw":67.5,"pg_mw":22.9,"cf":0.339,"fuel":"hydro"}},{"type":"Feature","geometry":{"type":"Point","coordinates":[139.05398,35.95997]},"properties":{"name":"浦山発電所変電設備","pmax_mw":5.0,"pg_mw":1.7,"cf":0.339,"fuel":"hydro"}},{"type":"Feature","geometry":{"type":"Point","coordinates":[139.07469,35.97074]},"properties":{"name":"昭電秩父変電所","pmax_mw":7.6,"pg_mw":2.6,"cf":0.339,"fuel":"hydro"}},{"type":"Feature","geometry":{"type":"Point","coordinates":[139.16895,36.11674]},"properties":{"name":"玉淀発電所 変電設備","pmax_mw":6.4,"pg_mw":2.2,"cf":0.339,"fuel":"hydro"}},{"type":"Feature","geometry":{"type":"Point","coordinates":[140.06921,36.71902]},"properties":{"name":"上川井変電所","pmax_mw":1.5,"pg_mw":0.5,"cf":0.339,"fuel":"solar"}},{"type":"Feature","geometry":{"type":"Point","coordinates":[140.29022,35.43783]},"properties":{"name":"高師変電所","pmax_mw":30.5,"pg_mw":10.3,"cf":0.339,"fuel":"unknown"}},{"type":"Feature","geometry":{"type":"Point","coordinates":[140.30623,35.16339]},"properties":{"name":"勝浦変電所","pmax_mw":54.7,"pg_mw":18.5,"cf":0.339,"fuel":"solar"}},{"type":"Feature","geometry":{"type":"Point","coordinates":[140.10051,35.54715]},"properties":{"name":"三井E&S受電所","pmax_mw":203.7,"pg_mw":69.0,"cf":0.339,"fuel":"gas"}},{"type":"Feature","geometry":{"type":"Point","coordinates":[140.16681,35.50561]},"properties":{"name":"うるいど南五丁目変電所 275kV","pmax_mw":11.3,"pg_mw":3.8,"cf":0.339,"fuel":"solar"}},{"type":"Feature","geometry":{"type":"Point","coordinates":[140.1662,35.50168]},"properties":{"name":"潤井戸変電所","pmax_mw":16.3,"pg_mw":5.5,"cf":0.339,"fuel":"solar"}},{"type":"Feature","geometry":{"type":"Point","coordinates":[138.49759,35.26165]},"properties":{"name":"佐野川変電所","pmax_mw":55.8,"pg_mw":18.9,"cf":0.339,"fuel":"hydro"}},{"type":"Feature","geometry":{"type":"Point","coordinates":[139.31335,36.04294]},"properties":{"name":"嵐山変電所","pmax_mw":1.4,"pg_mw":0.5,"cf":0.339,"fuel":"solar"}},{"type":"Feature","geometry":{"type":"Point","coordinates":[140.71126,36.70565]},"properties":{"name":"高萩変電所","pmax_mw":25.0,"pg_mw":8.5,"cf":0.339,"fuel":"solar"}},{"type":"Feature","geometry":{"type":"Point","coordinates":[139.83269,36.10663]},"properties":{"name":"新古河変電所 500kV","pmax_mw":1.5,"pg_mw":0.5,"cf":0.339,"fuel":"solar"}},{"type":"Feature","geometry":{"type":"Point","coordinates":[140.24181,35.7092]},"properties":{"name":"佐倉変電所","pmax_mw":1.1,"pg_mw":0.4,"cf":0.339,"fuel":"solar"}},{"type":"Feature","geometry":{"type":"Point","coordinates":[140.31202,35.66652]},"properties":{"name":"富山変電所","pmax_mw":3.7,"pg_mw":1.3,"cf":0.339,"fuel":"solar"}},{"type":"Feature","geometry":{"type":"Point","coordinates":[140.07288,35.29878]},"properties":{"name":"久留里変電所","pmax_mw":5.9,"pg_mw":2.0,"cf":0.339,"fuel":"solar"}},{"type":"Feature","geometry":{"type":"Point","coordinates":[139.20796,36.11352]},"properties":{"name":"鉢形変電所","pmax_mw":1.5,"pg_mw":0.5,"cf":0.339,"fuel":"solar"}},{"type":"Feature","geometry":{"type":"Point","coordinates":[139.33349,36.1217]},"properties":{"name":"千代変電所","pmax_mw":1.2,"pg_mw":0.4,"cf":0.339,"fuel":"solar"}},{"type":"Feature","geometry":{"type":"Point","coordinates":[139.24997,36.0636]},"properties":{"name":"小川変電所","pmax_mw":1.2,"pg_mw":0.4,"cf":0.339,"fuel":"solar"}},{"type":"Feature","geometry":{"type":"Point","coordinates":[139.38301,36.04637]},"properties":{"name":"東松山変電所","pmax_mw":6.8,"pg_mw":2.3,"cf":0.339,"fuel":"solar"}},{"type":"Feature","geometry":{"type":"Point","coordinates":[140.46571,35.63695]},"properties":{"name":"松尾変電所","pmax_mw":5.7,"pg_mw":1.9,"cf":0.339,"fuel":"solar"}},{"type":"Feature","geometry":{"type":"Point","coordinates":[139.19664,36.10076]},"properties":{"name":"鉢形変電所","pmax_mw":1.2,"pg_mw":0.4,"cf":0.339,"fuel":"solar"}},{"type":"Feature","geometry":{"type":"Point","coordinates":[139.83704,35.32585]},"properties":{"name":"富津変電所 500kV","pmax_mw":1.3,"pg_mw":0.4,"cf":0.339,"fuel":"solar"}},{"type":"Feature","geometry":{"type":"Point","coordinates":[139.78611,36.11042]},"properties":{"name":"長井戸沼排水機場特高受電設備","pmax_mw":1.9,"pg_mw":0.6,"cf":0.339,"fuel":"solar"}},{"type":"Feature","geometry":{"type":"Point","coordinates":[140.18191,35.60373]},"properties":{"name":"坂月変電所 275kV","pmax_mw":1.6,"pg_mw":0.5,"cf":0.339,"fuel":"solar"}},{"type":"Feature","geometry":{"type":"Point","coordinates":[139.74345,36.10363]},"properties":{"name":"五霞変電所","pmax_mw":1.2,"pg_mw":0.4,"cf":0.339,"fuel":"solar"}},{"type":"Feature","geometry":{"type":"Point","coordinates":[140.37501,35.55652]},"properties":{"name":"東金変電所","pmax_mw":3.9,"pg_mw":1.3,"cf":0.339,"fuel":"solar"}},{"type":"Feature","geometry":{"type":"Point","coordinates":[140.3023,36.08817]},"properties":{"name":"出島変電所","pmax_mw":18.9,"pg_mw":6.4,"cf":0.339,"fuel":"solar"}},{"type":"Feature","geometry":{"type":"Point","coordinates":[140.23203,35.51044]},"properties":{"name":"大木戸変電所","pmax_mw":1.7,"pg_mw":0.6,"cf":0.339,"fuel":"solar"}},{"type":"Feature","geometry":{"type":"Point","coordinates":[139.87185,35.93739]},"properties":{"name":"野田変電所","pmax_mw":1.1,"pg_mw":0.4,"cf":0.339,"fuel":"solar"}},{"type":"Feature","geometry":{"type":"Point","coordinates":[140.01382,35.46161]},"properties":{"name":"長浦変電所","pmax_mw":1.2,"pg_mw":0.4,"cf":0.339,"fuel":"solar"}},{"type":"Feature","geometry":{"type":"Point","coordinates":[138.95501,35.22677]},"properties":{"name":"北駿変電所","pmax_mw":50.0,"pg_mw":16.9,"cf":0.339,"fuel":"hydro"}},{"type":"Feature","geometry":{"type":"Point","coordinates":[140.0729,36.13419]},"properties":{"name":"大穂変電所","pmax_mw":1.7,"pg_mw":0.6,"cf":0.339,"fuel":"solar"}},{"type":"Feature","geometry":{"type":"Point","coordinates":[139.93098,35.40898]},"properties":{"name":"木更津変電所","pmax_mw":1.1,"pg_mw":0.4,"cf":0.339,"fuel":"solar"}},{"type":"Feature","geometry":{"type":"Point","coordinates":[139.26814,35.30491]},"properties":{"name":"国府新宿変電所","pmax_mw":9.9,"pg_mw":3.4,"cf":0.339,"fuel":"solar"}},{"type":"Feature","geometry":{"type":"Point","coordinates":[140.25032,35.97283]},"properties":{"name":"筑波南変電所 275kV","pmax_mw":1.6,"pg_mw":0.5,"cf":0.339,"fuel":"solar"}},{"type":"Feature","geometry":{"type":"Point","coordinates":[140.35474,35.20618]},"properties":{"name":"御宿変電所","pmax_mw":1.2,"pg_mw":0.4,"cf":0.339,"fuel":"solar"}},{"type":"Feature","geometry":{"type":"Point","coordinates":[140.6112,35.97929]},"properties":{"name":"爪木変電所","pmax_mw":13.1,"pg_mw":4.4,"cf":0.339,"fuel":"solar"}},{"type":"Feature","geometry":{"type":"Point","coordinates":[140.50232,36.15938]},"properties":{"name":"鉾田変電所","pmax_mw":13.9,"pg_mw":4.7,"cf":0.339,"fuel":"solar"}},{"type":"Feature","geometry":{"type":"Point","coordinates":[140.31801,35.9551]},"properties":{"name":"江戸変電所","pmax_mw":7.9,"pg_mw":2.7,"cf":0.339,"fuel":"solar"}},{"type":"Feature","geometry":{"type":"Point","coordinates":[139.90554,35.89573]},"properties":{"name":"江戸川台西四丁目変電所","pmax_mw":1.2,"pg_mw":0.4,"cf":0.339,"fuel":"solar"}},{"type":"Feature","geometry":{"type":"Point","coordinates":[140.43535,35.60855]},"properties":{"name":"成東変電所","pmax_mw":1.5,"pg_mw":0.5,"cf":0.339,"fuel":"solar"}},{"type":"Feature","geometry":{"type":"Point","coordinates":[139.96675,36.74642]},"properties":{"name":"喜連川変電所 154kV","pmax_mw":1.6,"pg_mw":0.5,"cf":0.339,"fuel":"solar"}},{"type":"Feature","geometry":{"type":"Point","coordinates":[139.99269,36.73527]},"properties":{"name":"小入変電所","pmax_mw":2.6,"pg_mw":0.9,"cf":0.339,"fuel":"solar"}},{"type":"Feature","geometry":{"type":"Point","coordinates":[139.97748,36.77283]},"properties":{"name":"安沢変電所","pmax_mw":41.6,"pg_mw":14.1,"cf":0.339,"fuel":"solar"}},{"type":"Feature","geometry":{"type":"Point","coordinates":[139.82257,36.58162]},"properties":{"name":"西宇都宮変電所 154kV","pmax_mw":7.3,"pg_mw":2.5,"cf":0.339,"fuel":"solar"}},{"type":"Feature","geometry":{"type":"Point","coordinates":[139.70145,36.41352]},"properties":{"name":"株式会社吉野工業所 栃木工場変電所","pmax_mw":3.8,"pg_mw":1.3,"cf":0.339,"fuel":"solar"}},{"type":"Feature","geometry":{"type":"Point","coordinates":[139.74048,36.4172]},"properties":{"name":"木野地町変電所","pmax_mw":1.5,"pg_mw":0.5,"cf":0.339,"fuel":"solar"}},{"type":"Feature","geometry":{"type":"Point","coordinates":[139.68921,36.3205]},"properties":{"name":"静和変電所","pmax_mw":2.5,"pg_mw":0.8,"cf":0.339,"fuel":"solar"}},{"type":"Feature","geometry":{"type":"Point","coordinates":[139.66568,36.27753]},"properties":{"name":"赤麻変電所 154kV","pmax_mw":2.9,"pg_mw":1.0,"cf":0.339,"fuel":"solar"}},{"type":"Feature","geometry":{"type":"Point","coordinates":[139.64673,36.26684]},"properties":{"name":"藤岡変電所","pmax_mw":6.0,"pg_mw":2.0,"cf":0.339,"fuel":"solar"}},{"type":"Feature","geometry":{"type":"Point","coordinates":[139.49715,36.3152]},"properties":{"name":"足利変電所","pmax_mw":5.0,"pg_mw":1.7,"cf":0.339,"fuel":"solar"}},{"type":"Feature","geometry":{"type":"Point","coordinates":[139.39544,36.3601]},"properties":{"name":"小俣変電所","pmax_mw":2.5,"pg_mw":0.8,"cf":0.339,"fuel":"solar"}},{"type":"Feature","geometry":{"type":"Point","coordinates":[140.0321,36.34542]},"properties":{"name":"協和変電所 500kV","pmax_mw":9.1,"pg_mw":3.1,"cf":0.339,"fuel":"solar"}},{"type":"Feature","geometry":{"type":"Point","coordinates":[140.08116,36.28861]},"properties":{"name":"真壁変電所","pmax_mw":8.0,"pg_mw":2.7,"cf":0.339,"fuel":"solar"}},{"type":"Feature","geometry":{"type":"Point","coordinates":[140.29453,35.5216]},"properties":{"name":"外房変電所 154kV","pmax_mw":1.1,"pg_mw":0.4,"cf":0.339,"fuel":"solar"}},{"type":"Feature","geometry":{"type":"Point","coordinates":[140.34524,36.16761]},"properties":{"name":"玉里変電所","pmax_mw":8.1,"pg_mw":2.7,"cf":0.339,"fuel":"solar"}},{"type":"Feature","geometry":{"type":"Point","coordinates":[140.36501,36.23598]},"properties":{"name":"美野里変電所","pmax_mw":3.3,"pg_mw":1.1,"cf":0.339,"fuel":"solar"}},{"type":"Feature","geometry":{"type":"Point","coordinates":[140.0736,35.5386]},"properties":{"name":"五井海岸変電所 275kV","pmax_mw":400.0,"pg_mw":135.4,"cf":0.339,"fuel":"gas"}},{"type":"Feature","geometry":{"type":"Point","coordinates":[140.30442,35.42009]},"properties":{"name":"ジャパンディスプレイ茂原工場 変電設備","pmax_mw":1.7,"pg_mw":0.6,"cf":0.339,"fuel":"solar"}},{"type":"Feature","geometry":{"type":"Point","coordinates":[139.85905,36.43784]},"properties":{"name":"石橋変電所","pmax_mw":1.8,"pg_mw":0.6,"cf":0.339,"fuel":"solar"}},{"type":"Feature","geometry":{"type":"Point","coordinates":[140.40704,35.6086]},"properties":{"name":"成東変電所","pmax_mw":1.8,"pg_mw":0.6,"cf":0.339,"fuel":"solar"}},{"type":"Feature","geometry":{"type":"Point","coordinates":[140.05172,36.67461]},"properties":{"name":"鴻野山変電所","pmax_mw":2.8,"pg_mw":0.9,"cf":0.339,"fuel":"solar"}},{"type":"Feature","geometry":{"type":"Point","coordinates":[140.47873,36.34366]},"properties":{"name":"千波変電所","pmax_mw":1.1,"pg_mw":0.4,"cf":0.339,"fuel":"solar"}},{"type":"Feature","geometry":{"type":"Point","coordinates":[140.21411,35.9886]},"properties":{"name":"福田変電所 275kV","pmax_mw":2.6,"pg_mw":0.9,"cf":0.339,"fuel":"solar"}},{"type":"Feature","geometry":{"type":"Point","coordinates":[140.40152,35.93843]},"properties":{"name":"幸田変電所","pmax_mw":5.6,"pg_mw":1.9,"cf":0.339,"fuel":"solar"}},{"type":"Feature","geometry":{"type":"Point","coordinates":[140.58168,35.71452]},"properties":{"name":"干潟変電所","pmax_mw":1.9,"pg_mw":0.6,"cf":0.339,"fuel":"solar"}},{"type":"Feature","geometry":{"type":"Point","coordinates":[140.38794,35.25172]},"properties":{"name":"大原変電所","pmax_mw":5.7,"pg_mw":1.9,"cf":0.339,"fuel":"solar"}},{"type":"Feature","geometry":{"type":"Point","coordinates":[140.35937,35.38387]},"properties":{"name":"一宮変電所","pmax_mw":3.0,"pg_mw":1.0,"cf":0.339,"fuel":"solar"}},{"type":"Feature","geometry":{"type":"Point","coordinates":[140.66532,35.95242]},"properties":{"name":"平井変電所","pmax_mw":6.2,"pg_mw":2.1,"cf":0.339,"fuel":"solar"}},{"type":"Feature","geometry":{"type":"Point","coordinates":[140.24197,35.92999]},"properties":{"name":"向陽台四丁目変電所","pmax_mw":2.4,"pg_mw":0.8,"cf":0.339,"fuel":"solar"}},{"type":"Feature","geometry":{"type":"Point","coordinates":[140.20443,36.53968]},"properties":{"name":"茂木変電所","pmax_mw":1.1,"pg_mw":0.4,"cf":0.339,"fuel":"solar"}},{"type":"Feature","geometry":{"type":"Point","coordinates":[140.50668,36.02677]},"properties":{"name":"麻生変電所","pmax_mw":15.2,"pg_mw":5.1,"cf":0.339,"fuel":"solar"}},{"type":"Feature","geometry":{"type":"Point","coordinates":[139.03789,36.22921]},"properties":{"name":"鮎川変電所","pmax_mw":1.2,"pg_mw":0.4,"cf":0.339,"fuel":"solar"}},{"type":"Feature","geometry":{"type":"Point","coordinates":[139.3694,36.2653]},"properties":{"name":"高林変電所","pmax_mw":1.2,"pg_mw":0.4,"cf":0.339,"fuel":"solar"}},{"type":"Feature","geometry":{"type":"Point","coordinates":[139.32912,36.40867]},"properties":{"name":"元宿変電所","pmax_mw":2.4,"pg_mw":0.8,"cf":0.339,"fuel":"solar"}},{"type":"Feature","geometry":{"type":"Point","coordinates":[140.33609,36.27959]},"properties":{"name":"岩間変電所","pmax_mw":4.3,"pg_mw":1.5,"cf":0.339,"fuel":"solar"}},{"type":"Feature","geometry":{"type":"Point","coordinates":[140.26252,36.14186]},"properties":{"name":"三村変電所_2","pmax_mw":1.9,"pg_mw":0.6,"cf":0.339,"fuel":"solar"}},{"type":"Feature","geometry":{"type":"Point","coordinates":[140.19357,36.13746]},"properties":{"name":"中都町四丁目変電所_2","pmax_mw":2.2,"pg_mw":0.7,"cf":0.339,"fuel":"solar"}},{"type":"Feature","geometry":{"type":"Point","coordinates":[140.16911,36.11948]},"properties":{"name":"西土浦変電所 154kV","pmax_mw":1.1,"pg_mw":0.4,"cf":0.339,"fuel":"solar"}},{"type":"Feature","geometry":{"type":"Point","coordinates":[140.55803,36.53257]},"properties":{"name":"真弓変電所","pmax_mw":1.8,"pg_mw":0.6,"cf":0.339,"fuel":"solar"}},{"type":"Feature","geometry":{"type":"Point","coordinates":[140.01838,36.11431]},"properties":{"name":"緑ヶ原一丁目変電所 500kV","pmax_mw":1.9,"pg_mw":0.6,"cf":0.339,"fuel":"solar"}},{"type":"Feature","geometry":{"type":"Point","coordinates":[138.61395,35.12237]},"properties":{"name":"蒲原一丁目変電所 154kV","pmax_mw":49.5,"pg_mw":16.8,"cf":0.339,"fuel":"hydro"}},{"type":"Feature","geometry":{"type":"Point","coordinates":[139.15792,36.40952]},"properties":{"name":"千貫沼変電所","pmax_mw":1.2,"pg_mw":0.4,"cf":0.339,"fuel":"solar"}},{"type":"Feature","geometry":{"type":"Point","coordinates":[139.1572,36.41093]},"properties":{"name":"大胡変電所 66kV","pmax_mw":1.4,"pg_mw":0.5,"cf":0.339,"fuel":"solar"}},{"type":"Feature","geometry":{"type":"Point","coordinates":[139.71235,35.21525]},"properties":{"name":"久里浜八丁目変電所 275kV","pmax_mw":1300.0,"pg_mw":440.1,"cf":0.339,"fuel":"coal"}},{"type":"Feature","geometry":{"type":"Point","coordinates":[139.43734,36.30361]},"properties":{"name":"新宿町変電所","pmax_mw":1.5,"pg_mw":0.5,"cf":0.339,"fuel":"solar"}},{"type":"Feature","geometry":{"type":"Point","coordinates":[139.43552,36.26559]},"properties":{"name":"邑楽開閉所","pmax_mw":1.7,"pg_mw":0.6,"cf":0.339,"fuel":"solar"}},{"type":"Feature","geometry":{"type":"Point","coordinates":[138.51008,35.23888]},"properties":{"name":"富士川第一変電所 77kV","pmax_mw":42.0,"pg_mw":14.2,"cf":0.339,"fuel":"hydro"}},{"type":"Feature","geometry":{"type":"Point","coordinates":[140.02061,36.11634]},"properties":{"name":"緑ヶ原一丁目変電所_2","pmax_mw":2.0,"pg_mw":0.7,"cf":0.339,"fuel":"solar"}},{"type":"Feature","geometry":{"type":"Point","coordinates":[140.06746,35.53731]},"properties":{"name":"五井南海岸変電所","pmax_mw":107.7,"pg_mw":36.5,"cf":0.339,"fuel":"gas"}},{"type":"Feature","geometry":{"type":"Point","coordinates":[138.65717,37.01658]},"properties":{"name":"tokyo_sub_1843 154kV","pmax_mw":127.0,"pg_mw":43.0,"cf":0.339,"fuel":"hydro"}},{"type":"Feature","geometry":{"type":"Point","coordinates":[139.15625,35.34056]},"properties":{"name":"金子変電所","pmax_mw":2.1,"pg_mw":0.7,"cf":0.339,"fuel":"solar"}}]}