{"type": "FeatureCollection", "_meta": {"built": "2026-09-02", "sources": {"N03": "国土数値情報 行政区域データ N03-2024 (国土交通省, nlftp.mlit.go.jp/ksj/gml/data/N03/N03-2024/) 長野20・新潟15", "W05": "国土数値情報 河川データ W05-08 静岡県 (国土交通省) — 富士川主流をSHPから抽出", "chuden_50hz": "中部電力ミライズ『お届けする電気の周波数』https://miraiz.chuden.co.jp/business/electric/contract/electric/payment/frequency/ (2026-09-02確認) — 長野県50Hz混合地区: 栄村・野沢温泉村・飯山市・小諸市・佐久市・松本市・安曇野市穂高町・大町市平区・小谷村", "tepco_area": "東京電力パワーグリッド供給区域=関東1都6県+山梨全域+静岡県富士川以東(同社公表・2026-09-02確認)。長野県は供給区域外(送電設備のみ実在: 碓氷線・安曇幹線)", "rikuden": "北陸電力送配電『供給エリア、設備概要』(rikuden.co.jp/nw_company/keitouzu.html, 2026-09-02確認) — 供給エリアに新潟県の記載なし(富山・石川・福井(一部除く)・岐阜の一部)。糸魚川市西部集落への60Hz供給は二次情報のみ"}, "approximations": ["『一部』指定の松本市・安曇野市(穂高町)・大町市(平区)・佐久市は市全域ポリゴンで近似(保護側に安全=フリップ抑制)", "長野secondary群(軽井沢町・御代田町ほか佐久地域)は一次情報未確認のため保護(ガード維持)扱い — 一次確認が取れたら見直す", "新潟は妙高市・糸魚川市の市全域を保護(旧妙高高原町・旧青海町の旧町界データが未整備のため保守的近似)", "富士川より北(山梨県境以北の静岡県域)は最北河道点の経度で近似"], "semantics": "role=protected_*: この内側では周波数跨ぎフリップを行わない(ガード維持)。boundary_river: 静岡の50/60Hz境界線(東=tokyo/西=chubu)。"}, "features": [{"type": "Feature", "properties": {"pref": "長野県", "role": "protected_50hz_primary", "munis": ["飯山市", "栄村", "野沢温泉村", "小諸市", "佐久市", "松本市", "安曇野市", "大町市", "小谷村"], "source": "chuden_50hz + N03"}, "geometry": {"type": "MultiPolygon", "coordinates": [[[[138.48954409, 36.15693131], [138.48803856, 36.16154713], [138.48829384, 36.16414186], [138.48993717, 36.16458492], [138.49239355, 36.1634352], [138.49347051, 36.15953575], [138.4967955, 36.15719575], [138.49436856, 36.15592686], [138.48954409, 36.15693131]]], [[[137.63511661, 36.02630613], [137.62216492, 36.02442667], [137.61965128, 36.01941889], [137.6128285, 36.01842028], [137.60719239, 36.02534584], [137.59908572, 36.02653108], [137.60019766, 36.02932608], [137.59785936, 36.04240744], [137.60131995, 36.04683189], [137.60542328, 36.0486858], [137.60697136, 36.05583105], [137.61372333, 36.05961689], [137.61459973, 36.06312911], [137.61090944, 36.06757133], [137.61151058, 36.0732105], [137.61395005, 36.07638717], [137.60964311, 36.07807213], [137.59681445, 36.07584103], [137.59279031, 36.08094464], [137.5734275, 36.08768264], [137.56777309, 36.09686653], [137.56296253, 36.09841651], [137.56174503, 36.10205984], [137.55488447, 36.10553205], [137.55018003, 36.11259813], [137.55203922, 36.11671259], [137.55708481, 36.11805786], [137.55690403, 36.12160869], [137.56055134, 36.13024175], [137.55615419, 36.13444639], [137.55472144, 36.14019897], [137.55823616, 36.14157841], [137.5595562, 36.1443912], [137.56795956, 36.14766869], [137.56791711, 36.15361592], [137.57051547, 36.1556162], [137.59084248, 36.16379956], [137.59192722, 36.16934067], [137.59506365, 36.17204817], [137.59115674, 36.17812344], [137.59244455, 36.18282567], [137.59093348, 36.18593286], [137.59508878, 36.1907398], [137.59439322, 36.19198675], [137.59090739, 36.19103925], [137.5862027, 36.19275313], [137.57856997, 36.19753869], [137.57783139, 36.20176759], [137.57478367, 36.20472814], [137.57338397, 36.21074731], [137.57605428, 36.21432841], [137.57305764, 36.2186548], [137.57469737, 36.2202362], [137.57785681, 36.21908675], [137.58302538, 36.22039647], [137.58453652, 36.22292536], [137.58319711, 36.22691005], [137.58752431, 36.22689647], [137.5896793, 36.22860341], [137.59134294, 36.2343545], [137.59548322, 36.23713117], [137.59635022, 36.24297617], [137.60592328, 36.24878672], [137.60699856, 36.25311561], [137.6126208, 36.25741228], [137.61473944, 36.264777], [137.62092445, 36.26667505], [137.62626445, 36.27199008], [137.62904309, 36.27862592], [137.64782061, 36.28905175], [137.64685872, 36.29645233], [137.65305684, 36.30467456], [137.64883185, 36.30910708], [137.64973691, 36.31554347], [137.65143917, 36.31708597], [137.65063614, 36.32080961], [137.65243392, 36.32200933], [137.65067425, 36.32739795], [137.64636567, 36.33023184], [137.64542241, 36.34171544], [137.63547051, 36.34254987], [137.62444975, 36.35475205], [137.61799817, 36.36512595], [137.60771153, 36.36682228], [137.59994294, 36.37021503], [137.59406711, 36.36874114], [137.58708655, 36.37196417], [137.58609992, 36.37667914], [137.58750384, 36.38128608], [137.58715664, 36.38959192], [137.59240747, 36.38967497], [137.59382195, 36.3934922], [137.59667667, 36.39437695], [137.60536117, 36.40253833], [137.60380508, 36.41067664], [137.60740594, 36.41299056], [137.60919956, 36.41790584], [137.60807903, 36.41941636], [137.61740263, 36.41860087], [137.62299934, 36.42381423], [137.63294878, 36.4248862], [137.63654492, 36.42841205], [137.63991222, 36.44582977], [137.64320639, 36.44866453], [137.64529336, 36.45453033], [137.64946614, 36.45483536], [137.65179394, 36.45829064], [137.65541005, 36.45917231], [137.65468536, 36.46443367], [137.65671761, 36.47022311], [137.65082012, 36.47981556], [137.6520007, 36.48820025], [137.65764964, 36.49310859], [137.66682075, 36.4938158], [137.66693691, 36.5062238], [137.66874555, 36.50946131], [137.6755117, 36.51139159], [137.67735475, 36.51438603], [137.6831828, 36.51268131], [137.69010645, 36.51373603], [137.69429616, 36.51068244], [137.69698425, 36.51460547], [137.70544039, 36.51782047], [137.7027518, 36.52469572], [137.71055328, 36.53574205], [137.69693131, 36.53768789], [137.68731156, 36.53622344], [137.68459764, 36.53780733], [137.68503489, 36.54436397], [137.68953772, 36.55379425], [137.68773776, 36.5620745], [137.69388725, 36.5690595], [137.701762, 36.57095144], [137.71320597, 36.57708005], [137.72430769, 36.58649061], [137.733863, 36.58808644], [137.74764134, 36.58682256], [137.75103633, 36.58849867], [137.75293691, 36.59476672], [137.74500508, 36.60990423], [137.74424542, 36.61750922], [137.74667881, 36.62447284], [137.75180856, 36.62710422], [137.75255667, 36.63504617], [137.7546217, 36.63911923], [137.75388922, 36.64127311], [137.75647263, 36.65205172], [137.75345409, 36.65776811], [137.75834964, 36.660077], [137.76060051, 36.66458505], [137.76264828, 36.66492839], [137.76593742, 36.66265311], [137.766956, 36.65960172], [137.77126209, 36.65667617], [137.78119817, 36.655647], [137.79339448, 36.65126367], [137.79820309, 36.65204728], [137.79935973, 36.64906756], [137.80433664, 36.64616141], [137.80387438, 36.64214892], [137.81059739, 36.63732559], [137.81700153, 36.63637364], [137.82048261, 36.63265697], [137.819552, 36.62460059], [137.82396364, 36.62381141], [137.82172917, 36.61791086], [137.82322859, 36.61410392], [137.83410717, 36.61425364], [137.83478136, 36.61920808], [137.83708389, 36.62192447], [137.85198134, 36.62164447], [137.85691883, 36.62345503], [137.85971686, 36.62136141], [137.86785767, 36.62030225], [137.86612856, 36.62776864], [137.86703386, 36.63265808], [137.87424051, 36.63317336], [137.87486523, 36.63491503], [137.882758, 36.63931559], [137.88822217, 36.63875339], [137.88976051, 36.64102922], [137.89622353, 36.64024978], [137.8978127, 36.64233033], [137.89734745, 36.64495061], [137.90944078, 36.64901811], [137.91357406, 36.64051425], [137.92060236, 36.63617036], [137.91365981, 36.62392259], [137.91438672, 36.61858675], [137.92073861, 36.61517092], [137.91921, 36.61349731], [137.92793772, 36.60699539], [137.92647047, 36.60396233], [137.92792128, 36.59965344], [137.94176872, 36.59478208], [137.93881233, 36.5914418], [137.93951897, 36.58709513], [137.93563311, 36.58375208], [137.9357492, 36.57939292], [137.93248222, 36.57641431], [137.9356283, 36.57297072], [137.93180358, 36.57190597], [137.92903105, 36.56545572], [137.92609384, 36.5651735], [137.92656406, 36.55873184], [137.92017489, 36.55486322], [137.91765927, 36.54998239], [137.91742258, 36.54422489], [137.91915338, 36.54303353], [137.91712562, 36.54006908], [137.919692, 36.54055825], [137.91930864, 36.53693825], [137.9208017, 36.53801269], [137.92129586, 36.53632547], [137.92518336, 36.53703797], [137.92334109, 36.53110213], [137.92586776, 36.53117439], [137.92692355, 36.52552605], [137.93118022, 36.52468439], [137.92999131, 36.52179995], [137.93354462, 36.5179558], [137.93557988, 36.51860997], [137.93986652, 36.51670636], [137.940801, 36.5189322], [137.94962214, 36.52393108], [137.95312353, 36.52350636], [137.95632575, 36.52718886], [137.95783992, 36.52699275], [137.95686936, 36.52523247], [137.9579702, 36.52329887], [137.96667348, 36.51692], [137.96657345, 36.51344167], [137.96123842, 36.50891947], [137.96407092, 36.50669003], [137.96352283, 36.50530392], [137.95659311, 36.50124225], [137.94984172, 36.50144808], [137.95489058, 36.4954828], [137.95763219, 36.48833839], [137.95654384, 36.48529644], [137.95322105, 36.48497922], [137.95117358, 36.48796644], [137.94693136, 36.48937561], [137.93906942, 36.48794308], [137.93702136, 36.48633141], [137.93916772, 36.48103061], [137.93679713, 36.47785644], [137.92721322, 36.47116339], [137.92196489, 36.46985339], [137.92044739, 36.4663312], [137.92070739, 36.46942089], [137.91818603, 36.47353477], [137.91177464, 36.47538422], [137.90830353, 36.47418728], [137.89811436, 36.47578669], [137.89395158, 36.47334031], [137.88713825, 36.47431892], [137.88903681, 36.46063453], [137.89175737, 36.45712953], [137.893769, 36.44893677], [137.88214817, 36.44578233], [137.88274981, 36.44377705], [137.8797073, 36.44258539], [137.88136314, 36.43900928], [137.87661231, 36.4390018], [137.87472261, 36.44309344], [137.87174008, 36.44024733], [137.86965095, 36.44099705], [137.85646056, 36.43718192], [137.85634358, 36.43904878], [137.84873772, 36.44043051], [137.8442607, 36.44305611], [137.84411678, 36.44585547], [137.84279669, 36.44591636], [137.83511852, 36.44458736], [137.83077411, 36.44571156], [137.81977438, 36.44157131], [137.81655056, 36.4465335], [137.81644722, 36.45192044], [137.81398864, 36.45272322], [137.8111717, 36.44964072], [137.80587197, 36.44875659], [137.80225864, 36.44263356], [137.80194114, 36.44082939], [137.80848219, 36.438508], [137.81009608, 36.43482133], [137.80782025, 36.43214997], [137.8071963, 36.42371969], [137.80356492, 36.41989584], [137.79559328, 36.41953614], [137.79291664, 36.42127059], [137.78764053, 36.41677589], [137.78209025, 36.41486813], [137.77042864, 36.41582539], [137.76688584, 36.41181041], [137.757557, 36.41203739], [137.75387672, 36.41071239], [137.75329058, 36.40407825], [137.76226772, 36.39559905], [137.77046128, 36.39182125], [137.77721489, 36.39773956], [137.78508458, 36.3965598], [137.79061039, 36.39209675], [137.79518567, 36.39417589], [137.80703533, 36.39331392], [137.81003533, 36.39487308], [137.81590725, 36.39185308], [137.82312086, 36.39231195], [137.82531472, 36.3911625], [137.82732747, 36.38439472], [137.83106606, 36.3809775], [137.85342747, 36.39378633], [137.855063, 36.391353], [137.85690244, 36.39270439], [137.86461353, 36.386328], [137.86737241, 36.38656633], [137.87227655, 36.3788605], [137.87647486, 36.37758023], [137.88836036, 36.36387384], [137.89601148, 36.36672661], [137.89597674, 36.36805551], [137.90661591, 36.37005217], [137.90835759, 36.36710495], [137.91196981, 36.368238], [137.90857674, 36.37040995], [137.90896231, 36.37278467], [137.90576678, 36.37604022], [137.90434761, 36.37984272], [137.90531569, 36.38407939], [137.90153462, 36.3902388], [137.90372406, 36.39519603], [137.90978572, 36.39264687], [137.91054403, 36.38968241], [137.91261708, 36.3894102], [137.91555348, 36.39231769], [137.91048128, 36.3979802], [137.90977326, 36.40274603], [137.91288686, 36.40693213], [137.91837547, 36.40937711], [137.91655134, 36.41142489], [137.9178955, 36.41202933], [137.92543992, 36.41156489], [137.92161186, 36.40930631], [137.92129492, 36.40690214], [137.92997628, 36.40108936], [137.92612625, 36.39308186], [137.93012872, 36.38627439], [137.93039481, 36.38139328], [137.93318647, 36.38162467], [137.9353973, 36.38519467], [137.94300425, 36.38654939], [137.94650922, 36.3835105], [137.94999367, 36.38411495], [137.95755674, 36.39263133], [137.95740759, 36.39496828], [137.95999703, 36.39563939], [137.96268594, 36.39962523], [137.97319956, 36.40450105], [137.97487567, 36.40355356], [137.97431314, 36.39868636], [137.97955949, 36.39560192], [137.9819128, 36.39047413], [137.9844128, 36.38833167], [137.9902775, 36.38754944], [137.99150219, 36.37673641], [137.9964991, 36.37683059], [137.99681577, 36.37341225], [137.99922105, 36.37113559], [138.00766297, 36.37161141], [138.00991547, 36.36764839], [138.01376852, 36.36902978], [138.01423409, 36.37249505], [138.01997659, 36.37574117], [138.02632409, 36.3746845], [138.03376102, 36.37868561], [138.03698131, 36.37711533], [138.04767545, 36.3767912], [138.05166795, 36.3794412], [138.06148737, 36.37547814], [138.06329319, 36.37274539], [138.06775125, 36.37576511], [138.07189345, 36.37065456], [138.07919956, 36.3721115], [138.08001095, 36.370939], [138.07614759, 36.36707844], [138.07800477, 36.36087987], [138.07190783, 36.35452817], [138.06957728, 36.35009872], [138.0699345, 36.34681789], [138.06666839, 36.34527984], [138.0657528, 36.34140372], [138.06788947, 36.33672678], [138.06442309, 36.33348151], [138.06918613, 36.33008511], [138.07151584, 36.32491372], [138.07100722, 36.31654539], [138.08100445, 36.31233067], [138.08323027, 36.30916344], [138.07819416, 36.30526205], [138.07651528, 36.29898178], [138.07285584, 36.29768092], [138.07507834, 36.29564731], [138.07426917, 36.29200341], [138.06907083, 36.28488341], [138.07220027, 36.28257008], [138.07471167, 36.27771397], [138.07289195, 36.27223756], [138.0793528, 36.26700533], [138.08280141, 36.26178005], [138.07829642, 36.25628256], [138.08011141, 36.25391725], [138.07915891, 36.25104725], [138.08504837, 36.24720308], [138.08475253, 36.24406225], [138.09088947, 36.24330225], [138.09255861, 36.24131059], [138.09264222, 36.23708422], [138.10392442, 36.23554784], [138.10568497, 36.23350339], [138.10475467, 36.22959339], [138.10693467, 36.22611672], [138.11613519, 36.22275313], [138.11674353, 36.21911897], [138.11996297, 36.21862953], [138.129516, 36.21144314], [138.12943597, 36.20739703], [138.12573151, 36.20098344], [138.12793231, 36.19423539], [138.12612311, 36.18369928], [138.13123808, 36.17673541], [138.12698003, 36.17235125], [138.1282475, 36.16673292], [138.12104776, 36.16270431], [138.11620552, 36.16399653], [138.10852025, 36.16234987], [138.1036572, 36.16386987], [138.09275078, 36.16046153], [138.0883327, 36.15749125], [138.07788545, 36.15676903], [138.07212519, 36.16204261], [138.06690905, 36.16149178], [138.05984322, 36.16445595], [138.05891492, 36.16785844], [138.054476, 36.1684848], [138.0455818, 36.16140925], [138.04585789, 36.15406039], [138.04234786, 36.14812733], [138.03037728, 36.14810341], [138.01391558, 36.15369311], [138.0134817, 36.15218005], [137.99916944, 36.15297228], [137.99413167, 36.15578811], [137.98791328, 36.1576565], [137.98374803, 36.15712669], [137.98095053, 36.15906836], [137.97139409, 36.14729225], [137.96901825, 36.14673753], [137.96769798, 36.14773503], [137.96885022, 36.15250808], [137.9666372, 36.17094264], [137.94700739, 36.17045139], [137.94697136, 36.16621639], [137.94048905, 36.15156251], [137.94214406, 36.15139556], [137.94192878, 36.14954584], [137.93897601, 36.15100389], [137.93064017, 36.14564372], [137.92849681, 36.14644597], [137.92776289, 36.14372611], [137.92432678, 36.14473803], [137.9329608, 36.162889], [137.92481442, 36.162889], [137.92583778, 36.16334556], [137.92474936, 36.16507], [137.91455686, 36.15583169], [137.91964125, 36.15355441], [137.91740122, 36.14838964], [137.91031844, 36.14719603], [137.90680728, 36.14206108], [137.89552472, 36.13366469], [137.89444192, 36.13095136], [137.89315914, 36.13051831], [137.88919331, 36.13391803], [137.882588, 36.12917633], [137.89226944, 36.14050608], [137.88462416, 36.14653689], [137.8931062, 36.15786136], [137.89298311, 36.16480447], [137.89528458, 36.17041275], [137.90189713, 36.17478803], [137.89877464, 36.17864469], [137.89712025, 36.18844803], [137.89051219, 36.18801387], [137.89041442, 36.1903758], [137.88190328, 36.18899608], [137.85726256, 36.17833939], [137.84614523, 36.17041772], [137.84068458, 36.16176272], [137.83087148, 36.16010159], [137.82367306, 36.15453159], [137.81483467, 36.15104769], [137.8085807, 36.1416902], [137.79963294, 36.13618797], [137.78749297, 36.11837995], [137.78804686, 36.11590633], [137.78595519, 36.11166133], [137.780943, 36.10608553], [137.77798772, 36.09943108], [137.77054691, 36.0951308], [137.76339776, 36.088115], [137.75502667, 36.08676695], [137.75005083, 36.08357556], [137.74693778, 36.08117223], [137.74218416, 36.07322197], [137.73571058, 36.06955503], [137.73487222, 36.06557141], [137.73662167, 36.06164641], [137.73530278, 36.0553392], [137.73791942, 36.046847], [137.7321172, 36.04500867], [137.73176914, 36.041797], [137.72915803, 36.03865284], [137.72280414, 36.03413977], [137.72000161, 36.02521339], [137.71683494, 36.02415756], [137.71682105, 36.02269977], [137.70895686, 36.01694008], [137.70974353, 36.01560703], [137.70777575, 36.01433147], [137.70811297, 36.01237536], [137.70115464, 36.00963203], [137.6976002, 36.01088008], [137.69520547, 36.01476036], [137.6894127, 36.01447175], [137.68165467, 36.01681144], [137.67235185, 36.01070117], [137.66625742, 36.010657], [137.6570638, 36.01350033], [137.65189161, 36.02045477], [137.64690825, 36.02041169], [137.63511661, 36.02630613]]], [[[138.48058105, 36.31599667], [138.49058494, 36.31580751], [138.48697798, 36.31182361], [138.4889038, 36.31027278], [138.48513294, 36.30651667], [138.48526958, 36.302895], [138.4889193, 36.30157777], [138.48364564, 36.29394223], [138.48576953, 36.29288975], [138.48482869, 36.29134531], [138.48616674, 36.29017364], [138.48903066, 36.29701917], [138.49334986, 36.29992778], [138.49256905, 36.30331972], [138.49442044, 36.30420222], [138.50099764, 36.29852587], [138.50009151, 36.2965578], [138.51401597, 36.29763753], [138.5159082, 36.29648805], [138.51856958, 36.2946875], [138.52569261, 36.2830925], [138.54251847, 36.28575444], [138.55737766, 36.27978053], [138.57551742, 36.27984136], [138.57993883, 36.28221469], [138.59444189, 36.27863661], [138.59991859, 36.27887884], [138.60364163, 36.27485495], [138.603813, 36.26954939], [138.60595217, 36.26679467], [138.60373297, 36.26283023], [138.60475433, 36.25412908], [138.60211847, 36.24905297], [138.6102393, 36.24404325], [138.61249681, 36.24091797], [138.61176234, 36.22950297], [138.614594, 36.22801767], [138.61473508, 36.22422405], [138.62224453, 36.21458572], [138.63144202, 36.21730267], [138.63466119, 36.21367487], [138.63444341, 36.2087132], [138.636707, 36.20427041], [138.63480283, 36.20559708], [138.63041311, 36.20350431], [138.62279725, 36.19692792], [138.62720555, 36.19158487], [138.62945445, 36.18331125], [138.63706914, 36.17498011], [138.63590136, 36.17093261], [138.6309083, 36.17278177], [138.61316659, 36.16873153], [138.60845214, 36.16538625], [138.60978934, 36.16154761], [138.60780462, 36.16165095], [138.60279239, 36.16484736], [138.594491, 36.16562986], [138.58829239, 36.17263875], [138.59058158, 36.17793792], [138.58827214, 36.17903987], [138.58733767, 36.17688736], [138.58423073, 36.17717153], [138.58338961, 36.17883128], [138.58133044, 36.17743933], [138.57727486, 36.1680732], [138.56423122, 36.17078461], [138.55343925, 36.16906572], [138.54984287, 36.17045156], [138.51966834, 36.16528769], [138.5175117, 36.16830908], [138.50827555, 36.16678269], [138.50476306, 36.1692302], [138.49760275, 36.16788603], [138.4939372, 36.17100769], [138.48853942, 36.17147103], [138.48864219, 36.17430244], [138.48312056, 36.17969467], [138.47993442, 36.17405884], [138.47225661, 36.16879884], [138.45931798, 36.16996911], [138.44937017, 36.16773744], [138.44796849, 36.16503161], [138.43339124, 36.1670955], [138.43058959, 36.16622911], [138.42996847, 36.16289217], [138.41942287, 36.15640967], [138.40947256, 36.15459939], [138.40254503, 36.14859995], [138.38506917, 36.14289413], [138.36886769, 36.1298672], [138.35392097, 36.12035164], [138.34803625, 36.12001803], [138.34338597, 36.12162386], [138.33987042, 36.11977997], [138.33408956, 36.11553387], [138.33248036, 36.11165525], [138.32875008, 36.10877859], [138.32564759, 36.10815664], [138.31785092, 36.11244747], [138.31276815, 36.1119572], [138.30963895, 36.10957331], [138.30446839, 36.11162413], [138.30170423, 36.11091469], [138.30008842, 36.11888108], [138.30176122, 36.12692105], [138.29375817, 36.13378605], [138.29444261, 36.13550689], [138.29191066, 36.13698105], [138.29157597, 36.14062051], [138.28973569, 36.1409505], [138.29056847, 36.14250467], [138.28854958, 36.14675772], [138.28430652, 36.14745744], [138.28257319, 36.1492988], [138.28407462, 36.15530659], [138.28348128, 36.16032131], [138.28113572, 36.16088241], [138.28010905, 36.16463908], [138.28226328, 36.17825187], [138.28897416, 36.19097992], [138.28938309, 36.20109989], [138.29512672, 36.20683825], [138.30287403, 36.23083961], [138.30878686, 36.23945517], [138.31723467, 36.24639714], [138.32997278, 36.25303575], [138.33416503, 36.26018769], [138.33858394, 36.26198603], [138.33797231, 36.26572992], [138.33945759, 36.26799464], [138.33790095, 36.27270325], [138.33615817, 36.27364436], [138.33625706, 36.27582908], [138.33459095, 36.27554825], [138.33254205, 36.27810377], [138.33962348, 36.28059017], [138.34056822, 36.28292184], [138.34426795, 36.28271159], [138.33978267, 36.28584156], [138.33968377, 36.28768711], [138.34228326, 36.28891628], [138.34251744, 36.29401128], [138.34687411, 36.29358156], [138.34889053, 36.29640017], [138.35802805, 36.29865323], [138.3634025, 36.297851], [138.36881752, 36.29956131], [138.37508722, 36.29512353], [138.37453997, 36.28715356], [138.37569636, 36.28597161], [138.37617859, 36.28968047], [138.38148139, 36.29321547], [138.3818028, 36.29600825], [138.3823392, 36.29410575], [138.38622506, 36.29740603], [138.3835745, 36.3032938], [138.37936117, 36.30288436], [138.37674311, 36.30474436], [138.37300122, 36.31700767], [138.36689706, 36.31930625], [138.36339652, 36.32573567], [138.36695908, 36.33319151], [138.37320689, 36.33356177], [138.37577939, 36.33555928], [138.38123745, 36.33410736], [138.38336248, 36.33603097], [138.38662053, 36.33423875], [138.38575163, 36.33683514], [138.37951472, 36.34115067], [138.38152195, 36.34317011], [138.37969302, 36.34412295], [138.38696786, 36.35224372], [138.38132533, 36.35159261], [138.38502258, 36.35586039], [138.38531789, 36.36015622], [138.39497717, 36.37423984], [138.39492769, 36.36911622], [138.39820438, 36.37217011], [138.40194523, 36.37107984], [138.40960083, 36.37605736], [138.40615577, 36.37184736], [138.40769328, 36.37112292], [138.40725438, 36.36955041], [138.41187581, 36.37088597], [138.41678361, 36.37649403], [138.42418419, 36.37658267], [138.42482837, 36.37533851], [138.42867811, 36.37743822], [138.43017175, 36.38074989], [138.43411786, 36.38240572], [138.43557119, 36.38156517], [138.4376715, 36.38390239], [138.43811017, 36.39045684], [138.44040377, 36.39120656], [138.44398217, 36.39817017], [138.44920997, 36.40131295], [138.45260781, 36.40788295], [138.45755253, 36.41152517], [138.46108027, 36.40804572], [138.45965, 36.40475044], [138.477868, 36.40444989], [138.48895742, 36.4009335], [138.48875661, 36.40866405], [138.4920572, 36.41325764], [138.50475217, 36.41490375], [138.50679022, 36.41393041], [138.49662995, 36.40919711], [138.49586822, 36.39932377], [138.49237322, 36.39565492], [138.49262125, 36.39238436], [138.4807882, 36.38705936], [138.47904536, 36.37917075], [138.47453061, 36.37600744], [138.46933361, 36.36605577], [138.46645306, 36.36370744], [138.46675747, 36.36194105], [138.46056183, 36.35058023], [138.45757183, 36.34805217], [138.458216, 36.34796105], [138.46115294, 36.35109078], [138.46497017, 36.35018272], [138.46477239, 36.34882411], [138.46758211, 36.34995244], [138.46808462, 36.34845495], [138.47332017, 36.34791831], [138.47289713, 36.35339605], [138.47721078, 36.35550495], [138.4778935, 36.34839997], [138.4751485, 36.34718025], [138.47704569, 36.34304164], [138.4806382, 36.34643747], [138.47851406, 36.34966747], [138.47923464, 36.35166831], [138.48618406, 36.35086803], [138.48605661, 36.35523884], [138.48891358, 36.35988522], [138.49298525, 36.36067856], [138.48666267, 36.34843331], [138.48264569, 36.34577497], [138.4830165, 36.34066941], [138.48099261, 36.34036025], [138.48109317, 36.33916664], [138.4795865, 36.34024747], [138.47968983, 36.33851275], [138.47789925, 36.33799275], [138.47957756, 36.33384441], [138.4813173, 36.33495275], [138.483067, 36.3312758], [138.48185811, 36.32974775], [138.48291224, 36.32659025], [138.48120031, 36.32583497], [138.48340167, 36.3230225], [138.48155553, 36.32066917], [138.48296497, 36.31924889], [138.48058105, 36.31599667]]], [[[137.8789692, 36.73644725], [137.86130283, 36.74327722], [137.86121811, 36.74584389], [137.85626647, 36.75084333], [137.84790397, 36.74981917], [137.84265289, 36.75089972], [137.84826869, 36.74529278], [137.85096786, 36.74452028], [137.84857703, 36.74428167], [137.82376764, 36.75410586], [137.8195185, 36.7593092], [137.76484647, 36.76769264], [137.76761367, 36.7706332], [137.7758292, 36.77367956], [137.78193558, 36.7729815], [137.78478694, 36.77434456], [137.79122278, 36.77855508], [137.79327553, 36.78665675], [137.81998263, 36.79822167], [137.82288986, 36.8024208], [137.82278124, 36.80598387], [137.83044983, 36.80756161], [137.83227287, 36.81013523], [137.83155647, 36.81944964], [137.84386419, 36.82977597], [137.84508778, 36.8345015], [137.85136611, 36.83783761], [137.85695555, 36.84393925], [137.85581358, 36.84916008], [137.85787947, 36.85275314], [137.86826876, 36.86283456], [137.87339795, 36.86357653], [137.87645713, 36.8662068], [137.87525939, 36.86913569], [137.87777248, 36.87332823], [137.86865691, 36.87730847], [137.86610501, 36.88360933], [137.86666031, 36.88659961], [137.86157866, 36.89094351], [137.86508927, 36.89636408], [137.86860428, 36.89742297], [137.87168156, 36.90143325], [137.86748017, 36.90529495], [137.86225964, 36.90732605], [137.86380438, 36.91332772], [137.86813553, 36.91589717], [137.87465027, 36.91585275], [137.8786083, 36.91270664], [137.89377639, 36.91000303], [137.90043811, 36.91143556], [137.90275783, 36.91426611], [137.91097927, 36.91786333], [137.92061017, 36.92002584], [137.93212073, 36.91427167], [137.94848995, 36.91278333], [137.95321355, 36.90500553], [137.96235331, 36.90211108], [137.96719694, 36.90588275], [137.96885475, 36.91072164], [137.97644562, 36.90829164], [137.99140178, 36.91074856], [138.00285597, 36.90500908], [138.01373795, 36.90402072], [138.01568655, 36.901666], [138.01469958, 36.89498156], [138.01671625, 36.89243684], [138.02184628, 36.89050656], [138.02665131, 36.89252517], [138.0311602, 36.89127875], [138.03284936, 36.88619125], [138.03180767, 36.87835461], [138.02641234, 36.87353405], [138.01984864, 36.8622952], [138.01367528, 36.86043272], [138.01552555, 36.85737884], [138.01570747, 36.85258661], [138.01887581, 36.85043772], [138.02022992, 36.84239189], [138.01427377, 36.83880025], [138.00440175, 36.82836944], [137.99640639, 36.8162178], [137.9891847, 36.81151784], [137.98073047, 36.80167064], [137.97655988, 36.79414956], [137.97547209, 36.78645625], [137.967769, 36.7813132], [137.96792533, 36.77103295], [137.96683172, 36.76962656], [137.96470089, 36.77041656], [137.96101253, 36.76316464], [137.95755834, 36.76257377], [137.95696803, 36.75874628], [137.95238995, 36.75427656], [137.9533138, 36.74848211], [137.9461618, 36.74294875], [137.94327151, 36.73728959], [137.93341175, 36.73580511], [137.92899842, 36.73845651], [137.92288367, 36.73736703], [137.92201591, 36.73890341], [137.91831866, 36.73674203], [137.91499311, 36.73773341], [137.91321895, 36.73645925], [137.90629616, 36.73892672], [137.90169642, 36.73501617], [137.89578975, 36.73530253], [137.8951825, 36.73244697], [137.88632195, 36.7305978], [137.88478058, 36.73736114], [137.8789692, 36.73644725]]], [[[138.52064222, 37.02926753], [138.52572642, 37.02994575], [138.52823995, 37.02513892], [138.53651097, 37.02092667], [138.54883575, 37.02122844], [138.55264053, 37.02364325], [138.56588886, 37.02126056], [138.56973542, 37.0158415], [138.57080044, 37.00573928], [138.57323708, 37.00453905], [138.57586577, 36.99628828], [138.58666389, 36.9882468], [138.58678205, 36.97886759], [138.58829258, 36.97711147], [138.58579698, 36.97258389], [138.58740217, 36.9658638], [138.58590966, 36.96497684], [138.58656326, 36.96176625], [138.5851227, 36.96032761], [138.5869785, 36.95470728], [138.58462614, 36.93254892], [138.58292419, 36.928688], [138.59208503, 36.92534941], [138.58876416, 36.91397205], [138.59093222, 36.91415178], [138.5964117, 36.90701395], [138.61286706, 36.90854897], [138.62101486, 36.90408197], [138.61822594, 36.89942889], [138.61777234, 36.89204075], [138.62130263, 36.88930739], [138.62542458, 36.8824465], [138.63554655, 36.88342567], [138.63501406, 36.87986036], [138.64053409, 36.87899147], [138.6418063, 36.87564533], [138.65097214, 36.87442061], [138.65250489, 36.87133975], [138.65702462, 36.86961947], [138.65735628, 36.86804614], [138.67201183, 36.8663225], [138.67635905, 36.86727777], [138.68152294, 36.86542441], [138.6869985, 36.86282775], [138.68883348, 36.8581272], [138.69307708, 36.85502744], [138.69281737, 36.85007217], [138.69013678, 36.84613495], [138.69165399, 36.84123325], [138.69020703, 36.83266405], [138.680672, 36.82416097], [138.67958725, 36.82105069], [138.68699864, 36.81822317], [138.68997725, 36.81289287], [138.69448531, 36.81058759], [138.69584642, 36.80794061], [138.68899608, 36.79814839], [138.68943078, 36.79346587], [138.68669713, 36.79034031], [138.68421102, 36.78792417], [138.67171431, 36.78358972], [138.66899205, 36.77881608], [138.6695437, 36.7736608], [138.67270231, 36.77041275], [138.68001092, 36.76643633], [138.68809008, 36.76574717], [138.69152898, 36.75857523], [138.69194834, 36.74611853], [138.69472611, 36.74418492], [138.69593163, 36.73851267], [138.68470384, 36.73642184], [138.67615878, 36.73060069], [138.66852375, 36.73091264], [138.66574514, 36.72872597], [138.66302625, 36.72955486], [138.65638345, 36.72853956], [138.65549869, 36.72714678], [138.64892508, 36.72711956], [138.64207839, 36.72378286], [138.64058425, 36.73079956], [138.641794, 36.73513067], [138.63935733, 36.73657039], [138.63674209, 36.74462956], [138.62994739, 36.74807095], [138.63030128, 36.7525132], [138.62679516, 36.75401959], [138.62625158, 36.7558168], [138.6268563, 36.75946069], [138.62869995, 36.76102487], [138.62858358, 36.7655735], [138.63030025, 36.76647767], [138.62726805, 36.77196184], [138.63075584, 36.77482408], [138.63009558, 36.77696213], [138.63296669, 36.77845047], [138.63140253, 36.77960103], [138.63128506, 36.78361133], [138.63470564, 36.78615272], [138.63415594, 36.7918772], [138.63167122, 36.79375469], [138.62969231, 36.79251413], [138.63083122, 36.79708747], [138.62804372, 36.79568275], [138.62483289, 36.79704636], [138.6251682, 36.80015192], [138.61943211, 36.80952028], [138.61575319, 36.80843417], [138.6085718, 36.81311333], [138.60739292, 36.81145969], [138.60302737, 36.81319164], [138.59490317, 36.81270275], [138.59314508, 36.81054995], [138.59258647, 36.81185328], [138.58858703, 36.81234189], [138.58805616, 36.810348], [138.58570477, 36.8097152], [138.5794828, 36.81145741], [138.57561058, 36.80995295], [138.56361584, 36.8159668], [138.56403528, 36.81867295], [138.55865969, 36.82043986], [138.55216025, 36.8199915], [138.54847661, 36.82294872], [138.5505683, 36.82651847], [138.54121189, 36.8364068], [138.55668475, 36.85191003], [138.55102944, 36.85745613], [138.54145772, 36.85411247], [138.52828211, 36.85877408], [138.52321348, 36.8587435], [138.51012345, 36.85381867], [138.49604562, 36.85691084], [138.49555034, 36.86033167], [138.50132866, 36.86433089], [138.49894311, 36.86954061], [138.50139283, 36.87638205], [138.49876197, 36.87805092], [138.49883776, 36.88343517], [138.4922575, 36.8861712], [138.49320027, 36.88764147], [138.49186639, 36.88984953], [138.49406584, 36.89262317], [138.48745608, 36.89484784], [138.47362272, 36.88525856], [138.471068, 36.88159464], [138.46656995, 36.88370103], [138.45920745, 36.88263236], [138.45592105, 36.87917928], [138.44643192, 36.875077], [138.43917944, 36.87638392], [138.42364837, 36.87210217], [138.41628423, 36.87250103], [138.40667178, 36.87540631], [138.40589817, 36.87932103], [138.40038097, 36.88087739], [138.39664903, 36.87218933], [138.40227125, 36.870011], [138.40262399, 36.86644989], [138.39921569, 36.8628168], [138.39953041, 36.86005208], [138.39783514, 36.8598282], [138.39850903, 36.85797292], [138.39631375, 36.85273541], [138.3942235, 36.85270375], [138.39372739, 36.84980264], [138.39183628, 36.85525264], [138.38825185, 36.85490625], [138.3851227, 36.85403289], [138.3841727, 36.85079956], [138.38500686, 36.84800484], [138.38851711, 36.84826456], [138.39219516, 36.84422956], [138.3982782, 36.84179151], [138.38783545, 36.83564039], [138.38955073, 36.83408178], [138.38307769, 36.82587314], [138.37642244, 36.82745761], [138.37582051, 36.83370233], [138.37112883, 36.83396622], [138.36839331, 36.8374315], [138.36355442, 36.83791344], [138.35355722, 36.82295761], [138.35916192, 36.80950039], [138.35599136, 36.80398956], [138.34663861, 36.80478595], [138.34509167, 36.80354233], [138.33815224, 36.8062282], [138.32465616, 36.80647264], [138.31889397, 36.81356792], [138.31776761, 36.81975541], [138.31371233, 36.81750959], [138.30808039, 36.81791069], [138.30700014, 36.8202482], [138.30403737, 36.81996264], [138.30152597, 36.82404653], [138.297906, 36.82501514], [138.30029183, 36.82778153], [138.30039211, 36.8355032], [138.29039852, 36.83979597], [138.28504328, 36.84000847], [138.27874633, 36.83702267], [138.27445856, 36.83730877], [138.27609914, 36.84204347], [138.28761244, 36.84570653], [138.28995997, 36.85291459], [138.29161328, 36.85159541], [138.29192581, 36.85408653], [138.29605745, 36.85558375], [138.29503275, 36.8607568], [138.29239886, 36.86201069], [138.29236834, 36.86449736], [138.28852778, 36.86895013], [138.28943448, 36.87149761], [138.29313639, 36.87297761], [138.29299752, 36.87812428], [138.29936808, 36.88672123], [138.2952845, 36.88848761], [138.29448175, 36.89335233], [138.29028927, 36.89681123], [138.29437733, 36.90132453], [138.29632569, 36.91082008], [138.30740903, 36.91937008], [138.31484733, 36.92190314], [138.31756983, 36.92518505], [138.32989008, 36.92684672], [138.33729781, 36.92508923], [138.34320445, 36.92079675], [138.34917111, 36.92924256], [138.35230861, 36.92942922], [138.35756, 36.93358256], [138.35971364, 36.93998005], [138.3646692, 36.9445545], [138.36367564, 36.9530778], [138.36816289, 36.95712251], [138.36724292, 36.95944472], [138.36937377, 36.96387139], [138.37444572, 36.96842553], [138.37589881, 36.97215275], [138.38227438, 36.97642105], [138.37869944, 36.98050411], [138.38895781, 36.98643075], [138.39089144, 36.98884517], [138.39027869, 36.9912635], [138.39454372, 36.99420514], [138.39468156, 36.99717541], [138.4105485, 36.99844595], [138.41224856, 37.00242705], [138.43137891, 37.00607728], [138.44279992, 37.01309305], [138.45084358, 37.0149375], [138.45442089, 37.01730108], [138.45513205, 37.01961467], [138.46800572, 37.01782886], [138.48141255, 37.02155387], [138.48260975, 37.01982889], [138.49057036, 37.01989872], [138.49743828, 37.02644544], [138.50208659, 37.02512475], [138.51279386, 37.02779869], [138.5140875, 37.02968622], [138.51976859, 37.02782586], [138.52064222, 37.02926753]]]]}}, {"type": "Feature", "properties": {"pref": "長野県", "role": "protected_50hz_secondary", "munis": ["軽井沢町", "御代田町", "東御市", "上田市", "立科町", "佐久穂町", "小海町", "南牧村", "南相木村", "北相木村", "川上村"], "source": "二次情報のみ(一次未確認) + N03"}, "geometry": {"type": "MultiPolygon", "coordinates": [[[[138.50275791, 35.91219505], [138.49465983, 35.91126117], [138.49554956, 35.90363895], [138.49013231, 35.89637477], [138.48257562, 35.89882869], [138.47160224, 35.89619675], [138.45944414, 35.90370897], [138.45676275, 35.90317428], [138.45463442, 35.89982456], [138.44894747, 35.91301261], [138.44433525, 35.9178815], [138.44553361, 35.9197915], [138.44457611, 35.92252844], [138.44841392, 35.92510705], [138.44747365, 35.92921095], [138.45433341, 35.9383062], [138.45056289, 35.94541147], [138.44316124, 35.95113759], [138.42419319, 35.9589748], [138.41385542, 35.95946231], [138.40829097, 35.96252703], [138.39068652, 35.96633841], [138.38135569, 35.97144092], [138.37046041, 35.97138064], [138.37451881, 35.98308895], [138.37310297, 35.98613561], [138.37407745, 35.98941144], [138.371888, 35.99505033], [138.36491053, 36.00316728], [138.36481778, 36.00868808], [138.3626275, 36.01233613], [138.35912083, 36.01289336], [138.36168642, 36.01756114], [138.35950367, 36.02031614], [138.36072144, 36.0245378], [138.35894508, 36.02715697], [138.36120175, 36.0316728], [138.35571953, 36.03418697], [138.35642205, 36.03633086], [138.35500872, 36.03736975], [138.35646514, 36.04170833], [138.35347375, 36.046655], [138.34810486, 36.04765556], [138.34784294, 36.05453389], [138.3454138, 36.06138695], [138.34248519, 36.06220751], [138.34053661, 36.06595361], [138.33440217, 36.06853444], [138.33355442, 36.07479528], [138.33232053, 36.07498195], [138.33394056, 36.08543859], [138.33105472, 36.08671608], [138.32338472, 36.08488025], [138.31949139, 36.08636969], [138.32796808, 36.09137692], [138.32468256, 36.10046692], [138.32491061, 36.1042108], [138.32745175, 36.10709303], [138.32564759, 36.10815664], [138.33212092, 36.11128136], [138.33408956, 36.11553387], [138.34004625, 36.11987803], [138.34338597, 36.12162386], [138.34803625, 36.12001803], [138.35392097, 36.12035164], [138.36886769, 36.1298672], [138.38506917, 36.14289413], [138.40254503, 36.14859995], [138.40947256, 36.15459939], [138.41942287, 36.15640967], [138.42996847, 36.16289217], [138.43058959, 36.16622911], [138.43339124, 36.1670955], [138.44796849, 36.16503161], [138.44937017, 36.16773744], [138.45931798, 36.16996911], [138.47225661, 36.16879884], [138.47993442, 36.17405884], [138.48312056, 36.17969467], [138.48864219, 36.17430244], [138.48853942, 36.17147103], [138.4939372, 36.17100769], [138.49895859, 36.16748714], [138.50461056, 36.16924408], [138.50827555, 36.16678269], [138.5175117, 36.16830908], [138.52064698, 36.1652738], [138.53499756, 36.168856], [138.54984287, 36.17045156], [138.56040316, 36.16933461], [138.5638465, 36.170811], [138.57866681, 36.1676882], [138.58085236, 36.16489014], [138.58065403, 36.16194236], [138.58393681, 36.16034903], [138.58755597, 36.16077541], [138.59064514, 36.15475651], [138.59324097, 36.15322678], [138.59317623, 36.15025651], [138.59548678, 36.14653622], [138.59429761, 36.14419428], [138.60076759, 36.13551233], [138.60723761, 36.13609067], [138.61230706, 36.13338675], [138.62062399, 36.1340098], [138.62247872, 36.13193203], [138.63432372, 36.13394703], [138.63759733, 36.12786425], [138.63756869, 36.12383313], [138.64537703, 36.12019675], [138.64016564, 36.11722592], [138.64258423, 36.11400703], [138.64226228, 36.11199536], [138.64620616, 36.1099362], [138.64759531, 36.10658647], [138.64498114, 36.10341259], [138.64518306, 36.09880675], [138.63866969, 36.0961998], [138.6372825, 36.09712092], [138.63510109, 36.09258703], [138.63053302, 36.09118092], [138.63033939, 36.08636313], [138.63254131, 36.08426286], [138.63293992, 36.08004595], [138.64027348, 36.074914], [138.64057292, 36.0708415], [138.64281538, 36.06874233], [138.64179533, 36.05953931], [138.64419112, 36.04968933], [138.63869025, 36.04262877], [138.63185236, 36.02721297], [138.63613375, 36.02769908], [138.64189348, 36.02584686], [138.64510817, 36.02398213], [138.64603759, 36.01992797], [138.661332, 36.01642659], [138.66198805, 36.01150439], [138.67958361, 36.01171439], [138.68086167, 36.01066633], [138.67985414, 36.00910939], [138.68105411, 36.00430161], [138.68716686, 35.99981828], [138.68642625, 35.994903], [138.68869538, 35.99177467], [138.69703012, 35.99117856], [138.70116703, 35.9880105], [138.71279172, 35.98516051], [138.71136047, 35.9718722], [138.71293183, 35.96773441], [138.7144082, 35.96532553], [138.71947789, 35.9628872], [138.72104119, 35.95909], [138.72676477, 35.95670611], [138.73046944, 35.95030111], [138.7311355, 35.94514528], [138.73925433, 35.93910805], [138.73744209, 35.93627586], [138.73917066, 35.93325975], [138.738507, 35.9290192], [138.73231939, 35.91946784], [138.72810628, 35.91783228], [138.73065267, 35.91488339], [138.72901128, 35.90922061], [138.72171211, 35.90794477], [138.7080602, 35.90975284], [138.70568438, 35.90595061], [138.70024747, 35.90319672], [138.69702358, 35.89916033], [138.69346333, 35.89930311], [138.69193222, 35.89584978], [138.68584558, 35.89386561], [138.68267756, 35.88146114], [138.67617647, 35.86980141], [138.6690798, 35.87142864], [138.66567872, 35.8738642], [138.66030597, 35.87378753], [138.65746125, 35.87587613], [138.64965377, 35.87347031], [138.64248825, 35.87476475], [138.63423411, 35.87005308], [138.6282408, 35.87335697], [138.6218708, 35.87043836], [138.61087364, 35.87361031], [138.60674922, 35.87848169], [138.60498842, 35.89375114], [138.60764508, 35.8959428], [138.6071437, 35.89952836], [138.61225594, 35.90915336], [138.60764733, 35.90819197], [138.60269903, 35.9097628], [138.6009882, 35.91342225], [138.59101742, 35.91976867], [138.58925464, 35.91786061], [138.58098186, 35.91705005], [138.57915353, 35.91300395], [138.57651019, 35.911422], [138.57211102, 35.91222867], [138.56441523, 35.91733395], [138.55621384, 35.91631533], [138.55704217, 35.91792867], [138.5553991, 35.919137], [138.54015883, 35.91367395], [138.53097881, 35.91571061], [138.52905769, 35.91453589], [138.52166742, 35.91867756], [138.51277742, 35.92007451], [138.51057185, 35.92233895], [138.50553628, 35.91870451], [138.50275791, 35.91219505]], [[138.49164827, 36.15613159], [138.49679828, 36.15736741], [138.49347051, 36.15953575], [138.49227022, 36.16356103], [138.48917411, 36.16451825], [138.48803856, 36.16154713], [138.48897464, 36.15730992], [138.49164827, 36.15613159]]], [[[138.34272494, 36.29420322], [138.34228326, 36.28891628], [138.33968377, 36.28768711], [138.33979878, 36.28576517], [138.34426795, 36.28271159], [138.34056822, 36.28292184], [138.33962348, 36.28059017], [138.33254205, 36.27810377], [138.33459095, 36.27554825], [138.33625706, 36.27582908], [138.33615817, 36.27364436], [138.33790095, 36.27270325], [138.33945759, 36.26799464], [138.33797231, 36.26572992], [138.33858394, 36.26198603], [138.33416503, 36.26018769], [138.32997278, 36.25303575], [138.31723467, 36.24639714], [138.30878686, 36.23945517], [138.30287403, 36.23083961], [138.29512672, 36.20683825], [138.28895698, 36.19986517], [138.28897416, 36.19097992], [138.28226328, 36.17825187], [138.28010905, 36.16463908], [138.28113572, 36.16088241], [138.28348128, 36.16032131], [138.28407462, 36.15530659], [138.28257319, 36.1492988], [138.28430652, 36.14745744], [138.28854958, 36.14675772], [138.29056847, 36.14250467], [138.28973569, 36.1409505], [138.29157597, 36.14062051], [138.29191066, 36.13698105], [138.29444261, 36.13550689], [138.29375817, 36.13378605], [138.30176122, 36.12692105], [138.30008842, 36.11888108], [138.30170423, 36.11091469], [138.29566975, 36.10521608], [138.29016667, 36.09676636], [138.29068914, 36.09382747], [138.28665525, 36.08989914], [138.27555883, 36.08634025], [138.26725494, 36.09121887], [138.26132436, 36.09092469], [138.24663186, 36.09495414], [138.24754411, 36.10083995], [138.24345966, 36.10562105], [138.23386939, 36.10810661], [138.23884581, 36.11441384], [138.2507125, 36.12175495], [138.25930808, 36.12953411], [138.27552847, 36.15149713], [138.27680795, 36.1640502], [138.28274161, 36.18119103], [138.28445472, 36.19368823], [138.28284506, 36.22038184], [138.28690287, 36.22566461], [138.2894307, 36.233906], [138.29383489, 36.23976489], [138.29742795, 36.24061405], [138.29935241, 36.24599795], [138.29595659, 36.25271211], [138.28621992, 36.25848153], [138.2884447, 36.26697875], [138.28438136, 36.2710468], [138.28510333, 36.27799705], [138.28099639, 36.2814415], [138.28318947, 36.28736205], [138.27557611, 36.28558511], [138.26924669, 36.2958548], [138.26042056, 36.29662897], [138.25762136, 36.29296731], [138.2554908, 36.29352397], [138.25448467, 36.28876592], [138.25049355, 36.28676203], [138.24360128, 36.27884067], [138.243091, 36.27510817], [138.24468764, 36.27196456], [138.2432415, 36.265329], [138.24392733, 36.26080317], [138.24597345, 36.25886205], [138.24471815, 36.25457872], [138.24613786, 36.25107539], [138.2442098, 36.24856678], [138.24132815, 36.24968789], [138.23402645, 36.24705122], [138.23284531, 36.24449344], [138.23438698, 36.23738484], [138.23171917, 36.236634], [138.23072139, 36.23393122], [138.22755861, 36.23336984], [138.22753442, 36.22986039], [138.22510803, 36.22607731], [138.22107995, 36.2238248], [138.21704411, 36.22493259], [138.20923523, 36.22294231], [138.20420825, 36.22436092], [138.19880686, 36.22357787], [138.1974163, 36.22631313], [138.18666852, 36.22467064], [138.17485516, 36.21850564], [138.16908462, 36.22083953], [138.1630085, 36.21719314], [138.15912128, 36.21850536], [138.15431214, 36.22435508], [138.14278297, 36.2259548], [138.13372051, 36.23108953], [138.12836051, 36.22983925], [138.11981297, 36.21870064], [138.11674353, 36.21911897], [138.11549992, 36.22073953], [138.11626964, 36.22260036], [138.11197328, 36.22524311], [138.10707966, 36.22598561], [138.10478161, 36.22944617], [138.1047483, 36.23483144], [138.1024547, 36.23654395], [138.09248083, 36.23718478], [138.09260694, 36.24113586], [138.09088947, 36.24330225], [138.08503781, 36.2437478], [138.08504837, 36.24720308], [138.07915891, 36.25104725], [138.08011141, 36.25391725], [138.0783253, 36.25638784], [138.08280141, 36.26178005], [138.0793528, 36.26700533], [138.07289195, 36.27223756], [138.07471167, 36.27771397], [138.07220027, 36.28257008], [138.06907083, 36.28488341], [138.07426917, 36.29200341], [138.07507834, 36.29564731], [138.07285584, 36.29768092], [138.07651528, 36.29898178], [138.07819416, 36.30526205], [138.08301333, 36.308284], [138.08100445, 36.31233067], [138.09122664, 36.31659347], [138.09501525, 36.32063653], [138.10939244, 36.32863044], [138.11064105, 36.32511822], [138.114558, 36.32224489], [138.12323244, 36.33034214], [138.13111633, 36.33427408], [138.12936328, 36.34712884], [138.13705691, 36.34983825], [138.14101222, 36.35438408], [138.14380031, 36.35408656], [138.14365531, 36.35629989], [138.14849311, 36.36172405], [138.14918925, 36.36595351], [138.15422431, 36.37018264], [138.15238876, 36.37274459], [138.15317294, 36.37807403], [138.14927433, 36.38180987], [138.15165577, 36.38702595], [138.15061772, 36.39210595], [138.14748025, 36.39510651], [138.14297302, 36.39662205], [138.13565494, 36.39508511], [138.12478275, 36.40240897], [138.11545581, 36.40375841], [138.11320778, 36.40784536], [138.11331058, 36.41367231], [138.1173162, 36.42104033], [138.11430156, 36.43413641], [138.11773545, 36.43383253], [138.1216085, 36.43683086], [138.12902575, 36.43816253], [138.13310406, 36.43471753], [138.13985961, 36.43401586], [138.14306044, 36.42940392], [138.15258683, 36.42613614], [138.1589193, 36.42140308], [138.15906903, 36.419857], [138.16321542, 36.41994336], [138.16877959, 36.415217], [138.17221545, 36.41935003], [138.21106034, 36.42609136], [138.21615231, 36.42939525], [138.24869051, 36.433313], [138.24861494, 36.43748272], [138.25050275, 36.4411888], [138.24978195, 36.44413908], [138.24523195, 36.45043186], [138.24194861, 36.45091047], [138.24005083, 36.45890825], [138.23855805, 36.45818159], [138.23388694, 36.46227075], [138.22889805, 36.46401492], [138.22873367, 36.474051], [138.23076508, 36.47948544], [138.221692, 36.48303989], [138.2217637, 36.48600267], [138.21867231, 36.48883933], [138.2194837, 36.49058708], [138.2017662, 36.50098431], [138.20160817, 36.50454208], [138.19857678, 36.50813153], [138.20021847, 36.51167431], [138.22089183, 36.50715903], [138.22125128, 36.50921736], [138.22948606, 36.5141632], [138.23531355, 36.51289125], [138.239368, 36.50948931], [138.24675525, 36.51000208], [138.24985501, 36.5156968], [138.25851752, 36.5141168], [138.26170224, 36.51510764], [138.26648698, 36.51323153], [138.26796144, 36.5169218], [138.27094339, 36.51910097], [138.27034202, 36.52345233], [138.27518511, 36.528604], [138.27550124, 36.53257261], [138.27770014, 36.53570177], [138.2820835, 36.53692123], [138.29387742, 36.53229872], [138.29819856, 36.53552705], [138.30250302, 36.54203761], [138.30877333, 36.54560789], [138.31117253, 36.55033844], [138.31553614, 36.54634817], [138.32370783, 36.546154], [138.33396144, 36.53735153], [138.33691949, 36.53963595], [138.351954, 36.54128264], [138.35367903, 36.54742567], [138.35732625, 36.54961317], [138.37873939, 36.55455511], [138.39032608, 36.55396375], [138.39576717, 36.54912347], [138.40407275, 36.54607431], [138.40788577, 36.54127459], [138.41238856, 36.54148625], [138.41144689, 36.53922514], [138.41397769, 36.53260656], [138.41171464, 36.52727156], [138.40407822, 36.52171044], [138.40280097, 36.51605659], [138.4060318, 36.50736408], [138.40173066, 36.50140659], [138.39708953, 36.490453], [138.3982145, 36.48693523], [138.39729089, 36.48406272], [138.40081866, 36.48117359], [138.39960447, 36.47315331], [138.4033492, 36.46687028], [138.40045864, 36.46337472], [138.40101584, 36.45638556], [138.39869778, 36.45315584], [138.40346111, 36.45204805], [138.40098414, 36.44621586], [138.40078856, 36.4350092], [138.44185089, 36.42258431], [138.44697036, 36.41931459], [138.45162536, 36.42117375], [138.45696477, 36.42024014], [138.4577153, 36.41157433], [138.45260781, 36.40788295], [138.44920997, 36.40131295], [138.44398217, 36.39817017], [138.44109795, 36.39198905], [138.43811017, 36.39045684], [138.4376715, 36.38390239], [138.43557119, 36.38156517], [138.43411786, 36.38240572], [138.43017175, 36.38074989], [138.42867811, 36.37743822], [138.42482837, 36.37533851], [138.42418419, 36.37658267], [138.41678361, 36.37649403], [138.41187581, 36.37088597], [138.40725438, 36.36955041], [138.40769328, 36.37112292], [138.40615577, 36.37184736], [138.40960083, 36.37605736], [138.40194523, 36.37107984], [138.39820438, 36.37217011], [138.39492769, 36.36911622], [138.39497717, 36.37423984], [138.38531789, 36.36015622], [138.38502258, 36.35586039], [138.38132533, 36.35159261], [138.38696786, 36.35224372], [138.37969302, 36.34412295], [138.38152195, 36.34317011], [138.37951472, 36.34115067], [138.38575163, 36.33683514], [138.38662053, 36.33423875], [138.38336248, 36.33603097], [138.38123745, 36.33410736], [138.37577939, 36.33555928], [138.37320689, 36.33356177], [138.36662547, 36.33292067], [138.36339652, 36.32573567], [138.36506903, 36.32134931], [138.36847455, 36.31820875], [138.37300122, 36.31700767], [138.37649811, 36.30505103], [138.37936117, 36.30288436], [138.3835745, 36.3032938], [138.38630562, 36.29756603], [138.38498698, 36.29552797], [138.3823392, 36.29410575], [138.38190086, 36.29611047], [138.38148139, 36.29321547], [138.37617859, 36.28968047], [138.37569636, 36.28597161], [138.37453997, 36.28715356], [138.37508722, 36.29512353], [138.36881752, 36.29956131], [138.34889053, 36.29640017], [138.34687411, 36.29358156], [138.34272494, 36.29420322]]], [[[138.57888939, 36.28182831], [138.57551742, 36.27984136], [138.55737766, 36.27978053], [138.54251847, 36.28575444], [138.52569261, 36.2830925], [138.51856958, 36.2946875], [138.5159082, 36.29648805], [138.51401597, 36.29763753], [138.50009151, 36.2965578], [138.50099764, 36.29852587], [138.49442044, 36.30420222], [138.49256905, 36.30331972], [138.49328708, 36.29982861], [138.48903066, 36.29701917], [138.48697453, 36.29010947], [138.48482869, 36.29134531], [138.48576953, 36.29288975], [138.48364564, 36.29394223], [138.48891681, 36.30091111], [138.48526958, 36.302895], [138.48518462, 36.30677917], [138.4889038, 36.31027278], [138.48697798, 36.31182361], [138.49058494, 36.31580751], [138.48261355, 36.31461861], [138.48058105, 36.31599667], [138.48296497, 36.31924889], [138.48155553, 36.32066917], [138.48340167, 36.3230225], [138.48120031, 36.32583497], [138.48291224, 36.32659025], [138.48185811, 36.32974775], [138.483067, 36.3312758], [138.4813173, 36.33495275], [138.47957756, 36.33384441], [138.47789925, 36.33799275], [138.47968983, 36.33851275], [138.4795865, 36.34024747], [138.48109317, 36.33916664], [138.48099261, 36.34036025], [138.4830165, 36.34066941], [138.48264569, 36.34577497], [138.48666267, 36.34843331], [138.49298525, 36.36067856], [138.48891358, 36.35988522], [138.48605661, 36.35523884], [138.48618406, 36.35086803], [138.47923464, 36.35166831], [138.47851406, 36.34966747], [138.4806382, 36.34643747], [138.47704569, 36.34304164], [138.4751485, 36.34718025], [138.4778935, 36.34839997], [138.47721078, 36.35550495], [138.47289713, 36.35339605], [138.47332017, 36.34791831], [138.46808462, 36.34845495], [138.46758211, 36.34995244], [138.46477239, 36.34882411], [138.46497017, 36.35018272], [138.46115294, 36.35109078], [138.458216, 36.34796105], [138.45757183, 36.34805217], [138.46056183, 36.35058023], [138.46675747, 36.36194105], [138.46645306, 36.36370744], [138.46933361, 36.36605577], [138.47453061, 36.37600744], [138.47904536, 36.37917075], [138.4807882, 36.38705936], [138.49262125, 36.39238436], [138.49237322, 36.39565492], [138.495821, 36.39912739], [138.49571713, 36.40530295], [138.49784856, 36.41015517], [138.50679022, 36.41393041], [138.51732545, 36.40745184], [138.52934681, 36.40304267], [138.53892597, 36.40250239], [138.54376042, 36.40529128], [138.54963073, 36.41334403], [138.55500798, 36.41777375], [138.56450686, 36.42021678], [138.57312964, 36.41919514], [138.58384217, 36.42254511], [138.58686189, 36.42038513], [138.59239689, 36.42439151], [138.59965633, 36.42409484], [138.60382717, 36.42199844], [138.61299997, 36.42262151], [138.61867025, 36.42052956], [138.62123886, 36.41646903], [138.62513358, 36.41565153], [138.63284639, 36.41798595], [138.63715139, 36.41721622], [138.64783584, 36.40928205], [138.64846384, 36.39979928], [138.65218745, 36.39539344], [138.65215769, 36.3853718], [138.64955878, 36.37923764], [138.65149042, 36.37300767], [138.65716348, 36.36890153], [138.65225151, 36.36241211], [138.65222092, 36.35922989], [138.65398341, 36.35709322], [138.65008061, 36.35248325], [138.65127839, 36.34964825], [138.64965027, 36.33844269], [138.65119917, 36.33527047], [138.65048275, 36.33226047], [138.65315776, 36.33000325], [138.65153608, 36.32720769], [138.65330577, 36.32426017], [138.64782881, 36.31557713], [138.65122711, 36.30801239], [138.653751, 36.30716795], [138.6535307, 36.30311489], [138.65012263, 36.30148017], [138.65113292, 36.29902378], [138.64629927, 36.29748295], [138.64450428, 36.29325572], [138.63750842, 36.29345853], [138.63085562, 36.28850853], [138.61250891, 36.28565522], [138.61116472, 36.28208023], [138.60717886, 36.27959551], [138.59444189, 36.27863661], [138.57888939, 36.28182831]]]]}}, {"type": "Feature", "properties": {"pref": "新潟県", "role": "protected_enclave", "munis": ["妙高市", "糸魚川市"], "source": "二次情報+北陸公式に新潟記載なし(保守的) + N03"}, "geometry": {"type": "MultiPolygon", "coordinates": [[[[137.74965484, 36.78116159], [137.75093484, 36.78345187], [137.75084791, 36.79162161], [137.75429375, 36.79658908], [137.74949795, 36.80415495], [137.74932822, 36.80957608], [137.74562713, 36.81216664], [137.74402102, 36.81600805], [137.73221664, 36.82344895], [137.73008136, 36.82642589], [137.73443859, 36.83139947], [137.73264944, 36.83613777], [137.73417389, 36.84239164], [137.73285861, 36.84473913], [137.73516112, 36.85519075], [137.73240058, 36.85786713], [137.73406531, 36.86106017], [137.732832, 36.8670618], [137.73406616, 36.86903153], [137.73224283, 36.87354122], [137.72446202, 36.8781765], [137.7135182, 36.89143839], [137.71435795, 36.89910167], [137.71257185, 36.90408056], [137.71783185, 36.90767386], [137.71751691, 36.91970741], [137.71628219, 36.92139075], [137.72045667, 36.92668964], [137.71624253, 36.93273489], [137.71373808, 36.93384156], [137.71380728, 36.93788597], [137.71139839, 36.9406632], [137.71129842, 36.94408761], [137.69864338, 36.9422682], [137.68772866, 36.94314431], [137.67347586, 36.95068177], [137.66650611, 36.95023903], [137.66620642, 36.95369317], [137.65785167, 36.95964233], [137.65153639, 36.96902039], [137.63767387, 36.97654872], [137.63498475, 36.97979795], [137.65115614, 36.98063813], [137.65605144, 36.98262759], [137.653637, 36.98217425], [137.65181392, 36.98286259], [137.65855562, 36.98496787], [137.66718484, 36.98568644], [137.67342706, 36.98733395], [137.68004791, 36.99060811], [137.69942772, 36.99413531], [137.72654827, 37.00227725], [137.72827745, 37.00318531], [137.72606411, 37.00430364], [137.73200606, 37.00503087], [137.76729891, 37.01754656], [137.81390647, 37.03006723], [137.82877131, 37.03942561], [137.83988311, 37.04422], [137.84623966, 37.05001059], [137.83579211, 37.04048797], [137.83657917, 37.03946867], [137.83863475, 37.04073964], [137.84012903, 37.03742928], [137.84173267, 37.03789359], [137.84060161, 37.04040031], [137.8444055, 37.04287411], [137.84200859, 37.0432092], [137.84543764, 37.04547372], [137.84612869, 37.04445892], [137.88500973, 37.05224811], [137.91219445, 37.06078292], [137.92821742, 37.0695635], [137.92812628, 37.07129822], [137.92888672, 37.0719665], [137.92996185, 37.07233411], [137.92891503, 37.07049905], [137.93216772, 37.07194053], [137.93072555, 37.07366341], [137.93224122, 37.07192184], [137.93478625, 37.07299617], [137.93418772, 37.07385764], [137.93520978, 37.07286111], [137.94024267, 37.07530233], [137.94285866, 37.08087033], [137.94998175, 37.08632128], [137.96143842, 37.08851597], [137.9720508, 37.09370767], [137.97629772, 37.09908033], [137.98862983, 37.10432614], [137.99510594, 37.10925967], [137.99459647, 37.11160347], [137.99928842, 37.11565817], [137.99531367, 37.11012036], [137.99829694, 37.10985695], [137.9988153, 37.11099567], [137.99725533, 37.11121261], [137.99918898, 37.11149567], [137.99834141, 37.10944839], [137.99949895, 37.10906247], [138.00056297, 37.11212756], [137.99961839, 37.11212872], [137.99839, 37.11263733], [137.9999937, 37.11241431], [138.0002863, 37.11252914], [138.00081623, 37.11283603], [138.00471158, 37.11501872], [138.00508161, 37.11523241], [138.00630661, 37.11435708], [138.00894294, 37.11444661], [138.01316547, 37.11582105], [138.01510519, 37.11464189], [138.0192302, 37.11404077], [138.02593939, 37.11601077], [138.03291109, 37.12079523], [138.03826445, 37.12202828], [138.04756725, 37.12720689], [138.05103811, 37.13037605], [138.05167367, 37.13418717], [138.05279119, 37.13266133], [138.05296925, 37.13451022], [138.05128092, 37.13493522], [138.0525437, 37.13620272], [138.04967051, 37.13624472], [138.04974453, 37.13696105], [138.05632175, 37.13635411], [138.05875844, 37.13914078], [138.05969428, 37.14317051], [138.06776988, 37.14816605], [138.07305322, 37.14487051], [138.07454652, 37.13760995], [138.07783625, 37.13465023], [138.07929484, 37.12850105], [138.08444258, 37.12084577], [138.08085339, 37.11231828], [138.08235533, 37.10853856], [138.07554167, 37.10268825], [138.07419302, 37.09152631], [138.08094581, 37.0904938], [138.08237078, 37.08409464], [138.08712051, 37.07952269], [138.08599051, 37.07640825], [138.08721964, 37.07405464], [138.08514185, 37.06953964], [138.09059961, 37.06434241], [138.09565156, 37.06193659], [138.09342822, 37.05678131], [138.09442791, 37.05448492], [138.092939, 37.04716853], [138.090044, 37.04263797], [138.09033591, 37.03460214], [138.0881437, 37.03017547], [138.08960728, 37.02336408], [138.08737367, 37.01451075], [138.09435392, 36.99526072], [138.09376195, 36.99071264], [138.09614472, 36.98387986], [138.09380139, 36.97611931], [138.10234361, 36.97132595], [138.1046425, 36.97524705], [138.10726973, 36.97613428], [138.11185083, 36.97185344], [138.12367639, 36.966099], [138.12899302, 36.959624], [138.14212995, 36.95539761], [138.14801881, 36.95169595], [138.14926908, 36.94895344], [138.15472852, 36.95088875], [138.15262798, 36.94434456], [138.15111353, 36.94378039], [138.15374795, 36.94164069], [138.15549267, 36.94434903], [138.16206764, 36.94489597], [138.16683708, 36.94757795], [138.17678817, 36.94584211], [138.18417036, 36.94761741], [138.19067117, 36.94722241], [138.19566642, 36.95017772], [138.20887667, 36.95389272], [138.21020027, 36.9522872], [138.20876805, 36.94980914], [138.21429163, 36.94682887], [138.21048664, 36.94180247], [138.21755022, 36.94261692], [138.22149519, 36.94090277], [138.22254241, 36.94278525], [138.22490737, 36.94281475], [138.2248863, 36.94458195], [138.22881214, 36.94483213], [138.2284075, 36.94254536], [138.23129808, 36.94421325], [138.23053411, 36.95069584], [138.23535019, 36.95173333], [138.23747494, 36.95590778], [138.23984964, 36.95667444], [138.24215497, 36.966965], [138.24544275, 36.97102251], [138.24519944, 36.97364778], [138.25019639, 36.97825336], [138.24915003, 36.98204195], [138.24457419, 36.98516139], [138.24344117, 36.99023861], [138.24614061, 36.99187056], [138.24572397, 36.99467833], [138.24895092, 36.99618972], [138.24534508, 36.99754611], [138.24841064, 37.00048167], [138.25038764, 37.00999695], [138.24780542, 37.01139], [138.24262542, 37.00834917], [138.23711403, 37.00943389], [138.23739625, 37.00568], [138.23504375, 37.00636556], [138.23401706, 37.00178195], [138.22821484, 36.99727275], [138.22915678, 36.99563664], [138.22706066, 36.99576247], [138.22687008, 36.99343664], [138.223129, 36.99327608], [138.22324175, 36.99161386], [138.21194175, 36.98524717], [138.20662564, 36.97924967], [138.20790567, 36.98314244], [138.22211623, 36.99387997], [138.22246316, 36.99650553], [138.22005003, 36.99767503], [138.22097486, 37.00017692], [138.21930375, 37.00195608], [138.20976239, 36.99529061], [138.20462389, 36.99421517], [138.20366995, 36.99499047], [138.20507922, 36.99838997], [138.20279195, 36.99818578], [138.20297348, 36.99568911], [138.20093241, 36.99566561], [138.20130353, 36.99172692], [138.18437377, 36.98483547], [138.17418017, 36.97035767], [138.17194073, 36.97235405], [138.17194489, 36.97473684], [138.17008742, 36.97487989], [138.16709326, 36.97199405], [138.16136908, 36.97085711], [138.15395661, 36.96440347], [138.14495577, 36.96768431], [138.14111497, 36.97070459], [138.13370691, 36.96889456], [138.13230469, 36.97277011], [138.12979195, 36.97404567], [138.13166889, 36.98943459], [138.13788501, 36.99298014], [138.1403625, 36.99748933], [138.13770447, 37.009376], [138.1408028, 37.01108989], [138.13900173, 37.01680572], [138.13516922, 37.02193989], [138.13790703, 37.03097103], [138.14733064, 37.03135686], [138.1582673, 37.03561464], [138.15854012, 37.04344325], [138.16264538, 37.04509689], [138.17695759, 37.04325272], [138.18269925, 37.04422495], [138.18121484, 37.05174578], [138.17582903, 37.05875856], [138.17727375, 37.06089384], [138.18632652, 37.06308023], [138.19077514, 37.06240384], [138.19694153, 37.06678859], [138.20649375, 37.06753553], [138.20783014, 37.07072497], [138.21884481, 37.0648272], [138.22581453, 37.06518303], [138.23138678, 37.06828192], [138.23799205, 37.06855553], [138.23847399, 37.0700658], [138.24244927, 37.06871636], [138.23701983, 37.06785692], [138.2367598, 37.06650275], [138.24848205, 37.06527913], [138.24814789, 37.0691155], [138.24936708, 37.06927217], [138.2530215, 37.06481077], [138.2530562, 37.06126525], [138.26056425, 37.05903053], [138.26170591, 37.05733775], [138.26344175, 37.05739859], [138.26427903, 37.06543161], [138.26920042, 37.06360495], [138.26981684, 37.06587022], [138.27454267, 37.06411717], [138.27459489, 37.0652152], [138.27965936, 37.06566631], [138.27895239, 37.06212964], [138.27377956, 37.05519439], [138.27441759, 37.05331551], [138.27841008, 37.05176605], [138.26850202, 37.05152303], [138.26723922, 37.04945247], [138.27085031, 37.04312108], [138.27587144, 37.04686608], [138.27863639, 37.04530228], [138.27801469, 37.04443947], [138.28301817, 37.04269239], [138.27884795, 37.03343251], [138.28275888, 37.03426833], [138.28350577, 37.02763669], [138.28856186, 37.02215169], [138.28687375, 37.01219617], [138.2909665, 37.00633753], [138.28790287, 37.00531311], [138.29159591, 37.00457086], [138.29582698, 36.99770892], [138.30262613, 36.99709669], [138.30390947, 36.99865892], [138.3068592, 36.99643861], [138.31109197, 36.99845917], [138.31622056, 36.99408084], [138.33000633, 36.99215636], [138.33286438, 36.99094831], [138.33470603, 36.98746553], [138.3428718, 36.98577859], [138.34344681, 36.9834372], [138.34637983, 36.98263747], [138.34787978, 36.97653803], [138.35591614, 36.97581775], [138.35904475, 36.97769664], [138.36311917, 36.97563859], [138.36870584, 36.97803022], [138.37363111, 36.97762439], [138.37869555, 36.98043717], [138.38227438, 36.97642105], [138.37589881, 36.97215275], [138.37444572, 36.96842553], [138.36937377, 36.96387139], [138.36724292, 36.95944472], [138.36816289, 36.95712251], [138.36367564, 36.9530778], [138.3646692, 36.9445545], [138.35971364, 36.93998005], [138.35756, 36.93358256], [138.35230861, 36.92942922], [138.34917111, 36.92924256], [138.34320445, 36.92079675], [138.33729781, 36.92508923], [138.32989008, 36.92684672], [138.31756983, 36.92518505], [138.31484733, 36.92190314], [138.30740903, 36.91937008], [138.29649514, 36.91104147], [138.29437733, 36.90132453], [138.29028927, 36.89681123], [138.29448175, 36.89335233], [138.2952845, 36.88848761], [138.29936808, 36.88672123], [138.29299752, 36.87812428], [138.29313639, 36.87297761], [138.28943448, 36.87149761], [138.28852778, 36.86895013], [138.29236834, 36.86449736], [138.29239886, 36.86201069], [138.29503275, 36.8607568], [138.29605745, 36.85558375], [138.29192581, 36.85408653], [138.29161328, 36.85159541], [138.28995997, 36.85291459], [138.28761244, 36.84570653], [138.27490163, 36.84085433], [138.27057025, 36.84409184], [138.27169392, 36.85528375], [138.26835669, 36.86045708], [138.25841453, 36.86336847], [138.2574337, 36.86825513], [138.25487761, 36.8699432], [138.24931399, 36.86533431], [138.23500764, 36.86371795], [138.21720489, 36.86640461], [138.21303436, 36.868296], [138.21378828, 36.87114986], [138.20640769, 36.86298823], [138.20614739, 36.859701], [138.20338545, 36.85713878], [138.19559436, 36.85367236], [138.17750025, 36.8517845], [138.17607134, 36.84769728], [138.17240497, 36.84750144], [138.16901776, 36.84507253], [138.15598558, 36.84508887], [138.15053616, 36.84632189], [138.1474262, 36.84937772], [138.14048287, 36.84719241], [138.13183791, 36.85067072], [138.12474292, 36.84795375], [138.11505267, 36.85039233], [138.11239406, 36.849494], [138.10634623, 36.84378403], [138.09934151, 36.8435582], [138.09333897, 36.84019987], [138.09227338, 36.83639489], [138.08603808, 36.83429684], [138.08157639, 36.83007295], [138.07301681, 36.81684689], [138.07528372, 36.81070303], [138.07070339, 36.80529969], [138.05222445, 36.79995972], [138.05151978, 36.80764167], [138.04535562, 36.80980305], [138.04129256, 36.80766111], [138.03379728, 36.80883333], [138.0337245, 36.81070667], [138.03035533, 36.81349861], [138.03121536, 36.81523889], [138.02887869, 36.81711389], [138.02427064, 36.81682611], [138.02135175, 36.81955972], [138.01704008, 36.81882639], [138.0116162, 36.82313889], [138.00863258, 36.82265805], [138.00721814, 36.82504389], [138.00346148, 36.82641361], [138.01434406, 36.83886803], [138.02022992, 36.84239189], [138.01887581, 36.85043772], [138.01570747, 36.85258661], [138.01552555, 36.85737884], [138.01367528, 36.86043272], [138.01690917, 36.86042241], [138.02086614, 36.86337547], [138.02209562, 36.86747631], [138.03180767, 36.87835461], [138.03249601, 36.88096764], [138.03284936, 36.88619125], [138.0311602, 36.89127875], [138.02665131, 36.89252517], [138.02184628, 36.89050656], [138.01568319, 36.89309628], [138.01467569, 36.89515544], [138.01568655, 36.901666], [138.01373795, 36.90402072], [138.00285597, 36.90500908], [137.99140178, 36.91074856], [137.97644562, 36.90829164], [137.96957503, 36.91081275], [137.96703639, 36.90568331], [137.96256608, 36.90221969], [137.95786577, 36.90279664], [137.95298606, 36.90524497], [137.94848995, 36.91278333], [137.93212073, 36.91427167], [137.92061017, 36.92002584], [137.91097927, 36.91786333], [137.90275783, 36.91426611], [137.90043811, 36.91143556], [137.89326, 36.90995969], [137.8786083, 36.91270664], [137.87465027, 36.91585275], [137.86834803, 36.91593189], [137.86361772, 36.91313272], [137.86386075, 36.90984328], [137.86208131, 36.90768189], [137.87122128, 36.90293022], [137.87161628, 36.90110769], [137.86860428, 36.89742297], [137.86515428, 36.89642908], [137.86155256, 36.89106517], [137.86666031, 36.88659961], [137.86610501, 36.88360933], [137.86865691, 36.87730847], [137.87777248, 36.87332823], [137.87525939, 36.86913569], [137.87645713, 36.8662068], [137.87339795, 36.86357653], [137.86826876, 36.86283456], [137.85815725, 36.85305259], [137.85581358, 36.84916008], [137.85695555, 36.84393925], [137.85422584, 36.840459], [137.84508778, 36.8345015], [137.84386419, 36.82977597], [137.83155647, 36.81944964], [137.83257258, 36.81150689], [137.83097511, 36.808013], [137.82278124, 36.80598387], [137.82288986, 36.8024208], [137.81998263, 36.79822167], [137.79327553, 36.78665675], [137.79122278, 36.77855508], [137.78478694, 36.77434456], [137.78193558, 36.7729815], [137.7758292, 36.77367956], [137.76907228, 36.77136653], [137.76244481, 36.76615513], [137.76338674, 36.76823347], [137.76208036, 36.77042489], [137.75747564, 36.77476405], [137.75218927, 36.77704797], [137.74965484, 36.78116159]]], [[[137.66326064, 36.98720841], [137.66329814, 36.98694675], [137.66312314, 36.98702092], [137.66326064, 36.98720841]]], [[[137.6759493, 36.98902144], [137.6757307, 36.98910533], [137.67587236, 36.98914839], [137.6759493, 36.98902144]]], [[[137.67627403, 36.98979505], [137.67643236, 36.98971478], [137.67628014, 36.98972256], [137.67627403, 36.98979505]]], [[[137.67800486, 36.99078728], [137.67778431, 36.99076367], [137.67782375, 36.99088477], [137.67800486, 36.99078728]]], [[[137.6789718, 36.99119895], [137.67883014, 36.99137284], [137.67901764, 36.99135339], [137.6789718, 36.99119895]]], [[[137.68613545, 36.99195141], [137.68614795, 36.99219947], [137.68631655, 36.99210947], [137.68613545, 36.99195141]]], [[[137.70130939, 36.99595086], [137.70153856, 36.99599975], [137.70142411, 36.99585225], [137.70130939, 36.99595086]]], [[[137.70767856, 36.99825475], [137.70777856, 36.9985342], [137.70787633, 36.99835641], [137.70767856, 36.99825475]]], [[[137.71585275, 36.99989392], [137.71606514, 36.99995611], [137.71607747, 36.99990364], [137.71585275, 36.99989392]]], [[[137.73498105, 37.00675725], [137.73478438, 37.00691031], [137.73507105, 37.0068978], [137.73498105, 37.00675725]]], [[[137.73387105, 37.00692253], [137.73407772, 37.00702253], [137.73408438, 37.00688197], [137.73387105, 37.00692253]]], [[[137.84982163, 37.05221272], [137.84511944, 37.05062567], [137.8449863, 37.05088384], [137.84982163, 37.05221272]]], [[[137.9293355, 37.07292784], [137.93032083, 37.0743798], [137.93054189, 37.07447387], [137.93057394, 37.07441164], [137.9293355, 37.07292784]]], [[[137.96193986, 37.090906], [137.96187353, 37.09098044], [137.96195764, 37.09098623], [137.96193986, 37.090906]]], [[[137.99301283, 37.10877505], [137.99320669, 37.11044923], [137.993554, 37.11059314], [137.99301283, 37.10877505]]], [[[137.99294958, 37.11072217], [137.99287625, 37.11085633], [137.99301959, 37.11079077], [137.99294958, 37.11072217]]], [[[137.99333959, 37.11101577], [137.99318292, 37.11093772], [137.99323292, 37.11106884], [137.99333959, 37.11101577]]], [[[137.99360597, 37.11152217], [137.99351263, 37.11163772], [137.99363597, 37.11160328], [137.99360597, 37.11152217]]], [[[137.99365263, 37.111778], [137.9937193, 37.111853], [137.99375597, 37.11175328], [137.99365263, 37.111778]]], [[[137.99372263, 37.11211856], [137.9941293, 37.112303], [137.99383431, 37.11193744], [137.99372263, 37.11211856]]], [[[138.00170817, 37.11362123], [138.00149859, 37.11362864], [138.0015745, 37.11372577], [138.00170817, 37.11362123]]], [[[138.00199338, 37.11382359], [138.00187516, 37.11351417], [138.0017565, 37.11375775], [138.00199338, 37.11382359]]], [[[138.00098997, 37.11376605], [138.00125477, 37.11378656], [138.00134375, 37.11373447], [138.00098997, 37.11376605]]], [[[138.00157686, 37.11380414], [138.00145616, 37.11388895], [138.00157397, 37.11389853], [138.00157686, 37.11380414]]], [[[138.0011785, 37.11456272], [138.00105905, 37.11461911], [138.00112433, 37.11467551], [138.0011785, 37.11456272]]], [[[138.00395019, 37.11474289], [138.0042675, 37.11494064], [138.0044745, 37.11488722], [138.00395019, 37.11474289]]], [[[138.00650655, 37.11487439], [138.00638267, 37.11486495], [138.00644183, 37.11495661], [138.00650655, 37.11487439]]], [[[138.00730767, 37.11509411], [138.00722655, 37.114938], [138.00716822, 37.11503161], [138.00730767, 37.11509411]]], [[[138.00729211, 37.11517439], [138.00733905, 37.115188], [138.00733683, 37.115163], [138.00729211, 37.11517439]]], [[[138.00521633, 37.11540323], [138.00557828, 37.11527795], [138.00514711, 37.11529708], [138.00521633, 37.11540323]]], [[[138.00650128, 37.11548767], [138.00676455, 37.11540931], [138.00648591, 37.11540877], [138.00650128, 37.11548767]]], [[[138.00697739, 37.11558356], [138.00704294, 37.11562939], [138.00705961, 37.11558995], [138.00697739, 37.11558356]]], [[[138.00567462, 37.11572356], [138.00568545, 37.11585828], [138.00574183, 37.115793], [138.00567462, 37.11572356]]], [[[138.00571377, 37.11607077], [138.00577017, 37.11602523], [138.00572462, 37.11602523], [138.00571377, 37.11607077]]], [[[138.00584822, 37.11622884], [138.00581128, 37.11615522], [138.00582211, 37.11624828], [138.00584822, 37.11622884]]], [[[138.01568575, 37.11527467], [138.01578547, 37.11494384], [138.01556713, 37.11495995], [138.01568575, 37.11527467]]], [[[138.00738377, 37.11531717], [138.00739711, 37.11527328], [138.00737128, 37.11529411], [138.00738377, 37.11531717]]], [[[138.00739294, 37.11543578], [138.00740239, 37.11537967], [138.0073785, 37.1153805], [138.00739294, 37.11543578]]], [[[138.01147464, 37.11628633], [138.01164409, 37.11628105], [138.0115363, 37.11619744], [138.01147464, 37.11628633]]], [[[138.01338769, 37.11634023], [138.01357326, 37.11632939], [138.01334769, 37.11628105], [138.01338769, 37.11634023]]], [[[138.0121663, 37.11658772], [138.01224964, 37.11651495], [138.01213936, 37.116523], [138.0121663, 37.11658772]]], [[[138.01391769, 37.11666856], [138.01389075, 37.11656884], [138.01387464, 37.11664439], [138.01391769, 37.11666856]]], [[[138.01287936, 37.11676523], [138.01278798, 37.116768], [138.01283908, 37.11682189], [138.01287936, 37.11676523]]], [[[138.01309158, 37.1169455], [138.01306241, 37.11686495], [138.01304075, 37.11693744], [138.01309158, 37.1169455]]], [[[138.04092031, 37.12759578], [138.04101392, 37.12748022], [138.04088475, 37.12752605], [138.04092031, 37.12759578]]], [[[138.0503385, 37.1355862], [138.05063981, 37.13439578], [138.05049815, 37.13442995], [138.0503385, 37.1355862]]], [[[138.0482037, 37.13722884], [138.04880852, 37.1376912], [138.04808533, 37.13555077], [138.0482037, 37.13722884]]], [[[138.04990925, 37.13708244], [138.04978341, 37.13708244], [138.04978341, 37.13710439], [138.04990925, 37.13708244]]], [[[138.04974869, 37.137458], [138.04979425, 37.13739939], [138.04972481, 37.13739939], [138.04974869, 37.137458]]], [[[138.05841345, 37.13905522], [138.05832455, 37.13914411], [138.05838733, 37.13916578], [138.05841345, 37.13905522]]], [[[138.05827233, 37.13941328], [138.05817484, 37.139333], [138.05819872, 37.13940467], [138.05827233, 37.13941328]]], [[[138.05834066, 37.14109605], [138.05824956, 37.14113772], [138.05835372, 37.14118967], [138.05834066, 37.14109605]]]]}}, {"type": "Feature", "properties": {"pref": "静岡県", "role": "boundary_river", "name": "富士川(主流)", "east": "tokyo", "west": "chubu", "source": "W05 + tepco_area"}, "geometry": {"type": "MultiLineString", "coordinates": [[[138.52739562, 35.21678643], [138.52882139, 35.21771278], [138.5342125, 35.22508722], [138.5369875, 35.22625111]], [[138.5369875, 35.22625111], [138.54032889, 35.2242125], [138.54041222, 35.21528389], [138.54117889, 35.21261194], [138.54711583, 35.20710528], [138.55308639, 35.20558222], [138.55484444, 35.20172333]], [[138.55484444, 35.20172333], [138.55431944, 35.19948139], [138.55492972, 35.19839361]], [[138.55791917, 35.19838], [138.55773167, 35.200705], [138.55484444, 35.20172333]], [[138.55950222, 35.198185], [138.55791917, 35.19838]], [[138.55791917, 35.19838], [138.55653583, 35.19760667], [138.55492972, 35.19839361]], [[138.60157417, 35.1927175], [138.59856583, 35.19131917]], [[138.60775694, 35.19077667], [138.60584056, 35.19281139], [138.60157417, 35.1927175]], [[138.57292611, 35.19380333], [138.56575167, 35.19062333], [138.56352694, 35.19213889], [138.56130222, 35.19741917], [138.55950222, 35.198185]], [[138.59373694, 35.19022944], [138.58838333, 35.19524056], [138.57677778, 35.1960425], [138.57292611, 35.19380333]], [[138.59856583, 35.19131917], [138.59579944, 35.18983889], [138.59373694, 35.19022944]], [[138.60792833, 35.18345861], [138.60571944, 35.18763222], [138.60775694, 35.19077667]], [[138.60920333, 35.18247167], [138.60792833, 35.18345861]], [[138.61713139, 35.18035194], [138.61262333, 35.18082444], [138.60920333, 35.18247167]], [[138.62068583, 35.16254861], [138.62023944, 35.16706], [138.62103778, 35.16952583], [138.62011444, 35.17081417], [138.62022278, 35.17409528], [138.61713139, 35.18035194]], [[138.62108667, 35.16152306], [138.62068583, 35.16254861]], [[138.62334944, 35.15677111], [138.62108667, 35.16152306]], [[138.62529, 35.15292861], [138.62334944, 35.15677111]], [[138.62745194, 35.14311583], [138.62529, 35.15292861]], [[138.64136935, 35.11519632], [138.63811722, 35.11673222], [138.63432833, 35.12190556], [138.63594861, 35.13357194], [138.63427889, 35.13563972], [138.62964917, 35.1386825], [138.62745194, 35.14311583]]]}}]}